"zip","city","state","name","address","postalCode","lat","lon"
"53005","Brookfield","WI","Bluemound Pediatrics-Children's Wisconsin","12635 W Bluemound Rd","53005",43.034079999999996,-88.069906
"53005","Brookfield","WI","Work","not_available","not_available",43.10241758823395,-88.06880414485931
"53005","Brookfield","WI","Ziering Medical","200 S Executive Dr Ste 101","53005",43.03142746523331,-88.11672449111938
"53005","Brookfield","WI","Wheaton Franciscan Healthcare Urgent Care","17000 W North Ave","53005",43.061547,-88.12353900000001
"53005","Brookfield","WI","Aurora Clinic at Walgreens","2205 N Calhoun Rd","53005",43.0589172,-88.1288766
"53005","Brookfield","WI","MATRIX MEDICAL","200 S Executive Dr #101","53005",43.03083142783297,-88.11357021331787
"53005","Brookfield","WI","Westbrook Pediatrics-Children's Wisconsin","13950 W Capitol Dr Ste 200","53005",43.0904067,-88.0853054
"53005","Brookfield","WI","Oilled","12605 W. North Ave. Suite 293","53005",43.0594612,-88.0694019
"53010","Campbellsport","WI","Urban Family Health lodge, Camp Long Lake","not_available","53010",43.69520378449309,-88.16401630962905
"53012","Cedarburg","WI","Ascension Columbia St. Mary's Ozaukee - Cedarburg","W62 N179 Washington Ave","53012",43.28269,-87.988
"53012","Cedarburg","WI","Rubber Room","not_available","53012",43.28056335449219,-87.989501953125
"53012","Cedarburg","WI","Aurora Urgent Care","215 Washington St","53024",43.319740295410156,-87.9627685546875
"53014","Chilton","WI","Calumet Medical Center","not_available","53014",44.025815479446905,-88.15317714890246
"53014","Chilton","WI","Ascension Calumet Hospital at Chilton","618 Memorial Dr","53014",44.02539673,-88.15364839
"53014","Chilton","WI","Emergency - Ascension Calumet Hospital (Ascension Calumet Hospital - Emergency Room)","614 Memorial Dr","53014",44.02527,-88.15365
"53018","Delafield","WI","Delafield Pediatrics-Children's Hospital of Wisconsin","3195 Hillside Dr","53018",43.04949855027633,-88.36737519452151
"53022","Germantown","WI","Virginia Highlands Health and Rehabilitation Center","W173N10915 Bernies Way","53022",43.215778,-88.125457
"53022","Germantown","WI","Ascension Columbia St. Mary's Ozaukee - Germantown","N112 W15415 Mequon Rd","53022",43.22034,-88.10068
"53024","Grafton","WI","Aurora Medical Center Grafton","975 Port Washington Rd","53024",43.32351937755163,-87.92762733904675
"53024","Grafton","WI","AMCG ortho floor","1200-1214 N Port Washington Rd","53024",43.3206243,-87.9267168045044
"53024","Grafton","WI","Aurora Medical Centre Room 303","not_available","53024",43.32426572789033,-87.92771352255936
"53024","Grafton","WI","Ascension Columbia St. Mary's Ozaukee - Grafton","2061 Cheyenne Ct","53024",43.320899963378906,-87.93704986572266
"53027","Hartford","WI","Aurora Medical Center","1032 E Sumner St","53027",43.31812,-88.36249
"53027","Hartford","WI","Hartford Hospital","not_available","53027",43.31951235600872,-88.33468424135991
"53027","Hartford","WI","Aurora Medical Center - Emergency Room","Wisconsin 60 Trunk, Hartford, WI 53027","53027",43.31798006130676,-88.36197190011326
"53027","Hartford","WI","Lifestar EMS - Station 2","123 Weil Dr","53086",43.33985137939453,-88.29444122314453
"53029","Hartland","WI","Waukesha county stroke support group","728 American","53188",43.14418411254883,-88.28529357910156
"53032","Horicon","WI","Clearview Medical Center","not_available","53039",43.41482511881072,-88.69976702747556
"53036","Ixonia","WI","Oconomowoc Animal Hospital","1443 W Wisconsin Ave","53066",43.1215934753418,-88.5251235961914
"53045","Brookfield","WI","Elmbrook Memorial Hospital","19333 W North Ave","53045",43.059134750009,-88.1548370483242
"53045","Brookfield","WI","south 665","not_available","53045",43.06974792480469,-88.16693878173828
"53045","Brookfield","WI","Emergency room specialists","19035 W Capitol Dr","53045",43.089996337890625,-88.14911651611328
"53045","Brookfield","WI","Visage Facial Plastic Surgery","19275 West Capitol Drive Suite 205","53045",43.0892313,-88.1530416
"53045","Brookfield","WI","Physicians Urgent Care","19165 W Bluemound Rd","53045",43.03545133453491,-88.15139035435246
"53051","Menomonee Falls","WI","CMH O.B.","not_available","53051",43.16482173326344,-88.13685223479706
"53051","Menomonee Falls","WI","Freodert family center","not_available","53226",43.14512032968896,-88.07123585261463
"53051","Menomonee Falls","WI","Community Memorial Cancer Care Center","Town Hall Road","not_available",43.173638226580636,-88.13290151718319
"53051","Menomonee Falls","WI","Aurora Urgent Care","N84W16889 Menomonee Ave","53051",43.169749,-88.119245
"53066","Oconomowoc","WI","Aurora Summit Emergency Room","36500 Aurora Dr","53066",43.06650643734336,-88.46841059156347
"53066","Oconomowoc","WI","Oconomowoc Memorial Hospital","791 Summit Ave","53066",43.10025871006099,-88.48682223040399
"53066","Oconomowoc","WI","Corporate Center- Rogers Behavioral Health","1230 Corporate Center Dr","53066",43.07313537597656,-88.47343444824219
"53066","Oconomowoc","WI","Oconomowoc Memorial Hospital Regional Cancer Center","not_available","53066",43.10077727850147,-88.48632587699115
"53066","Oconomowoc","WI","Angels Grace Hospice","Ashippun Shores Dr","53066",43.15444083574985,-88.45706231726092
"53066","Oconomowoc","WI","Aurora Urgent Care","1284n Summit Ave","53066",43.090500917938705,-88.47389219931424
"53072","Pewaukee","WI","Waukesha Heart Institute","not_available","53188",43.04252,-88.253732
"53072","Pewaukee","WI","Pewaukee Pediatrics-Children's Wisconsin","1215 George Towne Dr","53072",43.085128,-88.2389199
"53072","Pewaukee","WI","Lake Country Surgical Center","not_available","53072",43.046924,-88.267347
"53072","Pewaukee","WI","Childrens Hospital of Wisconsin - Herma Heart Center","9000 W Wisconsin Ave","53226",43.07508591802943,-88.21890286841246
"53073","Plymouth","WI","aurora urgent care","not_available","53073",43.74614715576172,-87.9446029663086
"53073","Plymouth","WI","Ascension Medical Group - Plymouth","515 E Mill St","53073",43.74714,-87.97384
"53073","Plymouth","WI","Aurora Urgent Care","2600 Kiley Way","53073",43.757783,-87.94933309999999
"53081","Sheboygan","WI","HSHS St. Nicholas Hospital","3100 Superior Ave","53081",43.76247534886484,-87.7481574221272
"53081","Sheboygan","WI","Aurora Sheboygan Memorial Medical Center","2629 N 7th St","53083",43.77290786572136,-87.71063315641578
"53081","Sheboygan","WI","sheboygan memorial medical center ER","not_available","53083",43.772796630859375,-87.71067810058594
"53081","Sheboygan","WI","Marsho Express Care","1703 N Taylor Dr","53081",43.763397216796875,-87.74908447265625
"53081","Sheboygan","WI","Aurora Walk In Clinic","kohler memorial Dr","53081",43.75719170969357,-87.73925818467755
"53081","Sheboygan","WI","Ascension Medical Group - Coulis Cardiology","1414 N Taylor Dr","53081",43.76056,-87.75035
"53081","Sheboygan","WI","St. Nicholas Hospital Chapel","not_available","53081",43.76239428488267,-87.74753537664056
"53081","Sheboygan","WI","Aurora Urgent Care","2414 Kohler Memorial Dr","53081",43.75761413574219,-87.73837280273438
"53090","West Bend","WI","Alyce & Elmore Kraemer Cancer","1110 Oak St","53095",43.417137145996094,-88.1908187866211
"53090","West Bend","WI","PPH West Bend Wi","not_available","53090",43.42840576171875,-88.2351303100586
"53092","Mequon","WI","Columbia St. Mary's Hospital Ozaukee","13111 N Port Washington Rd","53097",43.256772929660016,-87.92591321020404
"53092","Mequon","WI","Ascension Medical Group - Cosmetic Surgery & Skin Care Center","10554 N Port Washington Rd","53092",43.21005,-87.92347
"53092","Mequon","WI","3 North CSM Ozaukee hosp","not_available","53097",43.25679462657525,-87.92612867694045
"53092","Mequon","WI","Milwaukee Foot and Ankle Specialists","10945 N Port Washington Rd","53092",43.21376192580929,-87.92433500289917
"53092","Mequon","WI","Columbia Center Birth Hospital","13125 N Port Washington Rd","53097",43.25644399999999,-87.92625819999999
"53092","Mequon","WI","Sick Bay","not_available","53092",43.237552642822266,-87.98528289794922
"53092","Mequon","WI","Ascension Columbia St. Mary's Ozaukee - Concord Center","11725 N Port Washington Rd","53092",43.23029,-87.92484
"53092","Mequon","WI","Aurora Clinic at Walgreens","11270 N Port Washington Rd","53092",43.22282028198242,-87.92301940917969
"53092","Mequon","WI","Lawlis Family Hospice - Horizon Home Care","13111 N Port Washington Rd Fl 2","53097",43.2567138671875,-87.92581939697266
"53095","West Bend","WI","Froedtert St. Joseph's Hospital","3200 Pleasant Valley Rd","53095",43.355399720313144,-88.19538992855843
"53095","West Bend","WI","Dynacare Labs","not_available","53095",43.354021833333334,-88.190858
"53095","West Bend","WI","st joseph","not_available","53076",43.355744199723866,-88.19480447136938
"53095","West Bend","WI","Aurora Urgent Care","1100 Gateway Ct","53095",43.396895,-88.18889899999999
"53095","West Bend","WI","St. Joseph's Hospital","1201 Oak St","53095",43.355570937663714,-88.19552840343523
"53095","West Bend","WI","Lifestar EMS - Station 1","Decorah Rd","53090",43.41288574,-88.17598797
"53098","Watertown","WI","Watertown Regional Medical Center","125 Hospital Dr","53098",43.2000735,-88.6967015
"53098","Watertown","WI","UW health partners Watertown regional medical center","125 Hospital Dr, Watertown, WI 53098","53098",43.19975280761719,-88.69695281982422
"53098","Watertown","WI","Golden Living Center","121 Hospital Dr","53098",43.19841054272851,-88.69688775368417
"53098","Watertown","WI","Watertown Regional Medical Center - Emergency Department","806 Schuman Dr","53098",43.20002982872077,-88.69646787643433
"53098","Watertown","WI","ห้องตรวจกระดูกและข้อ โรงพยาบาลครัง","Trang Hospital","53098",43.20176,-88.697164
"53098","Watertown","WI","Peter Silvers, PA-C","123 Hospital Dr Ste 2004","53098",43.19927118884035,-88.69747638702393
"53098","Watertown","WI","ห้องปฏิบัติการสวนหัวใจและหลอดเลือด","Phayathai3 Hospital","53098",43.20176,-88.697164
"53098","Watertown","WI","Watertown Urgent Care","123 Hospital Dr","53098",43.19954217469959,-88.6973446501954
"53104","Bristol","WI","Children's Urgent Care at Kenosha-Children's Wisconsin","6809 122nd Ave","53142",42.57391032462521,-87.9539979238549
"53105","Burlington","WI","Lakeview Specialty Hospital","1701 Sharp Rd","53185",42.73798682521578,-88.16798804016895
"53105","Burlington","WI","Aurora Memorial Hospital of Burlington","248 McHenry St","53105",42.67326681536907,-88.28096112550126
"53105","Burlington","WI","Burlington Memorial Hospital","not_available","53105",42.591788633380006,-88.2916739166412
"53105","Burlington","WI","Aurora Urgent Care","146 E Geneva Square","53147",42.606571197509766,-88.4249496459961
"53105","Burlington","WI","Medix Ambulance - Burlington","701 Black Hawk Dr Ste I","53105",42.664296428337956,-88.27362556463137
"53105","Burlington","WI","Aurora Urgent Care","818 Forrest Ln","53185",42.76789,-88.197601
"53105","Burlington","WI","AMCB Southern Lakes Surgery Center","709 Spring Valley Rd","53105",42.663848876953125,-88.30908203125
"53105","Burlington","WI","Mount Carmel Medical and Rehabilitation Center","677 E State St","53105",42.677906,-88.260769
"53105","Burlington","WI","Aurora Medical Center Burlington","252 McHenry St","53105",42.672694,-88.281381
"53110","Cudahy","WI","Aurora St. Luke's South Shore","5900 S Lake Dr","53110",42.93694146378543,-87.85096432476263
"53110","Cudahy","WI","St Lukes ER","not_available","53110",42.93701767317265,-87.85087935123083
"53110","Cudahy","WI","Aurora Urgent Care","2000 E Layton Ave","53235",42.960330963134766,-87.884521484375
"53110","Cudahy","WI","St Lukes South Shore~Radiology","Ramsey","53110",42.93655303908009,-87.85127061434851
"53110","Cudahy","WI","Cudahy Halfway House","Illinois Ave.","53110",42.935893602296545,-87.8797835111618
"53114","Darien","WI","Beloit Health System Darien Clinic","300 N. Walworth","53114",42.603978999999995,-88.717637
"53118","Dousman","WI","Froedtert Hospital - 5SW","9200 W Wisconsin Ave","53226",42.93429191436155,-88.39452003380049
"53119","Eagle","WI","Hospital","not_available","53120",42.82877,-88.424764
"53121","Elkhorn","WI","Aurora Lakeland Medical Center","W3985 County Road Nn","53121",42.66181494341252,-88.496397861166
"53121","Elkhorn","WI","Aurora Lakeland Medical Center - Emergency Department","not_available","53121",42.66185681469151,-88.49671973406029
"53121","Elkhorn","WI","Jay Visual Packaging","230 Oconnor Dr","53121",42.650757,-88.53850999999997
"53121","Elkhorn","WI","Aurora Urgent Care","201 E Morrissy Dr","53121",42.64725875854492,-88.54045104980469
"53129","Greendale","WI","Aurora Urgent Care","6901 W Edgerton Ave","53220",42.95180353509061,-87.9998070851702
"53129","Greendale","WI","urgent care","not_available","53220",42.95176737633656,-87.99977643039348
"53130","Hales Corners","WI","the surgery center","not_available","53130",42.93490982055664,-88.0549545288086
"53132","Franklin","WI","Wheaton Franciscan Hospital","9575 S 27th St","53132",42.859854682161746,-87.95365379477296
"53132","Franklin","WI","Wheaton Franciscan Healthcare","10101 S 27th St","53132",42.86002101566554,-87.95469638281334
"53132","Franklin","WI","wheaton franciscan emergency room/ urgent care","not_available","53132",42.85981176815142,-87.95371167509272
"53132","Franklin","WI","Franklin Memorial Hospital","10101 S 27th St, Franklin, WI 53132","53132",42.859840393066406,-87.95399475097656
"53132","Franklin","WI","Ascension Medical Group - S. 27th Street Urgent Care","9969 S 27th St","53132",42.86355209350586,-87.95358276367188
"53132","Franklin","WI","Nursing Consulting Partners","6909 S. Parkview Ct.","53132",42.919632,-87.998532
"53132","Franklin","WI","Concentra Urgent Care","5040 W Ashland Way","53132",42.871693,-87.97881
"53132","Franklin","WI","Milwaukee Sterilizer Service Inc","10610 W Venture Dr","53132",42.928676,-88.046532
"53132","Franklin","WI","Aurora West Allis Medical Center 5th Floor","not_available","53154",42.875593062600785,-87.95171394369096
"53132","Franklin","WI","Franklin Pediatrics-Children's Wisconsin","7322 W Rawson Ave","53132",42.91659384307326,-88.00586906051547
"53139","Kansasville","WI","Animal Hospital Of Union Grove","4414 Schoen Rd","53182",42.682155430904594,-88.08146219483756
"53142","Kenosha","WI","Aurora Medical Center","10400 75th St","53142",42.56905074427819,-87.93497875889373
"53142","Kenosha","WI","Weil Foot & Ankle Institute","10105 74th St #101","53142",42.567710876464844,-87.93077087402344
"53142","Kenosha","WI","Michael Didinsky, DO","7401 104th Ave #110","53142",42.5686093,-87.93340370000001
"53142","Kenosha","WI","Lakeside Pediatrics-Children's Wisconsin","8600 75th St Ste 101","53142",42.56740294760821,-87.91261468619365
"53142","Kenosha","WI","Froedtert & the Medical College of Wisconsin - St. Catherine’s Medical Office Building","9697 Saint Catherines Dr","53158",42.56309127807617,-87.9250717163086
"53142","Kenosha","WI","Michael Nute, DPM (Michael A. Engel, DPM)","7401 104th Ave Suite 110","53142",42.5686093,-87.93340370000001
"53142","Kenosha","WI","Resp Care Dept","not_available","53143",42.56823735195842,-87.87741158275641
"53142","Kenosha","WI","Shawndas scheduling Desk","not_available","53142",42.56965087039221,-87.93557775533068
"53142","Kenosha","WI","Kenosha Hospital--ER","7520 118th Ave","53158",42.566741,-87.950537
"53142","Kenosha","WI","Michael J. Slimack, D.O.","7401 104th Ave. #110","53142",42.568602386237465,-87.93345399141904
"53142","Kenosha","WI","St Catherine's Medical Center","9555 76th St","53158",42.565186573497336,-87.92425847058357
"53142","Kenosha","WI","St. Catherine's Wound Care","9555-75th street","not_available",42.565269499477424,-87.92342808541314
"53142","Kenosha","WI","Emergency Room","10609 69th St","53142",42.571948,-87.936136
"53142","Kenosha","WI","St Catherine's ER","not_available","53158",42.56421171747844,-87.92376933250537
"53143","Kenosha","WI","United Hospital System","6308 8th Ave","53143",42.57810807252061,-87.81988808673422
"53143","Kenosha","WI","The Birthing Inn","6308 8th Ave Fl 4","53143",42.5776481628418,-87.82005310058594
"53144","Kenosha","WI","Steinhoff, Deutschenbaur, Egger & Drott, LLC","11515 1st St Lot 64","53177",42.66856849059652,-87.94789552688597
"53147","Lake Geneva","WI","Mercy Walworth Hospital and Medical Center","N2950 WI-67","53147",42.59797062542201,-88.53965232689876
"53147","Lake Geneva","WI","Mercyhealth Hospital and Medical Center–Walworth","N2950 Wisconsin 67","53147",42.59782409667969,-88.53959655761719
"53147","Lake Geneva","WI","Mercy Birthing Center","N2950 State Road 67","53147",42.59782409667969,-88.53959655761719
"53147","Lake Geneva","WI","Mercy Medical","W2950 State Rd. 67","53147",42.59735516576887,-88.53992711450836
"53147","Lake Geneva","WI","Aurora Lakeland Medical Center Emergency Department","not_available","53147",42.59646,-88.52548
"53147","Lake Geneva","WI","working at mercy walworth","not_available","53191",42.59712600708008,-88.53923797607422
"53149","Mukwonago","WI","D.N. Greenwald Center","240 Maple Ave","53149",42.84926972847611,-88.31326441608094
"53149","Mukwonago","WI","Aurora Urgent Care","120 Chapman Farms Blvd","53149",42.881263732910156,-88.34341430664062
"53149","Mukwonago","WI","Linden Grove","841 County Road Nn E","53149",42.87199270832172,-88.32149900472743
"53149","Mukwonago","WI","ProHealth Urgent Care","420 Maple Ave","not_available",42.849796295166016,-88.30841827392578
"53150","Muskego","WI","Wisconsin surgery Center","not_available","53150",42.900848388671875,-88.1541976928711
"53151","New Berlin","WI","Froedtert Family Center","not_available","53227",42.9452333171653,-88.11278977352748
"53151","New Berlin","WI","Milwaukee Foot and Ankle Specialists","3610 Michelle Witmer Memorial Dr","53151",42.97929,-88.10012
"53151","New Berlin","WI","Third Coast Foot & Ankle","3333 S. Sunny Slope Road Ste 103A","53151",42.9846875,-88.08908389999999
"53151","New Berlin","WI","ProHealth Care Urgent Care","13900 W National Ave","53151",42.986751556396484,-88.08731842041016
"53151","New Berlin","WI","aurora urgent care","not_available","53151",42.978790283203125,-88.09750366210938
"53151","New Berlin","WI","The Comfort Company","1930 S Calhoun Rd","53151",43.008628845214844,-88.12653350830078
"53151","New Berlin","WI","Children's Urgent Care at New Berlin-Children's Wisconsin","4855 S Moorland Rd","53151",42.95644205322855,-88.1104911731806
"53151","New Berlin","WI","Southwest Pediatrics-Children's Wisconsin","4855 S Moorland Rd Ste 250","53151",42.956458144871654,-88.11048705336566
"53151","New Berlin","WI","Clement J Zablocki Eye Clinic HVF Room","not_available","53214",42.988054494679744,-88.11896394547637
"53154","Oak Creek","WI","Froedert Drexel Square Clinic","7901 S 6th St","53154",42.90055847167969,-87.92078399658203
"53154","Oak Creek","WI","Oak Creek Urgent Care","8201 S Howell Ave","53154",42.894988101558134,-87.91332527699363
"53154","Oak Creek","WI","Third Coast Foot & Ankle","7001 S. Howell Ave Ste 500","53154",42.917013,-87.911342
"53154","Oak Creek","WI","Oak Creek Pediatrics-Children's Wisconsin","8375 S Howell Ave","53154",42.89192011719157,-87.91402209028917
"53154","Oak Creek","WI","Aurora Urgent Care","200 East Ryan Rd","53154",42.87273025512695,-87.91119384765625
"53154","Oak Creek","WI","Aurora Clinic at Walgreens","2985 S Chicago Ave","53172",42.901084899902344,-87.86463928222656
"53154","Oak Creek","WI","Physicians Urgent Care","3111 S Chicago Ave","53172",42.899453,-87.865022
"53154","Oak Creek","WI","Work Hospital","515 College","50613",42.910683,-87.859024
"53158","Pleasant Prairie","WI","St. Catherine's Cancer Center","9555-76th St","not_available",42.565425872802734,-87.92433166503906
"53168","Salem","WI","Dr. Matthew S. Marcus","7137 236th Ave #110","53168",42.569872,-88.0942051
"53168","Salem","WI","Toboa Energy Resources LLC","23721 81st St","53168",42.559635162353516,-88.09581756591797
"53177","Sturtevant","WI","Aurora Urgent Care","8400 Washington Ave","53406",42.720558000000004,-87.88951
"53177","Sturtevant","WI","Ascension Wisconsin Health Center - Mount Pleasant","10180 Washington Ave","53177",42.72106170654297,-87.9103012084961
"53177","Sturtevant","WI","Aurora","not_available","53177",42.700242,-87.953852
"53177","Sturtevant","WI","Mount Pleasant Pediatrics-Children's Wisconsin","8800 Washington Ave Ste 300","53406",42.720202505208334,-87.893318872583
"53186","Waukesha","WI","Waukesha Memorial Hospital","725 American Ave","53188",43.01122146966087,-88.24241275852141
"53186","Waukesha","WI","Waukesha Memorial Hospital 3rd Floor","not_available","53186",43.011012743644386,-88.24234144911955
"53186","Waukesha","WI","Fast Care","not_available","53189",42.986672,-88.219745
"53189","Waukesha","WI","St Lukes Cafeteria","2900 W Oklahoma Ave","53215",42.97270686,-88.25302583
"53190","Whitewater","WI","Mercy Whitewater Medical Center and Urgent Care","507 W Main St","53190",42.83770425710324,-88.73603058400828
"53202","Milwaukee","WI","Ascension Columbia St. Mary's Women's Medical Center","2323 N Lake Dr","53211",43.060864189644576,-87.8806901157738
"53202","Milwaukee","WI","Columbia St. Marys Emergency Department","not_available","53211",43.06044375855749,-87.88264574378655
"53202","Milwaukee","WI","Columbia St. Mary Urgent Care","734 North Jackson St","53202",43.0399855360681,-87.90413742540089
"53202","Milwaukee","WI","Regestration","not_available","53202",43.060238013242675,-87.88173018507675
"53202","Milwaukee","WI","Drug & Alcohol Rehab Milwaukee","1360 N Prospect Ave #2","53202",43.04833221435547,-87.89413452148438
"53202","Milwaukee","WI","Cathedral Square Urgent Care","734 N Jackson St","53202",43.039606,-87.90377
"53202","Milwaukee","WI","Neuroscience Center  - Columbia St. Mary's","2423 N Lake Drive","not_available",43.0611961421788,-87.88332139648217
"53202","Milwaukee","WI","HouseCall Healthcare","342 N Water St","53202",43.03479967308103,-87.90844559669495
"53202","Milwaukee","WI","Alcohol & Drug Rehab Milwaukee","777 E Wisconsin Ave #230","53202",43.03799917804605,-87.900710105896
"53202","Milwaukee","WI","Dr. Mark Wichman","1575 N Rivercenter Dr","53212",43.05070114135742,-87.90992736816406
"53202","Milwaukee","WI","Aurora Urgent Care","946 N Van Buren St","53202",43.04384052562406,-87.9032270107549
"53202","Milwaukee","WI","Edenbrook Lakeside","2115 E Woodstock Pl","53202",43.056829,-87.884462
"53204","Milwaukee","WI","Club Vida y Energia","1226 W Historic Mitchell St","53204",43.012551,-87.927758
"53204","Milwaukee","WI","Drug & Alcohol Rehab Milwaukee","1100 W Bruce St","53204",43.025691986083984,-87.9256362915039
"53205","Milwaukee","WI","Northside YMCA Primary Care-Children's Wisconsin","1350 W North Ave","53205",43.060932,-87.92965
"53207","Milwaukee","WI","Concentra Urgent Care","5007 S Howell Ave Ste 100","53207",42.95368430003204,-87.91035380072042
"53207","Milwaukee","WI","Conectra Urgent Care","not_available","53207",42.95676151465217,-87.9186154566331
"53208","Milwaukee","WI","Concentra","215 N 35th St","53208",43.033004,-87.9578807
"53208","Milwaukee","WI","First Aid","Miller Park","53214",43.02866682227851,-87.97222852706908
"53208","Milwaukee","WI","West Allis Hpspital Surgery Waiting Room","not_available","53228",43.04643941644884,-87.9590302114227
"53209","Milwaukee","WI","River Glen Pediatrics-Children's Wisconsin","4655 N Port Washington Rd Ste 200","53212",43.1012094,-87.9172679
"53209","Milwaukee","WI","Animal Emergency Center","2100 W Silver Spring Dr","53209",43.11926204829442,-87.93857054177431
"53209","Milwaukee","WI","Bell Therapy Inc. Belwood Phychiatric Treatment Facility","5101-5147 W Silver Spring Dr","53218",43.118682,-87.976851
"53209","Milwaukee","WI","Wheaton Franciscan Healthcare","9252 N Green Bay Rd","53209",43.185932519522375,-87.96021727781599
"53209","Milwaukee","WI","The Humane Organ Donor Advocacy","4112 W Fairmount Ave Ste U","53209",43.10850143432617,-87.9643325805664
"53209","Milwaukee","WI","Midtown Clinic-Children's Wisconsin","5433 W Fond du Lac Ave","53216",43.09357883652821,-87.98166686578912
"53209","Milwaukee","WI","Northshore Urgent Care","not_available","53209",43.186232,-87.961221
"53209","Milwaukee","WI","Mke Junk Car Removal","6159 N Teutonia Ave","53209",43.130047999999995,-87.954387
"53209","Milwaukee","WI","Urgent Care","5310 W Capitol Dr","53216",43.090458,-87.980126
"53210","Milwaukee","WI","Wheaton Franciscan - St. Joseph Campus","5000 W Chambers St","53210",43.07427083629525,-87.97623712697897
"53210","Milwaukee","WI","St. Joseph's Hospital Emergency Room","not_available","53210",43.07491438135375,-87.97602836680839
"53210","Milwaukee","WI","St Joseph's Hospital Warehouse","4929 Burleigh St","53210",43.07487663246352,-87.9760018144453
"53210","Milwaukee","WI","CF's Office","4929 West Burleigh","53210",43.074928,-87.976032
"53210","Milwaukee","WI","st. joes er","5000 W Chambers St, Milwaukee, WI 53210","53210",43.07494475513358,-87.97612005946714
"53211","Milwaukee","WI","Ascension Columbia St. Mary's Milwaukee - Shorewood","4027 N Oakland Ave","53211",43.08993,-87.88773
"53211","Milwaukee","WI","McKeithan Testing and Treatment Center-Columbia St. Mary's","2301Lake Dr.","53211",43.06156539916992,-87.88611602783203
"53211","Milwaukee","WI","Dr. Xiping Zhou, MDOM, Lac","4601 N Oakland Avenue","53211",43.0999965,-87.8877467
"53211","Milwaukee","WI","Comatose","not_available","53212",43.06301,-87.900929
"53212","Milwaukee","WI","Orthopaedic Hospital of Wisconsin","475 W River Woods Pkwy","53212",43.09797017753435,-87.9148412389467
"53212","Milwaukee","WI","Ascension Columbia St. Mary’s at River Woods Urgent Care","375 W River Woods Pkwy","53212",43.09717,-87.91123
"53213","Milwaukee","WI","Children's Hospital of Wisconsin","8915 W Connell Ave","53226",43.04266007902561,-88.02354215358513
"53213","Milwaukee","WI","Froedtert Center for Advanced Care","8900 W Doyne Ave","not_available",43.04014944633575,-88.0242953879103
"53213","Milwaukee","WI","Froedtert Hospital SICU","9200 W Wisconsin Ave (at N 92nd St.)","53226",43.04197822085854,-88.0245788961941
"53213","Milwaukee","WI","Froedtert Hospital Dynacare Lab","8777 East Connell Ct.","53213",43.04192449745475,-88.02200279769124
"53213","Milwaukee","WI","Aurora Psychiatric Hospital","1220 Dewey Ave","53213",43.04651032687601,-88.00842826824186
"53213","Milwaukee","WI","Childrens Hospital Day Surgery","4th floor","not_available",43.04224881364602,-88.02300380220382
"53214","Milwaukee","WI","Clement J. Zablocki VA Medical Center","5000 W National Ave","53295",43.02103162941885,-87.97570145451873
"53214","Milwaukee","WI","Aurora Health Center Six Points","6609 W Greenfield Ave","53214",43.01640319824219,-87.99514770507812
"53214","Milwaukee","WI","Wheaton Franciscan Healthcare","201 N Mayfair Rd","53226",43.032693272185924,-88.04823583545522
"53214","Milwaukee","WI","VA medical Center Emergency","not_available","53215",43.02104704993963,-87.97488836793022
"53214","Milwaukee","WI","Gateway Medical Clinic","801 S 70th St","53214",43.023824246607894,-88.00146457130373
"53214","Milwaukee","WI","Midwest Spine and Orthopedic Hospital","10000 W Bluemound Rd","53226",43.03560256958008,-88.03728485107422
"53214","Milwaukee","WI","Curtis Ambulance Station 2","1601-1699 S 75th St","53214",43.01272988319397,-88.00629258155823
"53214","Milwaukee","WI","10lm","2900 w Oklahoma","53219",43.010098,-87.985778
"53215","Milwaukee","WI","Wheaton Franciscan Healthcare - St. Francis","3237 S 16th St","53215",42.98581014272014,-87.93505287495044
"53216","Milwaukee","WI","St Jos","not_available","53216",43.08234041466038,-87.96903848962698
"53217","Milwaukee","WI","Bayshore Pediatrics-Children's Wisconsin","7950 N Port Washington Rd","53217",43.161816043530585,-87.91104964418031
"53219","Milwaukee","WI","West Allis Urgent Care","not_available","53219",42.988673,-88.007078
"53219","Milwaukee","WI","Aurora Clinic at Walgreens","6030 W Oklahoma Ave","53219",42.988845,-87.988647
"53219","Milwaukee","WI","Quintron","2208 S 38th St","53215",43.004446,-87.961308
"53219","Milwaukee","WI","Alcohol Drug Rehab Milwaukee","7635 W Oklahoma Ave Ste 202","53219",42.98781967163086,-88.00875091552734
"53220","Milwaukee","WI","Lakeshore Medical Clinic Urgent Care","4131 W Loomis Rd","53221",42.96387227212727,-87.96599605782782
"53221","Milwaukee","WI","Wheaton Franciscan Healthcare - St. Francis","not_available","53221",42.97476577758789,-87.95061492919922
"53221","Milwaukee","WI","Recovery Room 5","not_available","53213",42.93803651409774,-87.9297004852162
"53222","Milwaukee","WI","Aurora Clinic at Walgreens","10800 W Capitol Dr","53222",43.09015655517578,-88.0484848022461
"53222","Milwaukee","WI","Burleigh Urgent Care","7733 W Burleigh St","53222",43.07498550415039,-88.00958251953125
"53222","Milwaukee","WI","Wisconsin Urgent Care","8500 W Capitol Dr","53222",43.090064,-88.019529
"53222","Milwaukee","WI","Pulmedix Asthma Care Center","8532 W Capitol Dr","53222",43.09003829956055,-88.01969909667969
"53223","Milwaukee","WI","Concentra Urgent Care","8923 W Brown Deer Rd","53224",43.177057,-88.022419
"53223","Milwaukee","WI","St francis hospital","16th","not_available",43.1468615,-88.0018295
"53227","Milwaukee","WI","Aurora West Allis Medical Center","8901 W Lincoln Ave","53227",43.001591273566945,-88.02300321946362
"53227","Milwaukee","WI","Select Specialty Hospital","8901 W National","not_available",43.00153640245487,-88.02327134564403
"53227","Milwaukee","WI","Aurora Health Care","15500 National Ave","53151",42.98529211233075,-88.05205090377994
"53227","Milwaukee","WI","Surgicenter - Greater Milwaukee","3223 S 103rd St","53227",42.98668996763017,-88.04093777345606
"53227","Milwaukee","WI","Teen Health Clinic-Children's Wisconsin","3365 S 103rd St Ste 210","53227",42.9852482,-88.0414562
"53227","Milwaukee","WI","Oklahoma Pediatrics-Children's Wisconsin","3365 S 103rd St, Ste 100","53227",42.985288158412025,-88.04141757659312
"53228","Milwaukee","WI","PAM Specialty Hospital of Milwaukee","5017 S 110th St","53228",42.953563,-88.05118900000001
"53228","Milwaukee","WI","Froedtert Walk-In Clinic","4455 S 108th St","53228",42.9644233382006,-88.04859395973307
"53233","Milwaukee","WI","Aurora Sinai Medical Center","945 N 12th St","53233",43.04234684927414,-87.9274434066022
"53233","Milwaukee","WI","Easy Street- Aurora Rehabilitation Center","not_available","53233",43.04279029997105,-87.92819231682405
"53233","Milwaukee","WI","mhi","State St","53233",43.04290138857801,-87.92585575223217
"53233","Milwaukee","WI","Urgent  Care","not_available","53218",43.03811108266849,-87.92469221240435
"53233","Milwaukee","WI","Aurora Sinai Medical Center - Emergency Department","950 N. 13th St.","not_available",43.04253696825931,-87.92845284666862
"53233","Milwaukee","WI","ASMC Outpatient Health Center","1020 N 12th St","53233",43.0436462,-87.9268158
"53295","Milwaukee","WI","Advanced Imaging Mobile MRI, Milwaukee","W National Ave","53295",43.02103628333333,-87.9768847
"53402","Racine","WI","Wheaton Franciscan All Saints Medical Healthcare","3801 Spring St","53405",42.731018221425714,-87.82779215497634
"53402","Racine","WI","St. Luke's Health Pavilion","3821 Spring St","53405",42.732602822892886,-87.82598971074563
"53402","Racine","WI","Wheaton Franciscan All Saints Emergency Room","3807 Spring St","53405",42.73170107986713,-87.82792818157785
"53402","Racine","WI","Wheaton Franciscan Radiology","not_available","53405",42.73194938624619,-87.82804648264148
"53402","Racine","WI","Belle City Vet","4701 Spring St","53406",42.736474673349335,-87.83678084654325
"53402","Racine","WI","St Marys Hospital","3600 spring st","53405",42.73240435845321,-87.82722111215342
"53403","Racine","WI","St. Luke's Hospital","1320 Wisconsin Ave, Racine, WI 53403","53403",42.7163916616379,-87.784187480727
"53403","Racine","WI","Stephen Scott","606 6th Street","53403",42.726585388183594,-87.78749084472656
"53403","Racine","WI","Psych Ward","not_available","53403",42.71671325117337,-87.7831041829397
"53403","Racine","WI","Wheaton Franciscan Healthcare - All Saints (Wisconsin Avenue Campus)","1320 Wisconsin Ave","53403",42.71642303466797,-87.7842025756836
"53403","Racine","WI","Lakeshore Manor","200-298 14th St","53403",42.71548373019297,-87.79313258282555
"53502","Albany","WI","B4/4","B4/4","53796",42.710349,-89.438144
"53508","Belleville","WI","Belleville Emergency Medical Services","480 River St","53508",42.868108,-89.531532
"53511","Beloit","WI","Beloit Memorial Hospital","1969 W Hart Rd","53511",42.548405355166885,-89.00779621522096
"53511","Beloit","WI","Mercy Urgent Care","2825 Prairie Ave","53511",42.548519,-89.010632
"53511","Beloit","WI","Beloit Regional Hospice","655 Third Street","53511",42.5030977,-89.0362357
"53511","Beloit","WI","North Point Health","5605 e reckon rd","61703",42.52659290014403,-89.05019536462272
"53511","Beloit","WI","Beloit Health System Beloit Clinic","1905 East Huebbe Parkway","53511",42.5503858,-89.010013
"53511","Beloit","WI","Beloit Health System Beloit Memorial Hospital","1969 W. Hart Rd","53511",42.548615000000005,-89.0083
"53511","Beloit","WI","crawling to Kyle","not_available","53511",42.58294159586291,-88.98149265542983
"53511","Beloit","WI","Beloit Health System Beloit Cancer Center","1670 Lee Lane","53511",42.5207132,-88.9911132
"53511","Beloit","WI","Beloit Health System West Side Clinic","1735 Madison Rd.","53511",42.522452,-89.06791899999999
"53525","Clinton","WI","Beloit Health System Clinton Clinic","307 Ogden Ave","53525",42.5661936,-88.8624444
"53527","Cottage Grove","WI","Willows Rehab Sun Prairie","not_available","53590",43.10883456958722,-89.17147168939432
"53530","Darlington","WI","Memorial Hospital of Lafayette County","Clay st","53530",42.73332082113403,-90.18560772645868
"53530","Darlington","WI","Memorial Hospital","800 Clay St","53530",42.683865000000004,-90.110024
"53532","Deforest","WI","Spay Me!","3120 Edmonton Dr Ste 500","53590",43.18861389160156,-89.27780151367188
"53532","Deforest","WI","UWHC Valet","600 Highland Ave","53792",43.17785467653047,-89.29026741703748
"53533","Dodgeville","WI","Upland Hills Health","800 Compassion Way","53533",42.95156143488617,-90.12963059545773
"53534","Edgerton","WI","Edgerton Hospital","11101 N Sherman Rd","53534",42.834488,-89.044309
"53534","Edgerton","WI","Memorial Community Hospital","310 Stoughton Rd","53534",42.8386116027832,-89.07896423339844
"53538","Fort Atkinson","WI","Fort Memorial Hospital","611 Sherman Ave","53538",42.927086,-88.841213
"53538","Fort Atkinson","WI","Fort Atkinson ER","not_available","53538",42.93212416320435,-88.82787492215066
"53543","Highland","WI","Upland Hills Health Highland Clinic","723 N. Main Street","53543",43.047489,-90.3810309
"53545","Janesville","WI","St. Mary's Janesville Hospital","3400 E Racine St","53546",42.669284695325786,-88.97700745110124
"53545","Janesville","WI","BioLife Plasma Services","444 Midland Road","53546",42.67523232662345,-88.98040241525668
"53545","Janesville","WI","new room","not_available","53545",42.68868736747905,-89.03506243203303
"53545","Janesville","WI","Mercy Sleep Center","903 Mineral Point Ave","53548",42.68621826171875,-89.03083801269531
"53545","Janesville","WI","Mercy Assisted Care","901 Mineral Point Ave","53548",42.686265999999996,-89.030028
"53545","Janesville","WI","Mercyhealth Heart and Vascular Center–Janesville","1000 Mineral Point Ave","53548",42.68766733,-89.03332433
"53545","Janesville","WI","Mercy Hospital and Trauma Center Emergency North","3400 Deerfield Dr","53546",42.721643825365135,-88.98526163023038
"53545","Janesville","WI","Revive Myofascial Therapy, LLC","1353 Excalibur Drive","53546",42.7015536,-88.97522959999999
"53545","Janesville","WI","Mercyhealth Orthopedic Surgery Institute of Janesville","1000 Mineral Point Avenue","53548",42.68768354,-89.03307717
"53545","Janesville","WI","PokéCenter","914 Victory Rd","91498",42.72760956779731,-88.98660779134077
"53545","Janesville","WI","Mercy Clinic East Urgent Care","not_available","53546",42.69805145263672,-88.97461700439453
"53545","Janesville","WI","Mercy Mall Urgent Care","1010 N Washington St","53548",42.694521134316176,-89.03644127936091
"53546","Janesville","WI","Mercy Clinic South","849 Kellogg Ave","53546",42.64945588376789,-89.02918717824527
"53551","Lake Mills","WI","Columbia-st.mary's Hospital Milw","not_available","53551",43.09193420410156,-88.91658020019531
"53551","Lake Mills","WI","Watertown Regional Medical Center - Lake Mills Clinic","1025 Mulberry St","53551",43.0875363,-88.8989239
"53561","Merrimac","WI","st clare cardiac rehab","not_available","53913",43.47393798828125,-89.72254180908203
"53562","Middleton","WI","Meriter Medical Clinic - Middleton","7780 Elmwood Ave Ste 201","53562",43.09641172265797,-89.51512856649713
"53562","Middleton","WI","Dean West Urgent Care","High Point Road","not_available",43.076378401839236,-89.51958117723876
"53562","Middleton","WI","B4/626","not_available","53705",43.07507919492209,-89.44787623144457
"53562","Middleton","WI","Meriter Waiting Room","not_available","53715",43.090697169499656,-89.52742209826961
"53562","Middleton","WI","Urgent Care-West Side","not_available","53717",43.06139302108009,-89.50541898199047
"53563","Milton","WI","Mercy Clinic East Urgent Care","not_available","53563",42.7652702331543,-88.94103240966797
"53566","Monroe","WI","ER monroe","not_available","53566",42.563846588134766,-89.65918731689453
"53566","Monroe","WI","Monroe Clinic","515 22nd Ave","53566",42.60833207437092,-89.63369472794795
"53566","Monroe","WI","Care Net","1508 11th St","53566",42.599692983177285,-89.64169979095459
"53569","Montfort","WI","Upland Hills Health Montfort Clinic","202 W.,Hwy 18","53569",42.966285705566406,-90.43484497070312
"53572","Mount Horeb","WI","VA clinic madison","not_available","53593",42.986515045166016,-89.65546417236328
"53572","Mount Horeb","WI","Upland Hills Health Mount Horeb Clinic","1809 Springdale Street","53572",43.0095132,-89.71552659999999
"53573","Muscoda","WI","Richland Hospital","333 E 2nd St","53581",43.33940254589754,-90.38215800120183
"53573","Muscoda","WI","Community Home Medical Equipment LLC","195 Richland Sq","53581",43.335281,-90.389211
"53575","Oregon","WI","Stoughton Hospital - Oregon Urgent Care","990 Janesville St","53575",42.917433,-89.371703
"53578","Prairie Du Sac","WI","Sauk Prairie Healthcare","260 26th Street","53578",43.2865778977664,-89.75349426269531
"53588","Spring Green","WI","Upland Hills Health Spring Green Clinic","156 W. Jefferson St.","53588",43.1767945,-90.0693877
"53589","Stoughton","WI","Dean Clinic-Stoughton","225 Church St","53589",42.92020916536581,-89.21108186986184
"53589","Stoughton","WI","Stoughton Hospital","900 Ridge St","53589",42.920362166400814,-89.21121787424688
"53590","Sun Prairie","WI","St. Mary's Sun Prairie Emergency Center","2840 Okeeffe Ave","53590",43.1587302574652,-89.26864565798772
"53593","Verona","WI","Dr. Xiping Zhou, MDOM, Lac","6425 Normandy Ln","53719",43.056005,-89.490944
"53593","Verona","WI","Hammersley","5222 Hammersley","53719",43.039450979563625,-89.46964602774116
"53593","Verona","WI","Cell Line Genetics","510 Charmany Dr","53719",43.057796478271484,-89.47692108154297
"53593","Verona","WI","Cancer Treatment Centers Of America","not_available","53719",43.021942138671875,-89.47797393798828
"53593","Verona","WI","Badger Prairie Health Care Center","1100 E Verona Ave","53593",42.996098168936605,-89.51527573153845
"53593","Verona","WI","Innovative Nutrition Solutions","34 Schroeder Court #230","53711",43.048058,-89.478583
"53594","Waterloo","WI","Fort Healthcare Urgent Care","not_available","53594",43.185829162597656,-88.9817123413086
"53597","Waunakee","WI","Central wisconsin center","317 Knutson Dr","53704",43.13862208668789,-89.3948589262738
"53703","Madison","WI","Lake Cumberland Regional Hospital","Langdon Street","not_available",43.075782775878906,-89.39472198486328
"53703","Madison","WI","children's hospital of wi","not_available","53703",43.07531788731656,-89.38641828283164
"53703","Madison","WI","Drug & Alcohol Rehab Madison","150 E Gilman St #5002","53703",43.08031463623047,-89.38661193847656
"53703","Madison","WI","VA Hospital Madison","not_available","53711",43.093612763869075,-89.36185860715781
"53703","Madison","WI","Drug & Alcohol Rehab Madison","605 W Main St","53703",43.067359924316406,-89.39141082763672
"53704","Madison","WI","UW Health at the American Center","4602 Eastpark Blvd","53718",43.15531723835001,-89.30136155971091
"53704","Madison","WI","Mental Institute Lobby","not_available","53714",43.10932540893555,-89.3068618774414
"53704","Madison","WI","Senior Helpers","4726 East Towne Boulevard","53704",43.13099617,-89.30267172
"53704","Madison","WI","Concentra Drug Testing Center","1619 N Stoughton Rd","53704",43.11983108520508,-89.32391357421875
"53704","Madison","WI","UW Health Union Corners Urgent Care","2402 Winnebago St","53704",43.098341,-89.350136
"53705","Madison","WI","William S. Middleton Memorial Veterans Hospital","2500 Overlook Ter","53705",43.07502009824274,-89.43151786333893
"53705","Madison","WI","UW Hospital Emergency Room","1675 Highland Ave","53792",43.076121784270086,-89.43293296376866
"53705","Madison","WI","UW Hospital OSC Pharmacy","Highland","53705",43.07658509492453,-89.43168551341464
"53705","Madison","WI","Shared Imaging MRI Madison","not_available","53726",43.07485428333333,-89.4322853
"53706","Madison","WI","Madison Breast Augmentation Surgery","2144 University Ave","53726",43.07305,-89.40123
"53711","Madison","WI","St. Mary's Hospital","700 S Park St","53715",43.05904274343481,-89.40279006958008
"53711","Madison","WI","Digestive Health/Endoscopy","Meriter Hospital","53715",43.066336248563026,-89.40250715410818
"53711","Madison","WI","St. Mary's Hospital(3SW)","not_available","53713",43.03501458746543,-89.38104771914665
"53713","Madison","WI","St Mary's Hospital: Family Care Suites","Park Street","53714",43.047397703892514,-89.37503793959411
"53713","Madison","WI","Dean & St. Mary's Outpatient Center","700 Mills St.","not_available",43.059041852066734,-89.40207395244516
"53713","Madison","WI","Madison Veterinary Specialists","229 W Beltline Hwy","53713",43.03718091935343,-89.38663148334597
"53715","Madison","WI","Meriter Cardiothoracic Surgery Clinic","202 S Park St","53715",43.06541,-89.401558
"53718","Madison","WI","The Mosquito Bites Again","705 North Star Dr","53718",43.08870317085283,-89.27794723545736
"53813","Lancaster","WI","Grant Regional Health Center","not_available","53813",42.844272992217896,-90.70926350891048
"53813","Lancaster","WI","Grant Community Clinic","500 S Madison St","53813",42.84402847290039,-90.70916748046875
"53821","Prairie Du Chien","WI","Prairie du Chien Memorial Hospital","705 E Taylor St","53821",43.04418670149098,-91.13782500238194
"53901","Portage","WI","Emergency Room","not_available","53901",43.55898,-89.46927
"53901","Portage","WI","Tivoli at Divine Savior Healthcare","2817 New Pinery Rd","53901",43.567142,-89.466585
"53910","Adams","WI","marshfield hospital marshfield","not_available","53910",43.95657,-89.81661
"53913","Baraboo","WI","St. Clare's Urgent Care","530 Wisconsin Dells Parkway South","53913",43.586523255009794,-89.78475468701438
"53913","Baraboo","WI","St. Clare Hospital And Health Services","707 14th St","53913",43.48086850671704,-89.73037866432588
"53913","Baraboo","WI","Accelerated Genetics","E10890 Penny Ln","53913",43.52393341064453,-89.7806167602539
"53913","Baraboo","WI","St.  Clare Meadows Care Center","1428 Jefferson St","53913",43.47914302027658,-89.72716304288396
"53916","Beaver Dam","WI","Beaver Dam Community Hospital","707 S University Ave","53916",43.4488848209157,-88.82626539989961
"53916","Beaver Dam","WI","hillside manor","not_available","53916",43.44758987426758,-88.82731628417969
"53916","Beaver Dam","WI","beaver dam rehabilitation center","University Avenue","53916",43.45688861010832,-88.81695601433223
"53916","Beaver Dam","WI","Beaver Dam Dialysis Center","110 Monroe St","53916",43.455445,-88.819938
"53925","Columbus","WI","Columbus Community Hospital","1515 Park Ave","53925",43.32303595177023,-89.03573419310649
"53925","Columbus","WI","Red Cross Blood Drive","not_available","53932",43.386260986328125,-89.04570007324219
"53934","Friendship","WI","Moundview Hospital","402 W Lake St","53934",43.974605560302734,-89.82183074951172
"53948","Mauston","WI","Hess Memorial Hospital","1050 Division St","53948",43.782856,-90.074114
"53959","Reedsburg","WI","Reedsburg Area Medical Center","2000 N Dewey Ave","53959",43.54971767810608,-89.99313959740596
"53959","Reedsburg","WI","Reedsburg Area Medical Center Emergency Room","not_available","53959",43.537426067984526,-89.99296198018509
"53963","Waupun","WI","Lifestar EMS - Station 6","1200 S Watertown St","53963",43.6159782409668,-88.72547912597656
"53963","Waupun","WI","Waupun Memorial Hospital","620 W Brown St","53963",43.63168,-88.74588762
"53965","Wisconsin Dells","WI","St. Clare Urgent Care","1306 Broadway","53965",43.62730026245117,-89.75708770751953
"53965","Wisconsin Dells","WI","urgent care","1306","53965",43.62825875130654,-89.7633374626612
"54001","Amery","WI","Amery Hospital & Clinic","265 Griffin St E","54001",45.296916,-92.360941
"54002","Baldwin","WI","Baldwin Area Medical Center","730 10th Ave","54002",44.970787048339844,-92.37429809570312
"54002","Baldwin","WI","Western Wisconsin Health","1100 Bergslien St","54002",44.941285,-92.378792
"54009","Dresser","WI","Cch Siberia","not_available","54020",45.30794574586812,-92.6954936905912
"54016","Hudson","WI","Hudson Hospital & Clinic","405 Stageline Rd","54016",44.961339,-92.71647
"54016","Hudson","WI","HTS Active Alert System","811 1st St #200","54016",44.9785041809082,-92.75911712646484
"54016","Hudson","WI","Dr Major's Double Tap Clinic","not_available","54016",44.9756622143857,-92.75721169910001
"54017","New Richmond","WI","Westfields Hospital","535 Hospital Rd","54017",45.11766,-92.555179
"54017","New Richmond","WI","Westfields Urgent Care New Richmond","535 Hospital Rd,Main entrance","54017",45.117726,-92.555421
"54017","New Richmond","WI","Stillwater Medical Group Urgent Care Somerset","700 Rivard St Fl 1","54025",45.12367630004883,-92.66117858886719
"54017","New Richmond","WI","Stillwater Medical Group Urgent Care Somerset","700 Rivard St,1st floor","54025",45.123578,-92.661373
"54022","River Falls","WI","River Falls Area Hospital","1629 E Division St","54022",44.86434639344171,-92.60297552248433
"54024","Saint Croix Falls","WI","St. Croix Regional Medical Center","235 E State St","54024",45.4088784,-92.642817
"54025","Somerset","WI","Pedersen Medical & Life Insurance Services","not_available","55047",45.18264181710615,-92.75379180908203
"54113","Combined Locks","WI","St Elizabeth Hospital Rehab","Hwy CE","54915",44.25813861830412,-88.30680975475006
"54115","De Pere","WI","Aurora BayCare Medical Center","2845 Greenbrier Rd","54311",44.47499555844011,-87.94045248919126
"54115","De Pere","WI","aurora baycare med 1","not_available","54311",44.47472381591797,-87.94001770019531
"54115","De Pere","WI","situation report.*","not_available","54115",44.40568161010742,-88.12328338623047
"54115","De Pere","WI","BioLife Plasma Services","3275 Finger Rd.","54311",44.4884548406094,-87.91960392699731
"54115","De Pere","WI","jims rm 411","not_available","54302",44.488704681396484,-87.9891586303711
"54115","De Pere","WI","Willow Creek Behavioral Health","1351 Ontario Rd","54311",44.47588348388672,-87.9249496459961
"54121","Florence","WI","marquette medical clinic kingsford","800 East Blvd","49802",45.8018798828125,-88.0770492553711
"54124","Gillett","WI","The Woodlands","Robin hood lane","54124",44.895872,-88.300055
"54130","Kaukauna","WI","BioLife Plasma Services","N161 Eisenhower Dr","54915",44.245614418991906,-88.34756712510176
"54130","Kaukauna","WI","Aurora BayCare Urgent Care","1500 Arbor Way","54130",44.29872,-88.27747
"54139","Lena","WI","HSHS St. Clare Memorial Hospital","855 S Main St","54154",44.86528852534673,-88.12745192130006
"54143","Marinette","WI","Aurora Urgent Care","4061 Old Peshtigo Rd","54143",45.0777473449707,-87.66381072998047
"54143","Marinette","WI","Bellin Health Urgent Care - Marinette","2820 Roosevelt Rd","54143",45.0610997,-87.65881759999999
"54143","Marinette","WI","Bay Area Medical Center","3100 Shore Dr","54143",45.07190159090874,-87.61783608174683
"54143","Marinette","WI","Bellin Home Care Equipment - Marinette","3200 Shore Dr","54143",45.07088539999999,-87.6193444
"54143","Marinette","WI","Bellin Health Psychiatric Center","not_available","54157",45.054325103759766,-87.75460815429688
"54143","Marinette","WI","Bay Area Cancer Care Center","3003 University Dr","54143",45.068283,-87.64533
"54149","Mountain","WI","Mountain Ambulance Service","14336 State Hwy. 32","43149",45.19368225525005,-88.48750538035729
"54151","Niagara","WI","Dickinson Health Care System","not_available","49801",45.809305164503144,-88.04559790235773
"54151","Niagara","WI","Dickinson County Memorial Hospital","1721 S Stephenson Ave","49801",45.81008944211809,-88.04397743519313
"54151","Niagara","WI","Veteran's Hospital","325 E H St","49801",45.81041717529297,-88.06155395507812
"54151","Niagara","WI","VA Medical Center","622-624 E I St","49801",45.81145338233721,-88.06088479584805
"54151","Niagara","WI","Michael E. Zevitz MD PLLC","415 W US Highway 2","49870",45.7884635925293,-87.91716766357422
"54151","Niagara","WI","Shared Imaging MRI","325 H Street","49801",45.81041,-88.06054
"54153","Oconto","WI","Oconto Hospital & Medical Center","not_available","54153",44.899859137635296,-87.86444524604363
"54153","Oconto","WI","Bayshore Pines","513 pecor streer","54153",44.88556126,-87.87781558
"54153","Oconto","WI","Bellin Health Oconto Hospital and Medical Center","820 Arbutus Ave","54153",44.8963623,-87.86579895
"54166","Shawano","WI","ThedaCare Walk-in Care-Shawano","100 County Road B","54166",44.760713321187936,-88.60698405158996
"54166","Shawano","WI","Shawano Medical Center","309 N Bartlett St","54166",44.78376628961213,-88.61673434224261
"54166","Shawano","WI","Nurses Station","not_available","54166",44.72018,-88.630194
"54201","Algoma","WI","Algoma Long Term Care Center","not_available","54201",44.60597607855789,-87.45284481815878
"54220","Manitowoc","WI","Aurora Medical Center Manitowoc County","5000 Memorial Dr","54241",44.12650443205684,-87.61617963081464
"54220","Manitowoc","WI","Holy Family Memorial Hospital","2300 Western Ave","54220",44.09477575800968,-87.67591430257055
"54220","Manitowoc","WI","Holy family walk in","not_available","54220",44.07941675356028,-87.7004293385044
"54220","Manitowoc","WI","Aurora Urgent Care","3509 Dewey St","54220",44.07302869999999,-87.6917146
"54229","New Franken","WI","Retox","4855 Church Rd","54229",44.553375244140625,-87.83700561523438
"54235","Sturgeon Bay","WI","Golden Living - Doorchester","200 N 7th Ave","54235",44.83900535380607,-87.37245387210044
"54235","Sturgeon Bay","WI","Ministry Door County Medical Center","323 S 18th Ave","54235",44.83268792559017,-87.3534271013256
"54235","Sturgeon Bay","WI","Aurora Urgent Care","1910 Alabama St","54235",44.850467681884766,-87.34783935546875
"54241","Two Rivers","WI","Aurora Urgent Care","2219 Garfield St","54241",44.1543796,-87.557585
"54301","Green Bay","WI","Bellin Hospital","744 S Webster Ave","54301",44.502471978463355,-88.01134176091045
"54301","Green Bay","WI","Bellin Hospital ER","not_available","54301",44.502558987151296,-88.01185766287725
"54301","Green Bay","WI","St. Vincent's NICU","835 S Van Buren St","54301",44.501351108244464,-88.01296790630633
"54301","Green Bay","WI","Aurora  Health","not_available","54313",44.51035535455273,-87.9927298125918
"54301","Green Bay","WI","Bellin Health Rehab","725 S Webster Ave","54301",44.50175857543945,-88.01029205322266
"54301","Green Bay","WI","Port Charles General Hospital","9881 Heritage Road","16543",44.50443747314007,-88.0098376751712
"54301","Green Bay","WI","Bellin infusion room","Webster Ave","54301",44.515759181084846,-88.03298660434005
"54301","Green Bay","WI","St. Mary's Hospital","1726 Shawano Ave","54303",44.50106134495131,-88.00995715369348
"54301","Green Bay","WI","St Vincent Hospital","Pokier St","not_available",44.50068940306694,-88.01249958042264
"54303","Green Bay","WI","Mason Manor","1424 Admiral Ct","54303",44.52223603745188,-88.05716872215271
"54303","Green Bay","WI","BioLife Plasma Services","900 Isbell Street","54303",44.526081184921125,-88.09519084567123
"54303","Green Bay","WI","Aurora Clinic at Walgreens","464 Cardinal Ln","54313",44.553855895996094,-88.08423614501953
"54303","Green Bay","WI","Urgent Care","not_available","54304",44.52320082003832,-88.08505015877891
"54303","Green Bay","WI","Hugh White","107 N Broadway","54303",44.51662826538086,-88.0218276977539
"54303","Green Bay","WI","urgent care","Washington Street","54301",44.514444,-88.015717
"54304","Green Bay","WI","Aurora Clinic at Walgreens","2301 S Oneida St","54304",44.488887786865234,-88.06475830078125
"54304","Green Bay","WI","Ashwaubenon Respiratory Clinic","1630 Commanche Ave","54313",44.49227,-88.10284
"54401","Wausau","WI","Aspirus Wausau Hospital","301-351 N 28th Ave","54401",44.965929567571685,-89.66687694884749
"54401","Wausau","WI","Aspirus Wausau Hospital","333 Pine Ridge Boulevard","54401",44.966103739436406,-89.66769519195809
"54401","Wausau","WI","Aspirus Emergency Department","not_available","54401",44.966896681218195,-89.66780143925868
"54401","Wausau","WI","Oakview Professional Building","3000 Westhill Dr","54401",44.968772888183594,-89.67371368408203
"54401","Wausau","WI","North Central Health Care","2200-2398 Marshall St","54403",44.92982881541324,-89.62652240542795
"54401","Wausau","WI","BioLife Plasma Services","3201 Rib Mountain Dr","54401",44.927811,-89.65175099999999
"54401","Wausau","WI","Aspirus Wausau Geometrics and chemography","335 Pine Ridge Drive","54401",44.9674036,-89.67000639999999
"54401","Wausau","WI","Westhill Professional Building","2800 Westhill Dr","54401",44.96873092651367,-89.67216491699219
"54401","Wausau","WI","Urology Specialists of Wisconsin, S.C.","3300 Westhill Dr","54401",44.96870554692381,-89.67868930229594
"54403","Wausau","WI","Bundle Of Nerves","not_available","54403",44.94918441772461,-89.6176528930664
"54409","Antigo","WI","Langlade Memorial Hospital","not_available","54409",45.14101031774149,-89.13963132345744
"54409","Antigo","WI","Aspirus Birthing Center at Aspirus Langlade Hospital","112 E 5th Ave","54409",45.14107324862934,-89.13928979440243
"54409","Antigo","WI","Urology Specialists of Wisconsin, S.C.","Located Within St. Joseph’s Outpatient Center 501 Aurora St","54409",45.1397144,-89.1394481
"54411","Athens","WI","Astia Health","668 Maratech Ave #4","54448",44.941627502441406,-89.84085845947266
"54413","Babcock","WI","Christus Santa Rosa Radiology","Babcock","not_available",44.30300521850586,-90.11137390136719
"54435","Gleason","WI","Prospect Medical Commons Express Care","2311 N Prospect Ave","53211",45.276612454836645,-89.41695928570878
"54449","Marshfield","WI","Ministry St Joseph's Hospital","611 N Saint Joseph Ave","54449",44.677990223720116,-90.17896011847571
"54449","Marshfield","WI","Marshfield Amblatory Clinic","not_available","54449",44.67797894619769,-90.17497576081661
"54451","Medford","WI","Aspirus Medford Hospital","135 South Gibson Street","54451",45.135456028987264,-90.35597328156383
"54451","Medford","WI","Memorial Hospital","not_available","54451",45.13527526339066,-90.35559806889293
"54451","Medford","WI","Aspirus Birthing Center - Medford","135 S Gibson St","54451",45.13550322,-90.3559389
"54451","Medford","WI","Urology Specialists of Wisconsin, S.C.","Located in Aspirus Medford Hospital 135 S. Gibson St","54451",45.1354507,-90.3559287
"54455","Mosinee","WI","Central Wisconsin Animal Emergency Center","1420 Kronenwetter Dr","54455",44.819918,-89.664415
"54460","Owen","WI","Clark County Veterans Outpatient Clinic","not_available","54460",44.945282863111395,-90.54753797938207
"54467","Plover","WI","Ministry Medical Group - Plover Urgent Care","2401 Plover Rd","54467",44.4526121737047,-89.53780915160476
"54476","Schofield","WI","Ascension Saint Clare's Hospital - Emergency Room","3400 Ministry Pkwy","54476",44.89039,-89.58033
"54481","Stevens Point","WI","Ascension St. Michael's Hospital","900 Illinois Ave","54481",44.526819526902145,-89.56703162858537
"54481","Stevens Point","WI","American Red Cross","3201C Main St","54481",44.52282965183258,-89.5542061328888
"54482","Stevens Point","WI","BioLife Plasma Services","3325 Business Park Drive","54482",44.49921767312978,-89.51272082681434
"54482","Stevens Point","WI","Urology Specialists of Wisconsin, S.C.","Located in Aspirus Stevens Point Clinic, 5409 Vern Holmes Drive","54482",44.4989014,-89.5165085
"54487","Tomahawk","WI","Golden Age Living Center","not_available","54487",45.47567568914403,-89.7260069847107
"54494","Wisconsin Rapids","WI","Wisconsin Rapids Nursing & Rehabilitation Ctr.","River Run Dr.","not_available",44.37778033160586,-89.8090568916289
"54494","Wisconsin Rapids","WI","Wisconsin Rapids VA","not_available","54494",44.38770470632187,-89.8162636013653
"54494","Wisconsin Rapids","WI","Riverview Hospital Association Beetle Building","1041 Dewey Street","54494",44.38499848779341,-89.83187125278776
"54494","Wisconsin Rapids","WI","Aspirus Riverview Hospital","410 Dewey St","54494",44.38176034023177,-89.83011953966707
"54494","Wisconsin Rapids","WI","Urology Specialists of Wisconsin, S.C.","Located Within Aspirus Riverview Hospital 410 Dewey St","54494",44.3817334,-89.8303048
"54501","Rhinelander","WI","Ascension St. Mary's Hospital","2251 North Shore Dr","54501",45.63906376844187,-89.37451406543043
"54501","Rhinelander","WI","Ascension St. Mary’s at Kabel Avenue A Department of Ascension St. Mary’s Hospital","1020 Kabel Ave","54501",45.6277741,-89.41231169999998
"54501","Rhinelander","WI","Koionia","not_available","54501",45.644434597508216,-89.38298579643194
"54501","Rhinelander","WI","Urology Specialists of Wisconsin, S.C.","Located in Aspirus Rhinelander Clinic and Walk-In 1630 Chippewa Dr","54501",45.6580437,-89.3791529
"54514","Butternut","WI","Flambeau Hospital: Emergency Room","98 Sherry Ave","54552",45.93061,-90.44162
"54521","Eagle River","WI","Eagle River Memorial Hospital","not_available","54521",45.92815512319764,-89.25213886609731
"54521","Eagle River","WI","Ascension Eagle River Hospital","201 Hospital Rd","54521",45.92823791503906,-89.2518310546875
"54534","Hurley","WI","Aspirus Grandview Hospital","n10565 Grandview Lane","49938",46.48072498,-90.106609
"54548","Minocqua","WI","Dr Larry Holmes PHD","11102 Tuckaway Rd Ste A2","54568",45.91061512533618,-89.69684600830078
"54548","Minocqua","WI","Howard Young Medical Center","not_available","54568",45.894154160162024,-89.70251030456039
"54548","Minocqua","WI","Howard Young Medical Center: Emergency Room","240 Maple St","54568",45.89397,-89.70215
"54548","Minocqua","WI","Marshfield Hospital","not_available","54548",45.889628,-89.709673
"54566","Wabeno","WI","Laona Rescue Wabeno Station","not_available","54566",45.438789,-88.659667
"54601","La Crosse","WI","Gundersen Health System","1900 South Ave","54601",43.794914590716175,-91.24796711440518
"54601","La Crosse","WI","Mayo Clinic Health System - La Crosse","700 West Ave S","54601",43.8042418,-91.2416728
"54601","La Crosse","WI","Gunderson Lutheran Medical Center 3rd floor hallway","not_available","54601",43.79396066691446,-91.2474785597577
"54601","La Crosse","WI","veterans administration Medical Center","500 Veterans Way","54601",43.85542582169859,-91.22027880388421
"54601","La Crosse","WI","Tomah Memorial Hospital","not_available","54660",43.75785499,-91.20565509
"54601","La Crosse","WI","Hilton Medical Supply","500 3rd St S","54601",43.808372999999996,-91.25394399999999
"54601","La Crosse","WI","York Hospital Emergency Department","1001 George Street","not_available",43.83884048461914,-91.24019622802734
"54601","La Crosse","WI","Gundersen Lutheran Medical Center Pharmacy","South Ave","54601",43.80555514261308,-91.24665178792496
"54603","La Crosse","WI","Gunderson Lutheran Onlaska","not_available","55987",43.87870905404645,-91.21997835267317
"54612","Arcadia","WI","Mayo Clinic Health System - Arcadia","464 S Saint Joseph Ave","54612",44.247257232666016,-91.4970703125
"54615","Black River Falls","WI","Black River Memorial Hospital","711 W Adams St","54615",44.30287365079742,-90.8551315753728
"54629","Fountain City","WI","Community Memorial Hospital","855 Mankato Ave","55987",44.03276900657196,-91.62348077187741
"54629","Fountain City","WI","Winona Health - Urgent Care Clinic","420 E Sarnia St","55987",44.04063415527344,-91.6313247680664
"54648","Norwalk","WI","AMS Micromedical LLC","18975 Incline Rd","54648",43.899142721259786,-90.6530386084595
"54650","Onalaska","WI","AMS of Wisconsin - Onalaska Addiction Treatment Services","9532 E 16 Frontage Rd Ste 100","54650",43.884002,-91.17258600000002
"54650","Onalaska","WI","BioLife Plasma Services","1278 Rudy Street","54650",43.87504577636719,-91.19918060302734
"54656","Sparta","WI","St. Clare Health Mission Of Sparta","310 W Main St","54656",43.94445037841797,-90.81440734863281
"54656","Sparta","WI","Fortified Life","9419 James Avenue","54656",43.963574982488986,-90.85070013999939
"54660","Tomah","WI","Advanced Imaging Mobile MRI, Tomah","4th St","54660",44.00333311666667,-90.4936820268631
"54660","Tomah","WI","Tomah Memorial Hospital","321 Butts Ave","54660",43.98396151337575,-90.51569647517337
"54660","Tomah","WI","Medic","not_available","54666",44.0940974,-90.5298529
"54665","Viroqua","WI","Gundersen Lutheran Eye Clinic","407 S Main St","54665",43.551429748535156,-90.8884506225586
"54665","Viroqua","WI","Vernon Memorial Hospital","507 S Main St","54665",43.551476635983576,-90.88842452674568
"54701","Eau Claire","WI","Mayo Clinic Health System in Eau Claire","1221 Whipple St, Luther Campus","54703",44.812151062968795,-91.51291608810425
"54701","Eau Claire","WI","Mayo Clinic Health Systems","1400 Bellinger St, Midelfort Building","54703",44.81335351837947,-91.51230325615253
"54701","Eau Claire","WI","Luther Hospital Ccu","not_available","54703",44.813438158574215,-91.51154220763664
"54701","Eau Claire","WI","Sacred Heart ER","Clairemont Ave","not_available",44.794292542403106,-91.51061508753725
"54701","Eau Claire","WI","Merrick Plastic Surgery SC","719 W Hamilton Ave Ste A","54701",44.78521728515625,-91.50677490234375
"54701","Eau Claire","WI","Sacred Heart Urgent Care","900 W Clairemont Ave","54701",44.79440689086914,-91.5111312866211
"54701","Eau Claire","WI","Luther Hospital Cancer Center","1223-1299 Whipple St","54703",44.785529740355464,-91.48296777949798
"54701","Eau Claire","WI","Marshfield Medical Center - Eau Claire","2310 Craig Rd","54701",44.79429,-91.519806
"54701","Eau Claire","WI","Mayo Health- ER","5th","not_available",44.81453883909559,-91.50551102208715
"54701","Eau Claire","WI","OakLeaf Surgical Hospital","1000 Oakleaf Way","54720",44.8153426,-91.4526507
"54701","Eau Claire","WI","BioLife Plasma Services","4710 Commonwealth Avenue","54701",44.7695675213916,-91.42749816699812
"54701","Eau Claire","WI","Eau Claire Animal Hospital","2504 Mall Dv","54701",44.79325600884943,-91.46196130730127
"54701","Eau Claire","WI","Luther Middlefort Urgent Care","not_available","54701",44.79250906457701,-91.50756701260417
"54703","Eau Claire","WI","Marshfield Clinic","12961 27th Ave","54729",44.881522,-91.40873
"54703","Eau Claire","WI","Michael Braunsky, MD","3085 Meadowlark Lane","54720",44.820072,-91.460434
"54703","Eau Claire","WI","Marshfeild Clinic","not_available","54729",44.88096146433479,-91.40813827514648
"54724","Bloomer","WI","Bloomer Medical Clinic","1501 Thompson St","54724",45.101905822753906,-91.50175476074219
"54726","Boyd","WI","Our Lady Of Victory","not_available","54727",44.93628712266128,-91.08179373195794
"54729","Chippewa Falls","WI","HSHS St. Joseph's Hospital","2661 County Highway I","54729",44.95030750686874,-91.35953366971852
"54729","Chippewa Falls","WI","Michael Braunsky, MD","2509 County Highway I","54729",44.950257,-91.362035
"54751","Menomonie","WI","Red Cedar Medical Center","2321 Stout Rd","54751",44.882915081561315,-91.90188868106834
"54751","Menomonie","WI","Karen Johnson, CNM","1125 Broadway Street","54751",44.8958155,-91.93294755
"54751","Menomonie","WI","Arkham Asylum","not_available","54751",44.899627685546875,-91.93748474121094
"54751","Menomonie","WI","Dunn County Health Care Center","3001 US Highway 12 E","54751",44.88727951049805,-91.88715362548828
"54751","Menomonie","WI","The Village At White Pine","921 22nd Ave NE","54751",44.90834045410156,-91.92024230957031
"54756","Nelson","WI","St. Elizabeth's Medical Center","1200 Grant Blvd W","55981",44.38794590960595,-92.04728328000739
"54756","Nelson","WI","St. Elizabeth's Medical Center - Emergency Room","1200 5th Grant Boulevard W","55981",44.38748,-92.04752
"54758","Osseo","WI","Mayo Clinic Health System - Oakridge","13025 8th St","54758",44.577752058683366,-91.21270716190338
"54768","Stanley","WI","Ascension Our Lady of Victory Hospital Urgent Care","1120 Pine St","54768",44.9535298,-90.9188588
"54769","Stockholm","WI","Lake City Medical Center","500 W Grant St","55041",44.45931399761052,-92.28751169260586
"54771","Thorp","WI","Oak Brook Manor","not_available","54771",44.958058,-90.802908
"54801","Spooner","WI","Spooner Health System","819 Ash St","54801",45.825517,-91.896562
"54806","Ashland","WI","Memorial Medical Center","1625 Maple Ln","54806",46.568120797505316,-90.88858547660817
"54806","Ashland","WI","Ashland Hospital","not_available","54806",46.58813453220407,-90.8825537708558
"54806","Ashland","WI","Ashland Health and Rehabilitation Center","1319 Beaser Ave","54806",46.574774,-90.890209
"54812","Barron","WI","Luther Midelfort Northland","not_available","54812",45.39779281616211,-91.84101867675781
"54812","Barron","WI","Mayo Clinic Health System - Northland","1222 E Woodland Ave","54812",45.3975316,-91.8398506
"54837","Frederic","WI","Northwest Passage","203 United Way","54837",45.64384037081123,-92.46466127126901
"54840","Grantsburg","WI","Burnett Medical Center","598 Parkview Dr","54840",45.774698,-92.686938
"54840","Grantsburg","WI","North Memorial","116","54840",45.77859837295096,-92.68375396728516
"54843","Hayward","WI","Hayward Memorial Hospital","11040 N Start Road 77","54843",46.01450770451916,-91.47876803995935
"54843","Hayward","WI","Hayward Area Memorial Hospital","11267-11667 Wisconsin 27","54843",46.034513424645546,-91.48675918579102
"54843","Hayward","WI","Hayward Area Memorial Hospital","11040N State Rd 77","54843",46.03474807739258,-91.48609924316406
"54848","Ladysmith","WI","Prevea Health Center","1101 Lake Ave W","54848",45.465694,-91.114619
"54848","Ladysmith","WI","Rusk County Memorial Hospital & Clinic at Riverside","900 College Ave W","54848",45.454861,-91.110162
"54868","Rice Lake","WI","Lakeview Medical Center","1100 N Main St","54868",45.51411819458008,-91.73363494873047
"54874","South Range","WI","Essentia Health Convenient Care-Superior","2202 E 2nd St Ste 377","54880",46.707231,-92.047955
"54880","Superior","WI","Essentia Health","3500 Tower Ave","54880",46.69761277063774,-92.10285301732796
"54880","Superior","WI","St Eligius","7700 Grand Ave","55807",46.721544,-92.193076
"54880","Superior","WI","Denfeld Medical Center","4702 Grand Ave","55807",46.744329,-92.160306
"54880","Superior","WI","Essentia Health Urgent Care-West Duluth","4212 Grand Ave Ste A","55807",46.748934000000006,-92.153596
"54893","Webster","WI","North Memorial Ambulance","26525-26547 Muskey Ave N","54893",45.87927894252571,-92.36586026897358
"54901","Oshkosh","WI","Winnebago Mental Health Institute","1300 South Dr","54985",44.07401007565432,-88.52019233280726
"54901","Oshkosh","WI","Aurora Urgent Care","135 Jackson St","54901",44.017311096191406,-88.54341888427734
"54901","Oshkosh","WI","Aurora Clinic at Walgreens","950 S Koeller St","54902",44.010074615478516,-88.57936096191406
"54901","Oshkosh","WI","Mt. Sinai Morgue","not_available","54901",44.04469528,-88.55791375
"54901","Oshkosh","WI","Affinity Medical Center","not_available","54902",44.027671813964844,-88.56986999511719
"54901","Oshkosh","WI","Ob-gyn Mercy Creekside","not_available","54904",44.01293407958574,-88.58105791021755
"54904","Oshkosh","WI","Ascension NE Wisconsin Mercy Hospital","500 S Oakwood Rd","54904",44.01257892779117,-88.59995739441838
"54904","Oshkosh","WI","Aurora Urgent Care","855 N Westhaven Dr","54904",44.0275281,-88.5956277
"54904","Oshkosh","WI","Aurora Dialysis Clinic","855 N Westhaven Dr, Oshkosh, WI 54904","54904",44.028010943490024,-88.59516987865325
"54909","Almond","WI","Wild Rose Hospital","601 Grove Ave","54984",44.18347653222599,-89.24598601188838
"54909","Almond","WI","Gregory Harley, PA","701 Grove Ave","54984",44.18372733799907,-89.24521833658218
"54911","Appleton","WI","Appleton Medical Center ER","not_available","54911",44.278505613384446,-88.39354220912479
"54911","Appleton","WI","U W Health","130-198 E Kimball St","54911",44.259951783963444,-88.40508294687216
"54911","Appleton","WI","Affinity Medical Group Urgent Care","Richmond street","not_available",44.29394896932274,-88.41658119194585
"54911","Appleton","WI","Martha Siekman Cancer Center","Grant St.","54911",44.27847309850291,-88.39234903583275
"54911","Appleton","WI","Urgent Care Physicians","3329 Express Ct","54915",44.259271999999996,-88.358216
"54913","Appleton","WI","NICU childrens hospital Of The Fox Valley","130 2nd St, Neenah, WI 54956","54956",44.27257967966417,-88.46490629546649
"54913","Appleton","WI","John H Bradley VA Clinic - Veteran's Administration","10 Tri Park Way","54914",44.28083801269531,-88.45199584960938
"54913","Appleton","WI","Seattle Grace Hospital","not_available","54914",44.27409184659726,-88.44060363626167
"54913","Appleton","WI","BioLife Plasma Services","5001 W. Schroth LN","54913",44.27374680178946,-88.48221238134552
"54913","Appleton","WI","Recovery Inn","not_available","54913",44.299380843579776,-88.37408790428923
"54914","Appleton","WI","Optivision Eye Care","223 South Nicolet Road","54914",44.259859999999996,-88.47035100000001
"54915","Appleton","WI","St. Elizabeth Hospital","1506 S Oneida St","54915",44.24884927635199,-88.40285216157561
"54915","Appleton","WI","1501 ENT","not_available","54915",44.24898775366504,-88.4013317512845
"54915","Appleton","WI","5E Desk 5","not_available","54140",44.248126989630435,-88.40272477717151
"54923","Berlin","WI","Berlin Memorial Hospital","225 Memorial Dr","54923",43.97813955957532,-88.94284021576554
"54935","Fond Du Lac","WI","St. Agnes Hospital","430 E Division St","54935",43.77770585180151,-88.43136370182037
"54935","Fond Du Lac","WI","BioLife Plasma Services","923 Security Drive","54935",43.79018382746071,-88.48143653678437
"54935","Fond Du Lac","WI","Nazareth Court","not_available","54935",43.777222,-88.432184
"54944","Hortonville","WI","St. Joseph","not_available","54961",44.374353772068545,-88.73792341762928
"54944","Hortonville","WI","New London Hospital","1420 Algoma St","54961",44.38183710608409,-88.7338150751391
"54946","King","WI","Wisconsin Veterans Home at King","N2665 County Road Qq","54946",44.33673168517029,-89.14464506784303
"54952","Menasha","WI","Theda Clark","130 2nd St","54956",44.187021,-88.4537599
"54952","Menasha","WI","TCMC Birthplace","not_available","54956",44.1871996157895,-88.45402691470925
"54952","Menasha","WI","Theda Clark Rheumatology Clinic","200 Theda Clark Medical Plz Ste 240","54956",44.187267,-88.453008
"54952","Menasha","WI","Theda Care Print Center","415 3rd St, Menasha, WI 54952","54952",44.2044677734375,-88.4480972290039
"54952","Menasha","WI","Senior Helpers","2501 South Oneida Street","54915",44.2397953,-88.40452169999999
"54952","Menasha","WI","Theda Clark suite 210 Breast Surgeon","200","54956",44.187950134277344,-88.45254516601562
"54956","Neenah","WI","Thedacare","333 N Green Bay Rd","54956",44.19520240268268,-88.48326398357108
"54956","Neenah","WI","Aurora Urgent Care","1136 Westowne Dr","54956",44.17372131347656,-88.49138641357422
"54971","Ripon","WI","ripon medical center","933 Newbury St","54971",43.83431316421704,-88.83685259522669
"54981","Waupaca","WI","Riverside Medical Center","800 Riverside Dr","54981",44.34557627537951,-89.07658999602455
"54981","Waupaca","WI","James Spencer, MD","710 Riverside Dr","54981",44.345097489589286,-89.07638132572174
"54981","Waupaca","WI","Bethany Home","not_available","54981",44.34410478116491,-89.0834225070724
"54981","Waupaca","WI","Waupaca Elder Care Home","510 River St","54981",44.360878005511644,-89.09102618694304
"54981","Waupaca","WI","DaVita Dialysis","190 Grand Seasons Dr","54981",44.35831069946289,-89.1196060180664
