"zip","city","state","name","address","postalCode","lat","lon"
"99501","Anchorage","AK","PET CT & MRI Department","not_available","not_available",61.210044901594486,-149.82944342255533
"99501","Anchorage","AK","Alaska Regional ER","2801 Debarr Rd Fl 2","99508",61.210607,-149.8280819
"99501","Anchorage","AK","Monarch Psychiatry of Alaska, llc","4600 Debarr Rd Ste 150","99508",61.2090608,-149.7943718
"99501","Anchorage","AK","Ortho Neuro","not_available","99508",61.210249,-149.828482
"99501","Anchorage","AK","Alaska Medical Plaza","1200 Airport Heights Dr","99508",61.210812,-149.828485
"99501","Anchorage","AK","Denali Dispensaries","225 E 5th Ave","99520",61.217799,-149.880352
"99501","Anchorage","AK","Northstar Behavioral Hospital @ Bragraw","1650 South Bragraw","99508",61.20576242699786,-149.80837796007484
"99501","Anchorage","AK","Alaska Regional Hospital Emergency Room","2801 Debarr Rd","99508",61.21063232421875,-149.8279266357422
"99501","Anchorage","AK","North Star Hospital","1500 Debarr Cir","99508",61.20846234351038,-149.8318073177666
"99501","Anchorage","AK","Mountain View Urgent Care","3521 Mountain View Dr","99508",61.22473686,-149.81557504
"99501","Anchorage","AK","Chris Kyle Patriots Hospital","1650 Bragaw St","99508",61.2055798,-149.8097511
"99502","Anchorage","AK","Urgent Care","9104 Jewel Lake Rd","99502",61.1382917025785,-149.95245309291454
"99502","Anchorage","AK","Salvation Army Clithroe","8000 West End Road","99502",61.174232,-150.03312
"99503","Anchorage","AK","Providence ExpressCare - Midtown Mall","2900 Seward Hwy Ste D","99503",61.19381609999999,-149.8682185
"99503","Anchorage","AK","St. Elias Specialty Hospital","4800 Cordova St","99503",61.176469999999995,-149.88024099999998
"99504","Anchorage","AK","Alaska Department Of Veterans Affairs - VA Hospital","1201 N Muldoon Rd","99504",61.23199928061996,-149.7442725262903
"99504","Anchorage","AK","Graceful Living","6600 E 11th Ave","99504",61.2115561,-149.7576662
"99504","Anchorage","AK","Urgent Care","5437 E Northern Lights Blvd","99508",61.196183999999995,-149.78025300000002
"99504","Anchorage","AK","Prestige Care & Rehabilitation Center of Anchorage","9100 Centennial Cir","99504",61.225609,-149.715587
"99504","Anchorage","AK","Providence ExpressCare - Tikahtnu","1118 N Muldoon Rd","99504",61.227503,-149.742738
"99505","Jber","AK","JBER Hospital","5955 Zeamer Ave","99506",61.23495321197771,-149.74504447633845
"99505","Jber","AK","JBER Hospital ER","not_available","99506",61.236007479343314,-149.74446997740017
"99505","Jber","AK","Lynx Wing","not_available","99504",61.235783,-149.745839
"99505","Jber","AK","Ascension Eagle River Hospital","201 Hospital Rd","54521",61.32054920881574,-149.56479012968884
"99507","Anchorage","AK","Alaska Native Medical Center","4315 Diplomacy Dr","99508",61.182504211446215,-149.80030868340762
"99507","Anchorage","AK","ANMC Critical Care","not_available","99518",61.18265055886936,-149.80099467690076
"99507","Anchorage","AK","First Care Medical Centers, LLC.","1301 Huffman Rd","99515",61.109165000000004,-149.857907
"99507","Anchorage","AK","Alpine Urgent Care","1310 E Dimond Blvd","99515",61.14387,-149.858277
"99507","Anchorage","AK","Concentra Urgent Care","4100 Lake Otis Pkwy Ste 100","99508",61.18300816591691,-149.84076322989785
"99507","Anchorage","AK","ANMC Fireweed Building","4341 Tudor Centre Dr","99508",61.18141555786133,-149.79420471191406
"99507","Anchorage","AK","Providence ExpressCare - Huffman","1389 Huffman Park Dr Ste 110","99515",61.1108408,-149.8556586
"99508","Anchorage","AK","Providence Alaska Medical Center","3200 Providence Dr","99508",61.18790889447437,-149.8169195652008
"99508","Anchorage","AK","Alaska Psychiatric Institute","3700 Piper St","99508",61.18507385253906,-149.8291015625
"99515","Anchorage","AK","Alaska Urgent Care LLC","300 E Dimond Blvd Ste 12A","99515",61.143942,-149.876549
"99515","Anchorage","AK","Providence ExpressCare - Anchorage South","345 W 104th Ave Ste 300","99515",61.12706180000001,-149.8849546
"99559","Bethel","AK","OR KKH","KKH","99559",59.959154,-162.881833
"99576","Dillingham","AK","Bristol Bay Area Health Corporation Kanakanak Hospital","6000 Kanakanak Rd","99576",59.00056838989258,-158.53639221191406
"99577","Eagle River","AK","Providence ExpressCare - Eagle River","17101 Snowmobile Ln Ste 114","99577",61.34020604311771,-149.56241622205997
"99603","Homer","AK","South Peninsula Hospital","4285 Hohe St","99603",59.652512,-151.55040400000001
"99611","Kenai","AK","Central Peninsula Hospital","250 Hospital Pl","99669",60.49348856058292,-151.07763891820713
"99611","Kenai","AK","Fat Tops","36380 Murray Lane","99669",60.508722,-150.9155711
"99611","Kenai","AK","Dr. Robert G. Thompson, MD","188 W Marydale Ave","99669",60.4952434,-151.0782318
"99615","Kodiak","AK","Providence Kodiak Island Medical Center","1915 E Rezanof Dr","99615",57.80136489868164,-152.3743438720703
"99645","Palmer","AK","Mat-Su Regional Medical Center Parking Lot","2500 S Woodworth Loop","99645",61.562799,-149.25808500000002
"99645","Palmer","AK","Recovery Waters Physical Therapy","9131 E Frontage Rd #1","99645",61.60013198852539,-149.22047424316406
"99645","Palmer","AK","Mat Su Emergency Room","not_available","99645",61.56231359980345,-149.2591372485634
"99654","Wasilla","AK","Matsu Urgent Care","not_available","99654",61.51513,-149.62549
"99654","Wasilla","AK","Urgent care","Lake Lucille","99654",61.57781960110223,-149.4035168411874
"99654","Wasilla","AK","Urgent Care At Lake Lucille","185 E Parks Hwy","99654",61.5814561,-149.4475217
"99654","Wasilla","AK","Valley Native Primary Care Center - Benteh Nuutah","1001 S Knik Goose Bay Rd","99654",61.57323455810547,-149.438720703125
"99701","Fairbanks","AK","Fairbanks Memorial Hospital & Denali Center","1650 Cowles St","99701",64.83109484612163,-147.73885258884405
"99701","Fairbanks","AK","Bassett Army Community Hospital","1060 Gaffney Rd","99703",64.82962376281304,-147.66229666758224
"99701","Fairbanks","AK","Fairbanks Clinic","1919 Lathrop St #100","99701",64.83004,-147.74328899999998
"99701","Fairbanks","AK","Fairbanks Imaging Center","not_available","99701",64.83083782625445,-147.73895795553292
"99701","Fairbanks","AK","BACH","10th St","99703",64.828997,-147.662838
"99701","Fairbanks","AK","BACH ER","not_available","99703",64.82990591735786,-147.66437553799233
"99701","Fairbanks","AK","OR Waiting Area","not_available","99709",64.83297597821509,-147.69085850582024
"99702","Eielson Afb","AK","Eielson Clinic","Central Ave","99702",64.6738475561142,-147.0849770307541
"99723","Barrow","AK","Samual Simmonds Memorial Hospital","not_available","99723",71.29756436346362,-156.72881698790582
"99743","Healy","AK","canyon Clinic","not_available","99755",63.74382023982812,-148.8980015955874
"99752","Kotzebue","AK","Maniilaq Health Center","436 5th Ave","99752",66.89591979980469,-162.58712768554688
"99752","Kotzebue","AK","Maniilaq Emergency Room","436 Ted Stevens Way","99752",66.895951,-162.587509
"99762","Nome","AK","Norton Sound Health Corporation Regional Hospital","1000","99762",64.49925137494124,-165.39673631348808
"99762","Nome","AK","Norton Sound Regional Health Corporation","5th Ave","99762",64.50196789008783,-165.40619010489337
"99762","Nome","AK","Nome Hospital","not_available","99762",64.50276336,-165.40515087
"99801","Juneau","AK","Valley Medical Care","1801 Salmon Creek Ln","99801",58.33099300000001,-134.465025
"99801","Juneau","AK","Juneau Bone & Joint Center","3220 Hospital Dr","99801",58.33027648925781,-134.4717254638672
"99801","Juneau","AK","Juneau Urgent Care","not_available","99801",58.362119,-134.57233
"99801","Juneau","AK","Bartlett Regional Hospital","3260 Hospital Dr","99801",58.328688935650945,-134.46539077481256
"99827","Haines","AK","Dahl Memorial Clinic","350 14th Ave.","99840",59.46072292665893,-135.30584534768903
"99835","Sitka","AK","Mt. Edgecumbe Hospital (SEARHC)","222 Tongass Dr","99835",57.052005767822266,-135.35516357421875
"99901","Ketchikan","AK","PeaceHealth Ketchikan Medical Center","3100 Tongass Ave","99901",55.353692,-131.68660500000001
"99901","Ketchikan","AK","Emergency Room","not_available","99901",55.35365295410156,-131.68682861328125
