"zip","city","state","name","address","postalCode","lat","lon"
"89002","Henderson","NV","Sin City Medic Sticker Co.","not_available","not_available",36.00074014071135,-114.92677362109062
"89002","Henderson","NV","CareNow Urgent Care - College & Horizon","585 College Dr Ste C","89015",36.013513,-114.96461599999999
"89005","Boulder City","NV","Boulder City Hospital","901 Adams Blvd","89005",35.967387098317005,-114.84258770942688
"89005","Boulder City","NV","Dignity Health - St. Rose Dominican Hospital, Rose de Lima Campus","not_available","89015",36.03848156363789,-114.98541833933074
"89005","Boulder City","NV","Lake Mead Health and Rehabilitation Center","1180 E Lake Mead Pkwy","89015",36.06171417236328,-114.96209716796875
"89005","Boulder City","NV","Drug & Alcohol Rehab Henderson","540 E Lake Mead Pkwy","89015",36.04391860961914,-114.97388458251953
"89005","Boulder City","NV","St. Rose Dominican Hospital Emergency Room","102 E Lake Mead Pkwy","89015",36.03835864380609,-114.98471352813812
"89005","Boulder City","NV","Mountain View Care Center","Adams st","89005",35.969807876325895,-114.83285583196538
"89005","Boulder City","NV","Woman & Fetal RS Pondok Indah","Pondok Indah","89015",36.0544039,-114.9528454
"89005","Boulder City","NV","Nevada Eye Physicians, Boulder City","1627 Nevada Highway","89005",35.96868,-114.8569
"89007","Bunkerville","NV","Mesa View Hospital","not_available","89027",36.80006944444444,-114.10013888888888
"89011","Henderson","NV","Henderson Hospital","1050 West Galleria Drive","89011",36.07275075,-115.03047757
"89011","Henderson","NV","Labor And Delivery","not_available","89011",36.072906,-115.031265
"89011","Henderson","NV","UMC Urgent Care","not_available","89014",36.06085,-115.03705
"89011","Henderson","NV","Drug & Alcohol Rehab Henderson","874 American Pacific Dr #176","89014",36.04329299926758,-115.02403259277344
"89011","Henderson","NV","Dignity Health Urgent Care - Henderson, NV","800 N Gibson Rd Ste 101","89011",36.0714887,-115.0280542
"89012","Henderson","NV","Nevada Eye Physicians, Henderson","1505 Wigwam Parkway Suite 100","89074",36.03326,-115.048869
"89012","Henderson","NV","Parkway Medical Plaza","100 N Green Valley Pkwy","89074",36.02610477561405,-115.08402232169165
"89012","Henderson","NV","Genesis Medical Group/Parkway Urgent Care","100 N Green Valley Pkwy Ste 110","89074",36.025832,-115.083876
"89012","Henderson","NV","Doctors Express Urgent Care","not_available","89052",36.00404739379883,-115.08358001708984
"89012","Henderson","NV","Kristen Brosig","75 S Valle Verde Dr","89012",36.0241584777832,-115.06298065185547
"89014","Henderson","NV","The Dispensary NV","50 N Gibson Rd #170","89014",36.0346782,-115.0288515
"89014","Henderson","NV","CareNow Urgent Care","2269 N Green Valley Pkwy","89014",36.05516430198266,-115.08392617106438
"89015","Henderson","NV","Intermountain Healthcare - West Lake Mead Urgent Care","595 W Lake Mead Pkwy","89015",36.0340765,-114.9994244
"89021","Logandale","NV","Mesa View Quick Care - Logandale","1925 Whipple Avenue, Suite 30","89021",36.60734939575195,-114.4850082397461
"89027","Mesquite","NV","CPR Training on Wheels, LLC","155 Admiral Benbow Way","89027",36.832925,-114.07026639999998
"89027","Mesquite","NV","Mesa View Quick Care - Mesquite (TEMPORARILY CLOSED)","450 Hillside Dr Ste 104 Bldg B","89027",36.810590351779744,-114.06130313873291
"89027","Mesquite","NV","Mesa View Regional Hospital","1299 Bertha Howe Ave","89027",36.810077,-114.115926
"89027","Mesquite","NV","Nevada Eye Physicians, Mesquite","61 North Willow Street Suite 2","89027",36.80489439999999,-114.0666928
"89029","Laughlin","NV","Valley View Medical Center","5300 S Highway 95","86426",35.00216658761636,-114.59607604771492
"89029","Laughlin","NV","Valley View General and Vascular Surgery","5300 Hwy 95, Suite D","86426",35.002655029296875,-114.59587860107422
"89029","Laughlin","NV","Crossroads Urgent Care","not_available","86442",35.05414208893833,-114.58936195611155
"89029","Laughlin","NV","Urgent Care","1355 Ramar Rd","86442",35.11556208870015,-114.59990558534585
"89029","Laughlin","NV","Fasttrax Urgent Care","3641 Highway 95","86442",35.05411363034823,-114.58925756227944
"89029","Laughlin","NV","Warmc Surgery Center","1225 Hancock Rd #F","86442",35.108238220214844,-114.60580444335938
"89029","Laughlin","NV","Valley View Primary and Walk-In Care","5300 S Highway 95 Ste B","86426",35.002655029296875,-114.59587860107422
"89030","North Las Vegas","NV","North Vista Hospital","1409 E Lake Mead Blvd","89030",36.1947954,-115.1226297
"89030","North Las Vegas","NV","nlvcc","not_available","89030",36.21673713884761,-115.10476428629269
"89030","North Las Vegas","NV","Guardian Elite Medical Services","4224 Losee Rd Ste J","89030",36.23670959472656,-115.11572265625
"89030","North Las Vegas","NV","Jonathan Neuhardt","2225 Civic Center Dr","89030",36.199405670166016,-115.11933898925781
"89030","North Las Vegas","NV","Concentra Urgent Care","151 W Brooks Ave","89030",36.21387090846417,-115.1404818892479
"89031","North Las Vegas","NV","Dignity Health - St. Rose Dominican Hospital, North Las Vegas, NV Campus","1550 W Craig Rd","89032",36.2402434,-115.1625377
"89031","North Las Vegas","NV","CareNow Urgent Care - Camino Al Norte & Ann","5570 Camino Al Norte Ste 1","89031",36.261369233223,-115.15538140210083
"89031","North Las Vegas","NV","St Rose North Las Vegas","1559 W Craig Rd","89032",36.240281,-115.162278
"89031","North Las Vegas","NV","CareNow Urgent Care - Craig & Clayton","2202 W Craig Rd","89032",36.2400184,-115.1733245
"89031","North Las Vegas","NV","CareNow Urgent Care - Ann & Simmons","3020 W Ann Rd","89031",36.261940193996146,-115.18156512650421
"89031","North Las Vegas","NV","LabCorp","not_available","89031",36.261654,-115.179999
"89032","North Las Vegas","NV","Decatur Urgent Care Extra","4900 W Craig Rd","89130",36.23902613932926,-115.20946830511093
"89032","North Las Vegas","NV","DoorPRO Doorstops","9360 W Flamingo Rd Ste 110-220","89147",36.24595181903767,-115.21171331405641
"89032","North Las Vegas","NV","Concentra Medical Center","3945 W Cheyenne Ave","89032",36.21711349487305,-115.19236755371094
"89032","North Las Vegas","NV","The Plaza","2061 Cheyenne","89108",36.217562633414225,-115.17014260581362
"89048","Pahrump","NV","Desert View Hospital","360 S Lola Ln","89048",36.214394,-116.024867
"89048","Pahrump","NV","Intermountain Healthcare - Pahrump Urgent Care","1397 South Loop Road","89048",36.199183,-115.970345
"89048","Pahrump","NV","Nevada Eye Physicians, Pahrump","3640 Nevada State Road 160 Bldg. D, Suite 101","89048",36.1812553,-115.9472589
"89049","Tonopah","NV","Renown Lab Services - Tonopah","825 S Main St","89049",38.062022,-117.2218056
"89049","Tonopah","NV","Nye Regional Medical Center","1175 Erie Main","89049",38.061405308761664,-117.22081661224365
"89052","Henderson","NV","St Rose Siena Hospital","3001 Saint Rose Pkwy","89052",36.00504323690456,-115.11428791354182
"89052","Henderson","NV","Vegas Valley Vein Institute","2450 W Horizon Ridge Pkwy","89052",36.006214,-115.093078
"89052","Henderson","NV","Encompass Health Rehabilitation Hospital of Henderson","10301 Jeffreys St","89052",36.000985,-115.120776
"89052","Henderson","NV","CareNow Urgent Care - Silverado & Maryland","9785 S Maryland Pkwy Ste A2","89183",36.01151753805087,-115.13711258779955
"89052","Henderson","NV","ER At Green Valley Ranch","2581 Saint Rose Pkwy","89074",36.01594,-115.101108
"89052","Henderson","NV","CareNow Urgent Care - Eastern & Horizon Ridge","10652 S Eastern Ave","89052",35.998893,-115.103486
"89052","Henderson","NV","VIP Plastic Surgery","2779 Sunridge Heights Pkwy Suite 100","89052",35.9910954,-115.1090501
"89052","Henderson","NV","Holistic Light MD Therapy","9550 S Eastern Ave #237","89123",36.015897187645535,-115.11851459741592
"89052","Henderson","NV","Paul Parcon","2845 Siena Heights Dr","89052",36.00327250632676,-115.11314291473258
"89052","Henderson","NV","St Rose Siena Employee Parking Lot","St Rose Parkway","89052",36.00418944539935,-115.11568657062676
"89052","Henderson","NV","Shadi Nawaf Daoud","2865 Siena Heights Dr Suite 331","89052",36.0030687,-115.1137812
"89052","Henderson","NV","St Rose Hospital Siena - NICU","not_available","89123",36.00425687937951,-115.1150894165039
"89052","Henderson","NV","Intermountain Healthcare - Green Valley Cardiology Clinic","2865 Siena Heights Dr., Suite 331 Ste 331","89052",36.0030687,-115.1137812
"89052","Henderson","NV","Urgent Care Extra","10652 S Eastern Ave Ste A","89052",35.998893,-115.103486
"89052","Henderson","NV","Urgent Care","siena drive","89052",36.00344742959897,-115.11336715057939
"89052","Henderson","NV","Saint Rose Hospital","not_available","89183",36.00415319131052,-115.11571258844042
"89052","Henderson","NV","St Rose Reference Lab","10001 S Eastern Ave Ste 106","89052",36.007644978976366,-115.11384200979289
"89060","Pahrump","NV","Dar Alshefaa Hospital","not_available","89060",36.295023,-115.996978
"89074","Henderson","NV","Precision Orthotics & Prosthetics","8915 S. Pecos Road Suite 18A","89074",36.0272357,-115.1019437
"89074","Henderson","NV","PROMED House Calls","2657 Windmill Pkwy #412","89074",36.040701688706264,-115.10296583175658
"89074","Henderson","NV","Legacy Urgent Care","105 N Pecos Rd","89074",36.03516391646722,-115.10061358752331
"89074","Henderson","NV","St Rose Garden","not_available","89074",36.03568596484767,-115.11741501346728
"89074","Henderson","NV","Success TMS - Depression Treatment Specialists","9065 S Pecos Rd Ste 250","89074",36.0249194,-115.1015505
"89074","Henderson","NV","Essential Women's Health Associates â€""Henderson, NV","2580 Saint Rose Pkwy Ste 140","89074",36.0166096,-115.1023962
"89074","Henderson","NV","Michaela Tozzi, DMD","8975 South Pecos Road #5A","89074",36.0263477,-115.1022917
"89084","North Las Vegas","NV","ER At Aliante","7207 Aliante Pkwy","89084",36.291236877441406,-115.18299102783203
"89086","North Las Vegas","NV","VA Hospital - Southern Nevada","6900 Pecos Rd","89086",36.285652605560095,-115.09462123776635
"89101","Las Vegas","NV","VA Hospital","Charleston","not_available",36.17369108057197,-115.09608064332406
"89101","Las Vegas","NV","The 211 Apartments","211 N 8th St, Las Vegas, NV 89101","89101",36.16954613874763,-115.13586044311523
"89101","Las Vegas","NV","Ready Responders","400 S 4th St Ste 270","89101",36.1661168,-115.1446808
"89101","Las Vegas","NV","Drug & Alcohol Rehab Las Vegas","235 N Eastern Ave #176","89101",36.16563034057617,-115.1165771484375
"89102","Las Vegas","NV","UMC - University Medical Center","1800 W Charleston Blvd","89102",36.15986511988425,-115.16751173252834
"89102","Las Vegas","NV","UMC Education Center","901 Rancho","not_available",36.16082281681617,-115.17080305373928
"89102","Las Vegas","NV","Southwest Medical Associates Urgent Care","888 S Rancho Dr","89106",36.160060582577465,-115.17372877852154
"89102","Las Vegas","NV","UMC Chilldren's ER","not_available","89106",36.16051128531912,-115.16842298720105
"89102","Las Vegas","NV","UMC Children's Hospital of Nevada","800 Hope Pl","89106",36.16132354736328,-115.16876983642578
"89102","Las Vegas","NV","Encompass Health Rehabilitation Hospital of Las Vegas","1250 S Valley View Blvd","89102",36.1563518,-115.1935778
"89102","Las Vegas","NV","Dignity Health - Sahara Campus","not_available","89146",36.145725,-115.208815
"89102","Las Vegas","NV","Valley Cath Lab","not_available","89102",36.157718658447266,-115.1707534790039
"89102","Las Vegas","NV","Keith G Boman","601 S. Rancho Drive Ste D28","89106",36.1628746,-115.1719091
"89102","Las Vegas","NV","AMR Orientation","1200 S Martin L King Blvd","89102",36.15658950805664,-115.1614990234375
"89102","Las Vegas","NV","Emergency Room - Dignity Health - St. Rose Dominican, Sahara Campus - Las Vegas, NV","4980 W Sahara Ave","89146",36.145921,-115.2090168
"89102","Las Vegas","NV","CareNow Urgent Care","4575 W Charleston Blvd","89102",36.158559999999994,-115.20259899999999
"89103","Las Vegas","NV","Spring Valley Hospital Medical Center","5400 South Rainbow Boulevard","89118",36.09057,-115.24059
"89103","Las Vegas","NV","Spring Valley Hospital ER","not_available","89118",36.09081331212025,-115.24016417769896
"89103","Las Vegas","NV","Fremont Medical Center","4800 Wynn Rd.","89103",36.101351468780635,-115.19521711425924
"89103","Las Vegas","NV","CareNow Urgent Care","6125 W Tropicana Ave Ste A","89103",36.099602,-115.226648
"89103","Las Vegas","NV","Universal Mobility","5225 S Valley View Blvd Ste 10","89118",36.094879999999996,-115.19051200000001
"89103","Las Vegas","NV","Aeslight USA","5052 S Jones Blvd Ste 110","89118",36.09682846069336,-115.22444152832031
"89103","Las Vegas","NV","Red Rock Behavioral Health Center","5975 W Twain Ave","89103",36.12152862548828,-115.22330474853516
"89103","Las Vegas","NV","Radiology At Spring Valley Hospital","5400 S Rainbow Blvd","89118",36.090335845947266,-115.24063873291016
"89103","Las Vegas","NV","health care partners","not_available","89103",36.101391347280185,-115.1950673456829
"89104","Las Vegas","NV","Sunrise Medical Center Emergency Room","not_available","89104",36.15585708618164,-115.11438751220703
"89106","Las Vegas","NV","Valley Hospital OR","620 Shadow Ln","89106",36.16376971144341,-115.16703234741811
"89107","Las Vegas","NV","Ergent Care","2628 W Charleston Blvd","89102",36.159258,-115.17734899999999
"89107","Las Vegas","NV","Seven Heart Medspa | Las Vegas, NV","3900 W Charleston Blvd Ste 170","89102",36.1596685,-115.1931169
"89108","Las Vegas","NV","UMC Quick Care | Urgent Care","4331 N Rancho St","not_available",36.23623019199254,-115.23046796506857
"89108","Las Vegas","NV","Womans locker Room Lvac","oran k. gragson freway","not_available",36.19178337929502,-115.2431758467886
"89108","Las Vegas","NV","El Jen","not_available","89130",36.229088190859905,-115.21856601569365
"89108","Las Vegas","NV","The Marquis","6021 W Cheyenne Ave","89108",36.21613,-115.22743500000001
"89108","Las Vegas","NV","Nathan Adelson Hospice Tenaya IPU","not_available","89128",36.19650169955887,-115.2402973925411
"89109","Las Vegas","NV","Harmon Medical Center","150 E Harmon Ave","89109",36.10918648676536,-115.16587716854634
"89109","Las Vegas","NV","Emergency Room","3186 S Maryland Pkwy","89109",36.132140836467094,-115.13539754860322
"89109","Las Vegas","NV","John Dale Sayler","3006 Maryland Pkwy Suite 205","89109",36.1354268,-115.1350912
"89109","Las Vegas","NV","Intermountain Healthcare La Canada Cardiology Clinic","3131 La Canada St. Suite 140","89169",36.1323404,-115.1332383
"89109","Las Vegas","NV","Sunrise Radiology","not_available","89109",36.133277,-115.136186
"89109","Las Vegas","NV","Howard Broder","3131 La Canada Suite 200","89169",36.1323404,-115.1332383
"89109","Las Vegas","NV","Frederick A Schaller","3131 La Canada Suite 200 Ste 200","89169",36.1323404,-115.1332383
"89109","Las Vegas","NV","Keith Dallas","Planet Hollywood","not_available",36.11112911666667,-115.17100511666666
"89109","Las Vegas","NV","Sunrise Hospital Education Center","3101 S Maryland Pkwy","89109",36.13343811035156,-115.13764953613281
"89109","Las Vegas","NV","Intermountain Healthcare Maryland Parkway Oncology/Hematology Clinic","3006 Maryland Pkwy, Suite 205","89109",36.1354268,-115.1350912
"89109","Las Vegas","NV","Southwest medical urgent care","Sienna heights","89109",36.114383803405296,-115.17626251992043
"89109","Las Vegas","NV","Quest Diagnostics","3025 S Maryland Pkwy","89109",36.135616302490234,-115.13764190673828
"89109","Las Vegas","NV","Nathan Adelson Hospice","Swensen","89119",36.113147214008244,-115.14984240919749
"89109","Las Vegas","NV","Divine charity clinic","GRA","not_available",36.1088429,-115.1381685
"89109","Las Vegas","NV","Vita Heaven","3281 S Highland Dr Ste 805","89109",36.130035400390625,-115.17825317382812
"89110","Las Vegas","NV","CareNow Urgent Care - Charleston & Sloan","5891 E Charleston Blvd Ste 150","89142",36.1590046,-115.0455632
"89113","Las Vegas","NV","St Rose San Martin Hospital","8280 W Warm Springs Rd","89113",36.05747869789585,-115.2721867376418
"89113","Las Vegas","NV","ER at Blue Diamond","9217 S Cimarron Rd","89178",36.0206865,-115.2707729
"89113","Las Vegas","NV","St. Rose Dominican Labor And Delivery","not_available","89148",36.078029,-115.28576
"89113","Las Vegas","NV","St Rose Dominican Surgery Wing","not_available","89113",36.06109619140625,-115.284912109375
"89113","Las Vegas","NV","CareNow Urgent Care - Arby & Durango","7040 S Durango Dr","89113",36.0599325,-115.2787742
"89113","Las Vegas","NV","Hometown Health - Las Vegas","8930 W Sunset Rd","89148",36.071922302246094,-115.28662109375
"89113","Las Vegas","NV","Advanced Audiology Institute","9111 W Russell Rd #A","89148",36.083901642320626,-115.29109060764313
"89113","Las Vegas","NV","Mountain's Edge Hospital","8656 W Patrick Ln","89148",36.0788,-115.281023
"89113","Las Vegas","NV","David A Pomerantz","8285 West Arby Ave Ste. 100","89113",36.0583209,-115.2721277
"89113","Las Vegas","NV","Arthur M. Cambeiro, MD","8285 W Arby Ave #275","89113",36.05850145077925,-115.27183771133423
"89113","Las Vegas","NV","BudTrader Nevada","5940 S Rainbow Blvd Ste 400 # 37888","89118",36.08046802290044,-115.2449458837509
"89113","Las Vegas","NV","Novuskin Med Spa","7155 S Rainbow Blvd","89118",36.032329551513264,-115.24371206760406
"89113","Las Vegas","NV","Intermountain Healthcare San Martin Oncology Clinic","8285 West Arby Ave. Suite 100-B","89113",36.0583209,-115.2721277
"89113","Las Vegas","NV","Dr. KATHLEEN SMITH","5495 S Rainbow Blvd Ste 202","89118",36.089107513427734,-115.24358367919922
"89113","Las Vegas","NV","Plastic Surgery Vegas","8530 W Sunset Rd Ste 130","89113",36.0714788,-115.2777391
"89113","Las Vegas","NV","The Art of Braces","5980 South Durango Drive Suite 124","89113",36.0801807,-115.2786651
"89113","Las Vegas","NV","Nevada Eye Physicians, Southwest","9100 W. Post Road","89148",36.0752969,-115.2906575
"89113","Las Vegas","NV","Essential Women's Health Associates â€"" Las Vegas, NV","8285 W Arby Ave Ste 280","89113",36.0583209,-115.2721277
"89115","Las Vegas","NV","Mike O'Callaghan Federal Hospital","4700 Las Vegas Blvd N","89191",36.24609129529283,-115.04909841001076
"89115","Las Vegas","NV","MOFH ER","not_available","89115",36.246593325317725,-115.04890147820772
"89115","Las Vegas","NV","Michael O'Callaghan Federal Hospital","Las Vegas BLVD","not_available",36.2407727025379,-115.05399270670783
"89115","Las Vegas","NV","Quest Diagnostic Center","not_available","89156",36.203975724480415,-115.0360832819078
"89117","Las Vegas","NV","UMC Quick Care","9320 W Sahara Ave","89117",36.14493885202892,-115.29967638089639
"89117","Las Vegas","NV","ER at the Lakes","3325 S Fort Apache Rd","89117",36.12872868913165,-115.29771029949194
"89117","Las Vegas","NV","Spring Mountain Treatment Center","7000 West Spring Mountain Road","89117",36.1264462,-115.2460194
"89117","Las Vegas","NV","Surgical Arts Center","not_available","89117",36.158579792936635,-115.30237454499265
"89117","Las Vegas","NV","Intermountain Healthcare - West Charleston Urgent Care","9499 W Charleston Blvd Ste 150","89117",36.158457,-115.3023254
"89117","Las Vegas","NV","Dr. Romy Park OD","3615 S Rainbow Blvd","89103",36.1231819,-115.2465049
"89117","Las Vegas","NV","CareNow Urgent Care - Sahara & Hualapai","10030 W Sahara Ave","89117",36.1448273,-115.3127041
"89117","Las Vegas","NV","Myint Oculo Facial Plastic Surgery","7650 West Sahara Avenue Suite 1c","89117",36.1443959,-115.2577815
"89118","Las Vegas","NV","Concentra Urgent Care","5850 Polaris Ave Ste 100","89118",36.0840626,-115.1851926
"89118","Las Vegas","NV","Pro Care Med Urgent Care","S. Rainbow","not_available",36.063632,-115.241821
"89119","Las Vegas","NV","Desert Springs Hospital Medical Center","2075 East Flamingo Road","89119",36.11357827,-115.12539455
"89119","Las Vegas","NV","Kidred Hospital","2250 E Flamingo Rd","89119",36.115840911865234,-115.12115478515625
"89119","Las Vegas","NV","Elena Andrews","4475 S Eastern Ave","89119",36.10777402233329,-115.12061824582764
"89119","Las Vegas","NV","Mivip Surgery Center Las Vegas","4440 S Eastern Ave","89119",36.10845947265625,-115.11808013916016
"89119","Las Vegas","NV","Drug & Alcohol Rehab Las Vegas","4000 S Eastern Ave","89119",36.11602783203125,-115.11853790283203
"89119","Las Vegas","NV","Surgery Center of Southern Nevada","4275 Burnham Ave Ste 100","89119",36.111568450927734,-115.12446594238281
"89119","Las Vegas","NV","DSHMC Education Dept","not_available","89119",36.113219,-115.125947
"89121","Las Vegas","NV","FirstMed Urgent Care","3343 S Eastern Ave","89169",36.12901306152344,-115.11896514892578
"89121","Las Vegas","NV","Desert hope center","not_available","89121",36.121788906361544,-115.11702025686569
"89122","Las Vegas","NV","UMC Quick Care","5412 Boulder Hwy","89122",36.10322130857105,-115.05446270278664
"89124","Las Vegas","NV","Summerlin Hospital Medical Center","657 North Town Center Drive","89144",36.18147,-115.31844
"89124","Las Vegas","NV","Centennial Hills Hospital","6900 N Durango Dr","89149",36.28703526830048,-115.28533553244178
"89124","Las Vegas","NV","Summerlin Hospital ER","657 N Town Center Dr","89144",36.181434465322795,-115.31758887213797
"89124","Las Vegas","NV","PAM Rehabilitation Hostpital of Centennial Hills","6166 N Durango Dr","89149",36.27506637573242,-115.27989959716797
"89124","Las Vegas","NV","Dignity Health - St. Rose Dominican Hospital, West Flamingo - Las Vegas, NV","9880 W Flamingo Rd","89147",36.115865846079735,-115.30748182209015
"89124","Las Vegas","NV","MountainView Hospital","3100 N Tenaya Way","89128",36.2156808,-115.2492647
"89124","Las Vegas","NV","Mountain View Hospital OR","3150 N Tenaya Way","89128",36.215765789793785,-115.24904393226053
"89128","Las Vegas","NV","Manor Health Care Center","Summerline","not_available",36.214071,-115.276954
"89128","Las Vegas","NV","Las Vegas Urgent Care Care","2901 N Tenaya Way Ste 200","89128",36.21392720218427,-115.25053157211033
"89128","Las Vegas","NV","Melinda Kwan","2704 N Tenaya Way","89128",36.208829404369475,-115.24874281916345
"89128","Las Vegas","NV","Tracy Coe MD","2650 North Tenaya Way Suite 201","89128",36.2078176,-115.2493847
"89128","Las Vegas","NV","Spine Surgeon Las Vegas","2680 Crimson Canyon Dr","89128",36.208356,-115.25210200000001
"89128","Las Vegas","NV","Sonia M Ceballos","3150 Tenaya Way","89128",36.2168087,-115.2495388
"89128","Las Vegas","NV","PAM Specialty Hospital of Las Vegas","2500 N Tenaya Way","89128",36.20553207397461,-115.25068664550781
"89128","Las Vegas","NV","CAT Hospital","7550 W Lake Mead Blvd","89128",36.197410999999995,-115.258122
"89129","Las Vegas","NV","Nathan Adelson Hospice (Buffalo)","not_available","89129",36.22170081666667,-115.2610807
"89129","Las Vegas","NV","Center for Addiction Treatment Rehabilitation - (702) 527-3003","3321 N Buffalo Dr #100","89129",36.22126770019531,-115.26105499267578
"89129","Las Vegas","NV","Center for Alcohol Treatment Rehabilitation - (702) 763-5804","3321 N Buffalo Dr #125","89129",36.22126388549805,-115.26103973388672
"89129","Las Vegas","NV","Center for Drug Rehabilitation Las Vegas","3321 N Buffalo Dr #225","89129",36.22126388549805,-115.26103973388672
"89129","Las Vegas","NV","Center for Drug Addiction Treatment - (702) 763-5805","3321 N Buffalo Dr #150","89129",36.22126388549805,-115.26103973388672
"89129","Las Vegas","NV","Center for Drug Detox Rehabilitation - (702) 763-5807","3321 N Buffalo Dr #195","89129",36.22092432013789,-115.26052951812743
"89129","Las Vegas","NV","Center for Alcoholism Rehabilitation Recovery - (702) 763-5808","3321 N Buffalo Dr #200","89129",36.221028185231766,-115.26044368743896
"89129","Las Vegas","NV","CareNow Urgent Care - Cheyenne & Durango","8300 W Cheyenne Ave Suite 105","89129",36.2188421,-115.2746348
"89129","Las Vegas","NV","Cheyenne Urgent Care Extra","8300 W Cheyenne Ave Ste 105","89129",36.21884,-115.274621
"89129","Las Vegas","NV","Center for Alcohol Rehabilitation Las Vegas","3321 N Buffalo Dr #275","89129",36.22126388549805,-115.26103973388672
"89130","Las Vegas","NV","Intuitive Mother Midwifery - Kristy Wilson, Certified Professional Midwife & Labor Doula","North Jones and 215","89131",36.2742937,-115.22545030000003
"89130","Las Vegas","NV","Canyon Medical Center - Doctors | Physicians | Urgent Care | Primary Care","5061 N Rainbow Blvd, Ste 180","89130",36.2536359201727,-115.242724526459
"89131","Las Vegas","NV","Danny Johnson","7061 Grand Montecito Pkwy","89149",36.28885763598518,-115.28480992847284
"89131","Las Vegas","NV","Jaylah's First Happy Place @ The Hills","not_available","89149",36.286879,-115.285214
"89131","Las Vegas","NV","Steven B Harter","6850 N. Durango Ste 310","89149",36.2858727,-115.2853328
"89134","Las Vegas","NV","See Right Now","653 N. Town Center Drive #212","89144",36.18069264230802,-115.31565656471321
"89134","Las Vegas","NV","Summerlin Pediatric ER","N. Town Center Dr.","89144",36.18154869836677,-115.31750810475724
"89134","Las Vegas","NV","Summerlin Hospital Labor & Delivery","657 Town Center Dr.","89145",36.18218016721306,-115.31708601137527
"89134","Las Vegas","NV","Jeffrey Martin Levisman","10105 Banburry Cross Dr Suite 250","89144",36.1828535,-115.3164002
"89134","Las Vegas","NV","Ronny Jiji MD","10105 Banburry Cross Dr. Suite 250","89144",36.1828535,-115.3164002
"89135","Las Vegas","NV","Adonai Counseling  and  Consulting, PLLC","1980 Festival Plaza Dr Ste 300","89135",36.1498781,-115.3330219
"89139","Las Vegas","NV","CareNow Urgent Care - Rainbow & Mardon","7424 S Rainbow Blvd Ste A","89139",36.05331460625196,-115.2424111962319
"89139","Las Vegas","NV","UMC Quickcare","4760 Blue Diamond Rd Ste 110","89139",36.034751892089844,-115.20641326904297
"89139","Las Vegas","NV","Dignity Health - St. Rose Dominican Hospital, Blue Diamond - Las Vegas, NV","4855 Blue Diamond Rd","89139",36.0323659,-115.2070356
"89139","Las Vegas","NV","HCG Safety Division On Site Project Managers","8057 Avalon Island St Ste 3","89139",36.04259490966797,-115.23328399658203
"89141","Las Vegas","NV","CareNow Urgent Care - Southern Highlands & Cactus","10530 Southern Highlands Pkwy Ste 150","89141",35.99812945972471,-115.20558741688319
"89145","Las Vegas","NV","mt view Nicu","not_available","89108",36.168209868933396,-115.25719981590795
"89146","Las Vegas","NV","Torrey Pines Rehabilitation Hospital","1701 S Torrey Pines Dr","89146",36.151061999999996,-115.23353200000001
"89146","Las Vegas","NV","Spring Mountain Sahara","5460 W Sahara Ave","89146",36.145868,-115.215848
"89146","Las Vegas","NV","Kindred Hospital Sahara Med Surg","Wear Sahara","89123",36.14583109381811,-115.21171169433977
"89146","Las Vegas","NV","Extensive Pain Primary & Urgent Care Center of Nevada","6465 W Sahara Ave #103","89146",36.1430125,-115.2331454
"89147","Las Vegas","NV","CareNow Urgent Care - Durango & Flamingo","4075 S Durango Dr Ste 108-110","89147",36.1152991,-115.2803614
"89147","Las Vegas","NV","MedPost Kids Urgent Care - El Paso","12371 Edgemere Blvd","79938",36.1148551,-115.3041453
"89147","Las Vegas","NV","UMC Quick Care £","not_available","89147",36.10542550511752,-115.24320328535445
"89147","Las Vegas","NV","Mr. GREGORY PEISTRUP, APRN","4735 S Durango Dr Ste 140","89147",36.1033575,-115.280471
"89148","Las Vegas","NV","LaSondra Bean FNP","6160 S. Fort Apache Road","89148",36.0764053,-115.2970471
"89148","Las Vegas","NV","John B Bedotto","9280 W Sunset Rd Suite 320","89119",36.071835,-115.2947321
"89148","Las Vegas","NV","Southern Hills Hospital Emergency Room","9300 W Sunset Rd","89148",36.072825828794926,-115.2959452429371
"89148","Las Vegas","NV","Aesthetic Revolution Las Vegas - Dr. Zimmerman","9130 W Post Road Suite 100","89148",36.071872,-115.2871386
"89149","Las Vegas","NV","Centennial Hills Hospital Medical Center","6900 North Durango Drive","89149",36.28701612,-115.28610187
"89183","Las Vegas","NV","St. Rose Siena ER","10000 S Eastern Ave","89052",36.00409062116882,-115.11481587699072
"89183","Las Vegas","NV","Saint Rose Hospital Labor And Delivery","St Rose Pkwy","89052",35.996895265889755,-115.1235648883644
"89301","Ely","NV","William Bee Ririe Hospital","1500 Avenue H","89301",39.25637704963614,-114.85988725814845
"89403","Dayton","NV","Dayton Valley Urgent Care","not_available","89403",39.269047269188825,-119.574610765379
"89406","Fallon","NV","Banner Churchill Community Hospital","801 E Williams Ave","89406",39.4762788758268,-118.76643101055151
"89406","Fallon","NV","Banner Health Clinic: General and Orthopedic Surgery","801 East Williams Ave","89406",39.47524332804913,-118.76625180244446
"89406","Fallon","NV","Highland Manor","550 N Sherman St","89406",39.48118934887393,-118.7666030250535
"89415","Hawthorne","NV","Mount Grant General Hospital","not_available","89415",38.51699095593884,-118.6276213704452
"89419","Lovelock","NV","Pershing General Hospital","6th St","89419",40.17612628,-118.48184826
"89423","Minden","NV","Minden Urgent Care","Highway 395","89423",38.9564269,-119.7749153
"89423","Minden","NV","Carson Valley Medical Center Urgent Care","897 Ironwood Dr","89423",38.963945,-119.778323
"89431","Sparks","NV","Renown Health","910 Vista Blvd","89434",39.54242518203907,-119.70321121407851
"89431","Sparks","NV","Swift Urgent Care","not_available","89434",39.541495,-119.703055
"89431","Sparks","NV","dini townsend hospital","not_available","89431",39.52937490713017,-119.77685700248459
"89431","Sparks","NV","Renown Urgent And Family Care","Vista","89434",39.547749,-119.70317423343658
"89431","Sparks","NV","More to Life Adult Day Health Center, LLC","1963 E Prater Way","89434",39.541121000000004,-119.705881
"89431","Sparks","NV","PAM Specialty Hospital of Sparks","2375 E Prater Way","89434",39.541236877441406,-119.69708251953125
"89431","Sparks","NV","St. Marys Urgent Care","Ion dr","not_available",39.572498,-119.73395
"89431","Sparks","NV","Sierra Midwifery Services","1724 C Street","89431",39.53636,-119.765941
"89433","Sun Valley","NV","Renown Urgent Care","Galeria Parkway","89436",39.58506524562836,-119.74059104919434
"89433","Sun Valley","NV","Renown","202 Los Altos Pkwy","89436",39.58509063720703,-119.7407455444336
"89434","Sparks","NV","ManorCare Health Services-Wingfield Hills","2350 Wingfield Hills Rd","89436",39.609895,-119.69841699999999
"89434","Sparks","NV","Strategic Life Coaching","1344 Disc Dr","89436",39.57770919799805,-119.72035217285156
"89434","Sparks","NV","Carbon Health","5070 Ion Dr Ste 100","89436",39.584527412931585,-119.73056164074367
"89434","Sparks","NV","Saint Mary's Urgent Care","5070 Ion Drive","89436",39.5844903,-119.7305556
"89436","Sparks","NV","The Verge of Snapping","not_available","89436",39.64616754985234,-119.71620514707186
"89445","Winnemucca","NV","Humboldt General Hospital","118 E Haskell St","89445",40.9711649,-117.7266801
"89445","Winnemucca","NV","Golden Valley Medical Center","not_available","89445",40.96551798314044,-117.73239207037251
"89449","Stateline","NV","Barton Urgent Care","Hwy 50, Toiyabe National Forest, Stateline, NV 89449","89449",38.968506699846635,-119.93533143342336
"89449","Stateline","NV","Stateline Medical Center","150 Highway 50 #100","89449",38.9684214,-119.93538236666667
"89501","Reno","NV","Saint Mary's Regional Medical Center","235 W 6th St","89503",39.53244919999999,-119.8185126
"89501","Reno","NV","Saint Marys Radiology","not_available","89503",39.531944,-119.820237
"89501","Reno","NV","Renown Surgical Floor","not_available","89501",39.521503,-119.808045
"89501","Reno","NV","Drug & Alcohol Rehab Reno","327 California Ave","89509",39.520321,-119.815271
"89501","Reno","NV","Saint Mary's Medical Center for Health","645 N Arlington Ave #655","89503",39.53240414292181,-119.81955528259276
"89501","Reno","NV","Reno Cyberknife","645 N Arlington Ave Ste 120","89503",39.531944,-119.820237
"89501","Reno","NV","South Meadows Renown","not_available","89502",39.5219664575112,-119.80709107597221
"89501","Reno","NV","Westcare","315 Record St","89512",39.52970504760742,-119.80915069580078
"89502","Reno","NV","Tahoe Tower Surgery","1155 Mill St","89502",39.525266675816724,-119.79568757337658
"89502","Reno","NV","Life Care Center Of Reno","not_available","89511",39.44522859181677,-119.77654038056
"89502","Reno","NV","Renown Health - Rehabilitation Hospital","1495 Mill St","89502",39.52448058884498,-119.79215576799528
"89502","Reno","NV","Key Medical","5401 Longley Ln","89511",39.471157,-119.76768999999999
"89502","Reno","NV","Renown Health Medical Records","850 Harvard Way","89502",39.517742,-119.7853022
"89502","Reno","NV","Chest Pain Unit Renown ER","75 Pringle Way","89502",39.527512,-119.7907966375351
"89502","Reno","NV","Willow Springs Center","690 Edison Way","89502",39.5017714,-119.7573976
"89502","Reno","NV","Renown Health - Urgent Care - Ryland St","975 Ryland St","89502",39.52413450184533,-119.79966884698514
"89502","Reno","NV","Veterens Administration Hospital","1000 Locust St","89502",39.51620175698788,-119.79893395124122
"89502","Reno","NV","Veterans Hospital","927-999 Kirman Ave","89502",39.516226268469836,-119.79872478789558
"89502","Reno","NV","Sutter Health Care Center","670 Sierra Rose Dr","89511",39.47309112548828,-119.79943084716797
"89502","Reno","NV","M & M Enterprise","620 E Plumb Ln #100B","89502",39.50538635253906,-119.7929916381836
"89506","Reno","NV","Renown Urgent Care","not_available","89506",39.60500203420414,-119.84115587406761
"89506","Reno","NV","Carbon Health","280 Vista Knoll Pkwy Ste 106","89506",39.616983554774386,-119.85448425975804
"89506","Reno","NV","Saint Mary's Urgent Care","280 Vista Knoll Parkway","89506",39.61703872680664,-119.85443115234375
"89509","Reno","NV","ManorCare Health Services-Reno","3101 Plumas St","89509",39.49378366,-119.81390681
"89509","Reno","NV","VA Medical Center","not_available","89512",39.51599401075879,-119.79877814586877
"89509","Reno","NV","REHAB @ MANOR CARE","not_available","89509",39.49438747195278,-119.81337111351321
"89509","Reno","NV","Therapellet","960 Caughlin Crossing Suite 101","89519",39.5016064,-119.8590499
"89509","Reno","NV","Renovation Medical Spa","960 Caughlin Crossing Suite 100","89519",39.5016194,-119.8591145
"89511","Reno","NV","Renown South Meadows Medical Center","10101 Double R Blvd","89521",39.436063511586724,-119.75962068487296
"89511","Reno","NV","Pinion Animal Hospital","11115 S Virginia St","89511",39.432347,-119.765822
"89511","Reno","NV","Renown urgent care","South meadows parkway","89521",39.43581848862886,-119.75857090763405
"89511","Reno","NV","Saint Mary's Radiology","18653 Wedge Pkwy","89511",39.3905029296875,-119.77025604248047
"89511","Reno","NV","Renown SM Waiting Room","not_available","89521",39.43094143958259,-119.74995288184445
"89511","Reno","NV","Renown Health Intensive Cardiac Rehabilitation","10085 Double R Blvd","89521",39.4359707,-119.7600878
"89511","Reno","NV","Saint Mary's Urgent Care South Virginia at Virginia Street","8040 S Virginia St","89511",39.454591,-119.777855
"89511","Reno","NV","Leland Orthodontics","500 Damonte Ranch Pkwy. Suite 765","89521",39.4210657,-119.7520594
"89511","Reno","NV","Saint Mary's Urgent Care","18653 Wedge Parkway","89511",39.390809999999995,-119.770016
"89512","Reno","NV","West Hills Hospital","1240 E 9th St","89512",39.53775,-119.79722199999999
"89512","Reno","NV","Concentra","1530 E 6th St","89512",39.53432,-119.79449199999999
"89512","Reno","NV","West Hills Hospital","1240 East 9th Street","89512",39.537913,-119.79744
"89512","Reno","NV","Renown Car Seat Safety Station","1095 E 2nd St","89502",39.52788543701172,-119.79694366455078
"89523","Reno","NV","Saint Mary's Urgent Care","6255 Sharlands Ave","89523",39.5175275,-119.88259270000003
"89523","Reno","NV","St. Mary's Urgent Care","6180 Mae Anne Ave Ste 100","89523",39.52785873413086,-119.88525390625
"89523","Reno","NV","Saint Mary's Urgent Care Northwest Reno at Robb Dr.","1595 Robb Dr Ste 2","89523",39.5262336730957,-119.88250732421875
"89701","Carson City","NV","Neurotherapy / Neurofeedback Clinic","1800 E William St Suite 201","89701",39.17073,-119.76194
"89701","Carson City","NV","ormbey post acute rehab","not_available","89701",39.186877785047066,-119.7850210763205
"89701","Carson City","NV","Hometown Health - Carson City","911 Topsy Ln","89705",39.10810852050781,-119.7779541015625
"89701","Carson City","NV","Concentra Medical - Carson City","3488 Goni Rd Ste 141","89706",39.18999099731445,-119.74742126464844
"89701","Carson City","NV","Carson Tahoe Specialty Medical Center","not_available","89703",39.17127488836566,-119.77166995433646
"89701","Carson City","NV","Women's Health Institute","1470 Medical Pkwy","89703",39.2004280090332,-119.78609466552734
"89701","Carson City","NV","Renown Urgent Care – North Carson","2814 N Carson St","89706",39.18477,-119.7702
"89701","Carson City","NV","Med Direct Urgent Care","1201 S Carson St","89701",39.155818,-119.765801
"89701","Carson City","NV","ERD Healthcare Equipment Repairs & Diagnostics","3267 Research Way #210 Carson City, NV","89706",39.1884704,-119.7492092
"89703","Carson City","NV","1535 Medical Parkway","1535 Medical Pkwy","89703",39.203441999999995,-119.78815900000001
"89704","Washoe Valley","NV","St Mary Urgent Care","not_available","89704",39.232925,-119.811037
"89801","Elko","NV","NE NV Regional Hospital","2001 Errecart Blvd","89801",40.82352517832678,-115.73065266147779
"89801","Elko","NV","Pioneer Urgent Care","160 12th St","89801",40.83671039490773,-115.75432123379782
"89801","Elko","NV","NNRH","not_available","89801",40.823808789416475,-115.73042622638107
"89820","Battle Mountain","NV","Battle Mountain General Hospital","not_available","89820",40.64064407348633,-116.93900299072266
