"zip","city","state","name","address","postalCode","lat","lon"
"20105","Aldie","VA","StoneSprings Hospital Center","24440 Stone Springs Blvd","20166",38.9402348597176,-77.54346783568508
"20105","Aldie","VA","Dulles Urgent Care Center","42010 Village Center Plz Ste 100","20105",38.94039679999999,-77.55005369999999
"20105","Aldie","VA","HealthSouth Rehabilitation Hospital of Northern Virginia","24430 Millstream Dr","20105",38.939166626160976,-77.55268335342407
"20105","Aldie","VA","Inova Urgent Care - Dulles South","24801 Pinebrook Rd, #110","20152",38.93617449597666,-77.53713993576234
"20105","Aldie","VA","StoneSpring Emergency Center","24570 Gum Spring Rd","20166",38.93860935089376,-77.54027511983905
"20105","Aldie","VA","StoneSprings Hospital Center","not_available","not_available",38.93931016156489,-77.54558234144037
"20109","Manassas","VA","Prince William Medical Center","8700 Sudley Rd","20110",38.76738764807329,-77.48809962578864
"20109","Manassas","VA","prince william infusion center","not_available","20110",38.76724567947334,-77.4866347858498
"20109","Manassas","VA","INOVA Blood Mobile","9500 Innovation Dr","20110",38.75004577636719,-77.52384948730469
"20109","Manassas","VA","Prince William NICU","8680 Hospital Way","20110",38.766304999999996,-77.488764
"20109","Manassas","VA","Emergicare","not_available","20109",38.76704963472194,-77.48413666777714
"20109","Manassas","VA","Urgent Care | Kaiser Permanente Manassas Medical Center (Urgent Care | Manassas Medical Center | Kaiser Permanente)","10701 Rosemary Dr","20109",38.7907915,-77.5170797
"20109","Manassas","VA","Prince William County Hospital","8200 Sudley Rd","20109",38.77507019042969,-77.50587463378906
"20109","Manassas","VA","ExpressCare Urgent Care Center Manassas","10076 Dumfries Road, #80A","20110",38.738812,-77.47435899999999
"20109","Manassas","VA","Prince William Hospital Emergency","8700 Dudley Rd","not_available",38.76410132215259,-77.47786872787225
"20110","Manassas","VA","Patient First - Manassas","9715 Liberia Avenue","20110",38.7455433,-77.4498217
"20110","Manassas","VA","Its All About Work!","not_available","20111",38.7456,-77.449407
"20112","Manassas","VA","Easy Care Primary & Urgent Care","5808 Mapledale Plz","22193",38.660821999999996,-77.368204
"20112","Manassas","VA","NextCare Urgent Care","12581 Milstead Way Ste 103","22192",38.680995324771374,-77.36021654136668
"20112","Manassas","VA","Millennium Medical Care Manassas","6356 Hoadly Rd","20112",38.6734518,-77.3955332
"20115","Marshall","VA","Fauquier Hospital","550 Hospital Dr","20186",38.71200834774491,-77.80875350040047
"20115","Marshall","VA","Fauquier Counseling Center","54 E Lee St","20186",38.711808000000005,-77.794742
"20115","Marshall","VA","Drs. Yung & Jelinek D.D.S: Comprehensive Family Dentistry","60 Rock Pointe Ln","20186",38.7239002,-77.7915229
"20115","Marshall","VA","Fauquier Health","500 Hospital Dr","20186",38.712295631199524,-77.80879810918987
"20115","Marshall","VA","Piedmont Urgent Care","not_available","20186",38.725433,-77.790034
"20115","Marshall","VA","Emergicare","75 W Lee Hwy","20186",38.729008,-77.79312900000001
"20115","Marshall","VA","Piedmont Pediatrics","20 Rock Pointe","20186",38.722654999999996,-77.79185799999999
"20115","Marshall","VA","Oak Springs Nursing Facility","614 Hastings Ln","20186",38.73358673344726,-77.79804813626494
"20117","Middleburg","VA","PRIVATE ROOM'S","Sampul street","20118",38.9542055,-77.758797
"20120","Centreville","VA","Inova Urgent Care - Centreville","6201 Centreville Rd, #200","20121",38.829238000000004,-77.434141
"20120","Centreville","VA","Centreville Urgent Care","14001 St Germain Dr","20121",38.836628000000005,-77.43539
"20120","Centreville","VA","CareNow Urgent Care - Centreville","4995 Westone Plz","20151",38.870545,-77.444923
"20120","Centreville","VA","Home Care","not_available","20121",38.836447,-77.44124
"20120","Centreville","VA","Walk In Clinic","Astrid cove","not_available",38.835315,-77.463773
"20120","Centreville","VA","Centreville Foot & Ankle Clinic","5729 Centre Square Drive","20120",38.8397594,-77.4300872
"20124","Clifton","VA","Sentara Potomac Hospital","Opitz Blvd","22191",38.789556448980846,-77.35025678063597
"20132","Purcellville","VA","Inova Urgent Care","305 Hirst Rd","not_available",39.142860180177735,-77.71155891101778
"20136","Bristow","VA","Bristow Urgent Care","10390 Bristow Center Dr","20136",38.732339,-77.549988
"20147","Ashburn","VA","Nova Medical & Urgent Care Center","21785 Filigree Ct","20147",39.01263165625684,-77.45761686277557
"20147","Ashburn","VA","Reston Pediatric Associates Ltd","44160 Scholar Plaza Suite 450","20176",39.0692749,-77.4735135
"20147","Ashburn","VA","Inova Loudoun Hospital Emergency Room","44045 Riverside Parkway,","20176",39.07468661209607,-77.47866615572146
"20147","Ashburn","VA","Tamara Sheridan, LPC, RPT","not_available","20176",39.08508762164369,-77.48350381851195
"20147","Ashburn","VA","NOVA Urgent Care Inc.","not_available","20165",39.044021375716056,-77.47363949500591
"20147","Ashburn","VA","Act Fast Urgent Care","43150 Broadlands Center Plz Ste 184","20148",39.02646,-77.50851
"20147","Ashburn","VA","Virginia Infusion Therapies","19500 Sandridge Way Ste 170","20176",39.07620620727539,-77.4803466796875
"20147","Ashburn","VA","Visual Health Doctors of Optometry - Ashburn","19825 Belmont Chase Dr #165","20147",39.06705093383789,-77.4847412109375
"20147","Ashburn","VA","Inova Emergency Care Center - Leesburg","224 Cornwall St NW","20176",39.07469326900743,-77.47871474883246
"20147","Ashburn","VA","Inova Loudoun Hospital Radiation Oncology","44035 Riverside Pkwy","20176",39.074055,-77.47784899999999
"20147","Ashburn","VA","ExpressCare Urgent Care Center Ashburn","20070 Ashbrook Commons Plz","20147",39.060448,-77.4704661
"20147","Ashburn","VA","Inova Emergency Room - Ashburn HealthPlex","22505 Landmark Ct, # 210","20148",38.9951133728027,-77.4808807373047
"20147","Ashburn","VA","Lansdowne Podiatry","44135 Woodridge Parkway Ste 180","20176",39.0766692,-77.47146479999999
"20147","Ashburn","VA","PM Pediatrics","19800 Belmont Chase Dr Ste 110","20147",39.06856060850303,-77.48431016870897
"20147","Ashburn","VA","Innova","not_available","20147",39.04192226174278,-77.50406408144505
"20147","Ashburn","VA","Inova Loudoun Hospital Natural Birth Center","44055 Riverside Parkway, #110","20176",39.07631,-77.47641
"20147","Ashburn","VA","Inova Heart and Vascular Institute - Inova Loudoun Hospital","44035 Riverside Parkway, #120","20176",39.0756783613886,-77.475651852972
"20147","Ashburn","VA","Aesthetica Cosmetic Surgery & Laser Center","19500 Sandridge Way Suite 350","20176",39.0761058,-77.480325
"20148","Ashburn","VA","ABZ Performance","not_available","20148",38.97302060857797,-77.5255098938942
"20151","Chantilly","VA","Eye Street Optical","3910 Centreville Rd Ste 100","20151",38.896471000000005,-77.430413
"20151","Chantilly","VA","CareNow Urgent Care - Chantilly","3456 Historic Sully Way","20151",38.9142976,-77.4271033
"20151","Chantilly","VA","InfoQuest Systems, Inc.","25495 Feltre Ter","20152",38.91175079345703,-77.48464965820312
"20151","Chantilly","VA","Patient First - Chantilly","3918 Centreville Road","20151",38.8955952,-77.4311593
"20151","Chantilly","VA","Jeanie Schmidt Free Clinic","13525 Dulles Technology Dr","20171",38.95338439941406,-77.41191101074219
"20155","Gainesville","VA","Heathcote Health Center","15195 Heathcote Blvd","20169",38.82071120708908,-77.64147893173892
"20155","Gainesville","VA","Patient First - Gainesville","14800 Lee Highway","20155",38.791561,-77.63166899999999
"20155","Gainesville","VA","Advanced Urgent Care","7200 Heritage Village Plz","20155",38.803447,-77.603635
"20155","Gainesville","VA","Gainesville Urgent Care","7588 Gardner Park Dr","20155",38.794202,-77.621914
"20155","Gainesville","VA","VA Gateway Urgent Care Center","7516 Iron Bar Ln","20155",38.795331,-77.610745
"20155","Gainesville","VA","Archbold-Brooks Specialty Clinic","1309 W Screven St","31643",38.76564187472078,-77.6342225074768
"20155","Gainesville","VA","Atlas Walk Dental & Orthodontics","7502 Iron Bar Lane","20155",38.7955296,-77.6107977
"20164","Sterling","VA","Patient First - Sterling","47100 Community Plaza","20164",39.01500163275289,-77.37331592651539
"20164","Sterling","VA","CareNow Urgent Care - Sterling at Cascades","46200 Potomac Run Plz","20164",39.026223,-77.4017
"20164","Sterling","VA","CareNow Urgent Care - Sterling Park","101 Enterprise St","20164",38.99888356557392,-77.40313410758972
"20164","Sterling","VA","Dr. Matthew Han OD","8019L Tysons Corner Center","22102",39.015574278825866,-77.37493872642517
"20164","Sterling","VA","Urgent Care","not_available","20166",39.03345143976799,-77.40729578077205
"20164","Sterling","VA","Reston ER","not_available","20190",39.01096253569899,-77.425998044756
"20164","Sterling","VA","NOVA Urgent Care","21036 Triple Seven Rd.","20165",39.03361761497828,-77.40669370126345
"20170","Herndon","VA","Reston Hospital Center","1850 Town Center Pkwy","20190",38.9625842,-77.3647605
"20170","Herndon","VA","reston urgent care center","1800 Town Center Dr","20190",38.96371078491211,-77.36480712890625
"20170","Herndon","VA","AFC URGENT CARE and FAMILY CARE","334 Elden St","20170",38.968329,-77.373769
"20170","Herndon","VA","Urgent Health Care - Herndon","201 Elden St","20170",38.96604919433594,-77.36961364746094
"20170","Herndon","VA","Millennium Medical Care Herndon","1043 Sterling Rd Suite 104","20170",38.96869969999999,-77.3963852
"20170","Herndon","VA","Virginia Bariatric Surgery Center","1850A Town Center Pkwy Ste 301","20190",38.962880665034646,-77.36443785928357
"20170","Herndon","VA","1850 Town Center Drive, Reston","not_available","20170",38.96297558605858,-77.36480231653897
"20170","Herndon","VA","Inova Emergency Room - Reston/Herndon","11901 Baron Cameron Ave,","20190",38.96641,-77.35666
"20170","Herndon","VA","Urgent Care Reston","Dammit","not_available",38.959988360549175,-77.3543727800578
"20170","Herndon","VA","Inova Urgent Care - Reston","1488 Northpoint Village Center,","20194",38.979113,-77.35030400000001
"20171","Herndon","VA","Inova Fair Oaks Hospital","3600 Joseph Siewick Dr,","22033",38.88516633072033,-77.37992831712089
"20171","Herndon","VA","INOVA Fair Oaks Hospital Cardiac Diagnostic Services","3580 Joseph Siewick Dr Ste 301","22033",38.886204,-77.380435
"20171","Herndon","VA","Fair Oaks ER","3600 Joseph Siewick Dr","22033",38.88446548744757,-77.37962769906768
"20171","Herndon","VA","Insight Coaching & Counseling","12020 Sunrise Valley Dr Ste 100","20191",38.94888687133789,-77.3632583618164
"20171","Herndon","VA","Inova Fair Oaks Hospital Loading Dock","3600 Joseph Siewick Dr, Loading Dock","22033",38.88457107543945,-77.37989807128906
"20171","Herndon","VA","Fair Oaks Pre Surgical Testing","not_available","22033",38.885091613421146,-77.38008606230949
"20171","Herndon","VA","Inova fair oaks ambulance bay","3600 Joseph Siewick Dr, Chantilly, VA 22033","22033",38.88457107543945,-77.37989807128906
"20175","Leesburg","VA","Patient First - Leesburg","601 Potomac Station Drive","20176",39.09989549252682,-77.5270981622577
"20175","Leesburg","VA","Dr. Walter Atiga,MD","224D Cornwall Street NW Suite 306","20176",39.1194602,-77.5689644
"20175","Leesburg","VA","Nova Medical & Urgent Care Center","51 Catoctin Cir NE","20176",39.11174119638268,-77.55399917288692
"20175","Leesburg","VA","Inova Fairfax Hospital Surgery Center","Gallows Rd","not_available",39.09309483302172,-77.52612131747846
"20175","Leesburg","VA","Inova Emergency Room - Leesburg","224 Cornwall St Nw,","20176",39.11976624,-77.56763458
"20176","Leesburg","VA","North Spring Behavioral Healthcare","41984 Victory Lane","20176",39.1452749,-77.54867589999999
"20190","Reston","VA","Smile Wonders Pediatric Dentistry | Dr. Rishita Jaju","11790 Sunrise Valley Dr","20191",38.95051338,-77.35306624
"22003","Annandale","VA","Inova Fairfax Medical Campus","3300 Gallows Rd,","22042",38.85781,-77.22675
"22003","Annandale","VA","Labor and Delivery - Fairfax Hospital","not_available","22003",38.85692312672891,-77.22749627960972
"22003","Annandale","VA","Fairfax Emergency Room North Side","3300 Gallows Rd","22042",38.85758966950636,-77.22658498010479
"22003","Annandale","VA","Northern Virginia Pulmonary & Critical Care","3289 Woodburn Rd Suite 350","not_available",38.85420384480764,-77.22344776366798
"22003","Annandale","VA","Inova Rehabilitation Center","3300 Gallows Road","not_available",38.85759353637695,-77.22682189941406
"22003","Annandale","VA","PCC Versuna Room","3300 gallows rd","not_available",38.858489620690136,-77.22802292113138
"22003","Annandale","VA","Northern Virginia Mental Health Institute (NVMHI)","3302 Gallows Rd","22042",38.858069,-77.231995
"22003","Annandale","VA","NSICU","3300 Gallows Rd","22003",38.85759353637695,-77.22682189941406
"22025","Dumfries","VA","NextCare Urgent Care","3990 Fettler Park Dr Bldg. B","22025",38.58294484222306,-77.33039748095122
"22025","Dumfries","VA","Urgent Medical Care Center","not_available","22026",38.578908,-77.309014
"22025","Dumfries","VA","NexCare Urgent Care","Fettler Park Dr","22025",38.590367,-77.318127
"22026","Dumfries","VA","Prime Med Urgent Care","3928 Lansing Ct","22026",38.56414794921875,-77.32949829101562
"22030","Fairfax","VA","Inova Emergency Room - Fairfax City","4315 Chain Bridge Rd,","22030",38.8375,-77.312
"22030","Fairfax","VA","Patient First - Fairfax","10100 Fairfax Boulevard","22030",38.862522,-77.294302
"22030","Fairfax","VA","Urgent Care Fair Oaks Med Center open 365 days","12011 Lee Jackson Memorial Hwy Ste 102","22033",38.866201,-77.36119529999999
"22030","Fairfax","VA","Advanced Hearing Services Inc","3801 University Dr","22030",38.85055923461914,-77.30423736572266
"22030","Fairfax","VA","Fair Lakes Urgent Care Center","12713 Shoppes Ln","22033",38.860766999999996,-77.386438
"22030","Fairfax","VA","Manor Care","12468 Blissful Valley Dr","22033",38.872631,-77.378286
"22030","Fairfax","VA","ManorCare Health Services-Fair Oaks","12475 Lee Jackson Memorial Hwy","22033",38.872593,-77.379304
"22030","Fairfax","VA","Fairfax Surgical Center 1","not_available","22030",38.85277963252175,-77.32087979603418
"22030","Fairfax","VA","Children's National Medical Center","111 Michigan Ave.","22032",38.823175,-77.304946
"22030","Fairfax","VA","Inova Commonwealth Care Center","4315 Chain Bridge Rd","22030",38.8376579284668,-77.31013488769531
"22030","Fairfax","VA","Med First Urgent Care","9452 Main St","22031",38.842273999999996,-77.270412
"22030","Fairfax","VA","Fairlakes Urgent Care","12701 Shoppes Ln","22033",38.860796,-77.38645112
"22030","Fairfax","VA","Visual Health Doctors of Optometry - Fairfax","10690 Fairfax Blvd","22030",38.855591,-77.315838
"22030","Fairfax","VA","The Pediatric Group PC","10527 Braddock Road","22032",38.824457,-77.312275
"22030","Fairfax","VA","CareMed Family Practice","11213 Lee Hwy Ste H","22030",38.84799700505265,-77.35370635986328
"22030","Fairfax","VA","Care Advantage, Inc.","10680 Main St #110","22030",38.849028000000004,-77.316397
"22030","Fairfax","VA","CareMed Fairfax Primary And Urgent Care","11213 Lee Hwy","22030",38.85047144791477,-77.33406053538724
"22031","Fairfax","VA","Barbour Plastic Surgery","8316 Arlington Blvd","22031",38.866458,-77.2323
"22031","Fairfax","VA","Fairfax Urgent Care","8191 Strawberry Ln","22042",38.87185415747404,-77.22733078761355
"22031","Fairfax","VA","Pediatric Specialists of Virginia, LLC","3023 Hamaker Ct Suites 300, 400, 500","22031",38.868467,-77.235719
"22031","Fairfax","VA","Inova Center for Healthy Living","2740 Prosperity Ave, Suite 200","not_available",38.876601,-77.236455
"22031","Fairfax","VA","Children's National Northern Virginia","3023 Hamaker Ct Suite 300, Third Flo","22031",38.8684229,-77.2357554
"22041","Falls Church","VA","Falls Church Walk-in Medical Clinic & Urgent Care","3400 Payne St","22041",38.853026991516884,-77.13260650634764
"22041","Falls Church","VA","Arlington Urgent Care","601 S Carlin Springs Rd","22204",38.860856206782785,-77.12586355579549
"22042","Falls Church","VA","Fairfax ENT & Facial Plastic Surgery","8120 Gatehouse Rd Third Floor","22042",38.86895,-77.22574
"22043","Falls Church","VA","Patient First - Falls Church","502 West Broad Street, #2","22046",38.887284,-77.17817600000001
"22043","Falls Church","VA","Falls Church Urgent Care","920 W Broad St Ste B","22046",38.8903385,-77.18305853333334
"22043","Falls Church","VA","Falls Church Medical Facility","201 N Washington St","22046",38.883845,-77.169713
"22043","Falls Church","VA","Joyous Vibrations","7354 Dartford Dr Apt 5","22102",38.919939144208854,-77.20326125621796
"22060","Fort Belvoir","VA","Fort Belvoir Community Hospital","9300 Dewitt Loop","22060",38.705951796897175,-77.1429859448015
"22060","Fort Belvoir","VA","FBCH Oak Pavilion","not_available","22060",38.70581607671978,-77.14292197451456
"22060","Fort Belvoir","VA","Fort Belvoir ER","not_available","22309",38.70605748377911,-77.1442677204662
"22079","Lorton","VA","Inova Emergency Room - HealthPlex Lorton","9321 Sanger St,","22079",38.702569,-77.226884
"22079","Lorton","VA","Sentara Northern Virginia Medical Center","2300 Opitz Blvd","22191",38.63748483104863,-77.28708369528917
"22079","Lorton","VA","US Patient & Urgent Care","not_available","22192",38.6748389832924,-77.25758594771725
"22079","Lorton","VA","Patient First - Lake Ridge","2199 Old Bridge Road","22192",38.67742699916298,-77.27921639809418
"22079","Lorton","VA","Potomac Hospital ER","not_available","22191",38.63643031145964,-77.28616807463061
"22079","Lorton","VA","My Urgent Care","7598 Hayfield Rd","22315",38.752671,-77.13989699999999
"22079","Lorton","VA","Urgent Care | Kaiser Permanente Woodbridge Medical Center (Urgent Care | Woodbridge Medical Center | Kaiser Permanente)","14139 Potomac Mills Rd","22192",38.6383525,-77.2939287
"22079","Lorton","VA","MedStar Health Physical Therapy at Alexandria","6355 Walker Lane 512","22310",38.7674575,-77.1606335
"22079","Lorton","VA","Inova Fairfax Hospital Gastroenterology Surgery","not_available","22152",38.761007,-77.211787
"22079","Lorton","VA","Ft. Belvoir Emergency Room","not_available","22153",38.74768848183169,-77.20172036554375
"22079","Lorton","VA","INOVA Healthplex - Lorton","not_available","22079",38.70132216195742,-77.22856511585142
"22079","Lorton","VA","Fort Belvoir Community Hospital Pharmacy","not_available","22310",38.67017967627476,-77.25292775175231
"22079","Lorton","VA","Sentara Potomac Hospital: Century Surgical Services","2280 Opitz Blvd Ste 100","22191",38.63425827026367,-77.28186798095703
"22101","Mc Lean","VA","Special Delivery","not_available","22101",38.926031,-77.171444
"22101","Mc Lean","VA","McLean Medical Center and Urgent Care","6858 Old Dominion Dr","22101",38.93584,-77.182165
"22101","Mc Lean","VA","ST Jude's","1650 La Salle Ave","22102",38.9237548,-77.19866311
"22101","Mc Lean","VA","Providence Health System Rankin Orthopedics & Sports Medicine - Chevy Chase","5530 Wisconsin Ave","20815",38.92996980052971,-77.13395833969116
"22101","Mc Lean","VA","Old Dominion Urgent Care Center","6262 Old Dominion Dr","22101",38.92110850746576,-77.15259166300609
"22101","Mc Lean","VA","Mesbahi Plastic Surgery","7601 Lewinsville Rd Ste 400","22102",38.9346342,-77.2071903
"22102","Mc Lean","VA","NeuroGrow Brain Fitness Center","8280 Greensboro Dr.","22102",38.924415588378906,-77.23124694824219
"22102","Mc Lean","VA","Inova Urgent Care - Tysons","8357 Leesburg Pike,","22182",38.920744,-77.234941
"22102","Mc Lean","VA","Diagonstic Co Tutul","8300 Boone Blvd #550","22182",38.91734934773269,-77.23198771476746
"22102","Mc Lean","VA","Northern Virginia Foot and Ankle Associates LLC","8221 Old Courthouse Rd Suite 102","22182",38.912247,-77.22926899999999
"22102","Mc Lean","VA","Drs. Delgado & Kuzmik P.C. Tysons Corner","8230 Leesburg Pike Ste 720","22182",38.9181629,-77.2294684
"22124","Oakton","VA","Oakton Urgent Care","2915 Hunter Mill Rd Ste 11","22124",38.8822766,-77.30062099999999
"22150","Springfield","VA","Dominion Urgent Care","6379 Springfield Plaza","22150",38.782313,-77.189476
"22150","Springfield","VA","Inova Emergency Room - HealthPlex Franconia/Springfield","6355 Walker Lane,","22310",38.76833,-77.16061
"22150","Springfield","VA","INOVA Ambulance","not_available","22312",38.789419681335616,-77.17577701162263
"22150","Springfield","VA","Visual Health Doctors of Optometry - Springfield","6828 Springfield Mall","22150",38.772381,-77.173012
"22150","Springfield","VA","The Podiatry Center, Springfield","Premier Plaza I, 6120 Brandon Ave #109","22150",38.776903,-77.187169
"22150","Springfield","VA","Springfield Healthplex","not_available","22150",38.775432101282966,-77.17096956845305
"22151","Springfield","VA","MedStar Health Physical Therapy at The St. James","6805 Industrial Rd Suite 3100","22151",38.7981638,-77.1789023
"22152","Springfield","VA","INOVA Urgent Care","6230 Rolling Rd # J","22152",38.780793,-77.235864
"22152","Springfield","VA","Inova Urgent Care - West Springfield","6230 Rolling Rd, # J","22152",38.780771,-77.23598100000001
"22152","Springfield","VA","Barry H. Arons, DPM, Ari Changizi DPM, and Hufsa Hussan DPM.","6217 Old Keene Mill Ct","22152",38.7791716,-77.2375122
"22180","Vienna","VA","Urgent Care","Fern Street South","22202",38.90175975804951,-77.26548762205041
"22180","Vienna","VA","Vienna Diagnostic Imaging","not_available","22180",38.9020409,-77.26515008333334
"22180","Vienna","VA","Fairfax Radiological Consultants","2722 Merrilee Dr Ste 230","22031",38.87968444824219,-77.23146057128906
"22191","Woodbridge","VA","Velocity Urgent Care","16422 Navigation Dr","22191",38.598896,-77.295528
"22191","Woodbridge","VA","Visual Health Doctors of Optometry - Woodbridge","14901 Potomac Town Pl","22191",38.630167,-77.287965
"22191","Woodbridge","VA","LG Medical Supplies","3108 Ps Business Center Dr","22192",38.652369,-77.303054
"22191","Woodbridge","VA","Medic 520","not_available","22193",38.648799896240234,-77.30579376220703
"22191","Woodbridge","VA","Senior Helpers","2200 Opitz Boulevard","22191",38.63330095,-77.28022321
"22191","Woodbridge","VA","Two Percent Project","2200 Opitz Blvd","22191",38.633369,-77.279342
"22191","Woodbridge","VA","My Urgent Care","1780-1814 Shepherd Ln","22191",38.63607132384131,-77.2693933671347
"22191","Woodbridge","VA","Kaiser Permanente Woodbridge - Urgent Care","Potomac mills Rd","22192",38.62547422667746,-77.2947551003424
"22192","Woodbridge","VA","Millennium Medical Care Woodbridge","13168 Centerpointe Way #101","22193",38.6670579,-77.3346467
"22192","Woodbridge","VA","Sentara Lake Ridge Health Center","12825 Minnieville Rd","22192",38.67294087281134,-77.27820784987287
"22192","Woodbridge","VA","Family Care Of Lake Ridge Urgent Care","4167 Merchant Plaza","22192",38.6741623,-77.33321219999999
"22192","Woodbridge","VA","US Primary & Urgent Care","1346 Old Bridge Rd","22192",38.67594509225497,-77.25749015808105
"22192","Woodbridge","VA","Birthright of Woodbridge","4207 Dale Blvd","22193",38.64391052,-77.3378479
"22192","Woodbridge","VA","MedStar Health Physical Therapy at Lake Ridge","12825 Minnieville Road Suite 201","22192",38.67283630371094,-77.27783203125
"22201","Arlington","VA","MedStar Health Physical Therapy at Ballston-Marymount","4040 North Fairfax Drive Suite 120","22203",38.8820294,-77.108884
"22201","Arlington","VA","Visual Health Doctors of Optometry - Arlington","3012 Wilson Blvd","22201",38.88757468187045,-77.0948711190397
"22201","Arlington","VA","Ballston Urgent Care","3833 Fairfax Dr #100","22203",38.8827018737793,-77.10640716552734
"22201","Arlington","VA","Allcare Family Medicine & Urgent Care","1515 North Courthouse Road","22201",38.8911325,-77.0833755
"22201","Arlington","VA","Virginia Heart Excellence In Cardiovascular Care","1005 N Glebe Rd","22201",38.88305643,-77.1156758
"22201","Arlington","VA","Inova Urgent Care - North Arlington","4600 Lee Hwy,","22207",38.898153,-77.119863
"22201","Arlington","VA","Arlington Women's Center","not_available","22201",38.88485,-77.09992
"22201","Arlington","VA","Homework Mode","not_available","22203",38.880259392326145,-77.110185862712
"22202","Arlington","VA","Xpress care","1409 S Fern St","22202",38.860618591308594,-77.05603790283203
"22205","Arlington","VA","Virginia Hospital Center","1701 N George Mason Dr","22205",38.889643,-77.126661
"22205","Arlington","VA","Virginia Hospital Center Diagnostic Imaging","1625 N George Mason Dr","22205",38.88850634554822,-77.12698447610768
"22205","Arlington","VA","Cardiopulmonary Rehab.,Virginia Hospital Center","not_available","22205",38.88841273641452,-77.1267274880064
"22205","Arlington","VA","Virginia Hospital Center - Sterile Processing","1635 N George Mason Dr","22205",38.8852484633422,-77.1277556453206
"22205","Arlington","VA","Virginia Hospital - Rehab","1701 George Mason Dr","not_available",38.88919812072954,-77.12678929006196
"22205","Arlington","VA","OrthoBethesda (Arlington, VA)","Virginia Hospital Center, 1635 N. George Mason Drive Suite 180","22205",38.8891114,-77.127521
"22206","Arlington","VA","MedStar Medical Group at Alexandria","3610 C King St.","22302",38.8284462,-77.0903963
"22206","Arlington","VA","Dr. Deepal Dharia, DO","3610 King Street","22302",38.828468322753906,-77.0903091430664
"22206","Arlington","VA","Dr. Anvita Parhar, MD","3610 C. King Street","22302",38.828468322753906,-77.0903091430664
"22206","Arlington","VA","Beauregard Medical Center","4660 Kenmore Ave #900","22304",38.82870930944846,-77.11151361465454
"22206","Arlington","VA","MedStar Health Urgent Care in Alexandria","3610 D King Street","22302",38.8284182,-77.0904539
"22206","Arlington","VA","Dr. Gillian Adams, MD","3610 C King St","22302",38.828468322753906,-77.0903091430664
"22207","Arlington","VA","Urgent Care Center of Arlington","2439 N Harrison St","22207",38.8972889,-77.1380339
"22209","Arlington","VA","Ortho OIC Orthopaedic Immediate Care","1701 Clarendon Blvd Ste 120","22209",38.89348602294922,-77.07769012451172
"22209","Arlington","VA","Advantia Health Corporate Office","1001 19th St N Suite 1001","22209",38.89726638793945,-77.0692367553711
"22209","Arlington","VA","Ft Belvoir Family Medicine","DeWitt Loop","22301",38.897989713976884,-77.07028328644454
"22301","Alexandria","VA","NOVA Patient Care","526 N Henry St","22314",38.811074,-77.050763
"22302","Alexandria","VA","Inova Alexandria Hospital","4320 Seminary Rd,","22304",38.82205,-77.10567
"22302","Alexandria","VA","Inova Alexandria Hospital Pharmacy","not_available","22304",38.82268040058316,-77.10325725438665
"22302","Alexandria","VA","INOVA Alexandria Hospital CVICU","4320 Seminary Rd","22304",38.821990311357034,-77.10533157632992
"22302","Alexandria","VA","Inova Alexandria Hospital Loading Dock","4320 Seminary Rd Loading Dock","22304",38.82276835670075,-77.1049105216455
"22303","Alexandria","VA","Advanced Urgent Medical Care","6020 Richmond Hwy","22303",38.786677000000005,-77.069434
"22303","Alexandria","VA","Zicam","not_available","22303",38.786706,-77.069183
"22304","Alexandria","VA","Emergency Dental Care USA","5249 Duke St","22304",38.81255,-77.12247
"22304","Alexandria","VA","Hypnosis Plus","205 Yoakum Pkwy","22304",38.8100700378418,-77.14249420166016
"22304","Alexandria","VA","Drs. Delgado & Kuzmik P.C. Alexandria","3601 Eisenhower Ave Ste 250","22304",38.804399,-77.0923297
"22306","Alexandria","VA","Patient First","6311 Richmond Highway","22306",38.780695409077836,-77.07796396591134
"22306","Alexandria","VA","Inova Mount Vernon Hospital","2501 Parkers Lane,","22306",38.74023138742402,-77.0771317585698
"22306","Alexandria","VA","Emmavet Urgent Vet Care","1628A Belle View Blvd","22307",38.77607345581055,-77.06126403808594
"22306","Alexandria","VA","Doctors Express","7609 Richmond Hwy","22306",38.751845,-77.082531
"22306","Alexandria","VA","Inova Mt. Vernon Hospital Loading Dock","2501 Parkers Lane Loading Dock","22306",38.73983383178711,-77.0771484375
"22306","Alexandria","VA","JHH","1800 Orleans St","21287",38.775747,-77.133007
"22306","Alexandria","VA","Inova mt vernon cafe","not_available","22306",38.74374470102484,-77.0795519818772
"22306","Alexandria","VA","Breast Clinic at Mount Vernon. Hospital","2501 Parkers Ln","22306",38.739703999999996,-77.077054
"22306","Alexandria","VA","Senior Helpers","7910 Andrus Road","22306",38.74294151,-77.08034487
"22314","Alexandria","VA","AllCare Urgent Care","3117 Duke St","22314",38.808602,-77.083602
"22315","Alexandria","VA","Krankenhaus","not_available","22315",38.75967788696289,-77.14512634277344
"22401","Fredericksburg","VA","Mary Washington Hospital","1001 Sam Perry Blvd","22401",38.3108853,-77.4832459
"22401","Fredericksburg","VA","Women's Health and Surgery Center","2535 Cowan Blvd","22401",38.3078118,-77.4895043
"22401","Fredericksburg","VA","Pulmonary Associates of Fredricksburg","521 Park Hill Dr","22401",38.314593,-77.486391
"22401","Fredericksburg","VA","Patient First - Fredericksburg","3031 Plank Road","22401",38.2967016,-77.5130796
"22401","Fredericksburg","VA","Children's Heart Institute","1101 Sam Perry Blvd","22401",38.31007,-77.483779
"22401","Fredericksburg","VA","Urgent Care | Kaiser Permanente Fredericksburg Medical Center (Urgent Care | Fredericksburg Medical Center | Kaiser Permanente)","1201 Hospital Dr","22401",38.3101457,-77.4871809
"22401","Fredericksburg","VA","Fredericksburg Oncology Inc","111 Park Hill Dr","22401",38.312991,-77.485282
"22401","Fredericksburg","VA","MWH 4W","not_available","22401",38.31075272675915,-77.48270274576726
"22401","Fredericksburg","VA","Fredericksburg Foot and Ankle Center","1500 Dixon Street, Suite 201","22401",38.284419,-77.454257
"22401","Fredericksburg","VA","The Meadows Senior Living","not_available","22407",38.280004131443036,-77.5317315400276
"22401","Fredericksburg","VA","Mary Washington Orthopedics in affiliation with FOA","3310 Fall Hill Ave","22401",38.3144294,-77.4905433
"22405","Fredericksburg","VA","Mary Washington Hospital Free Standing ER","10401 Spotsylvania Ave","not_available",38.24287581549446,-77.49624896528624
"22405","Fredericksburg","VA","Rappahannock Wound Care","10401 Spotsylvania Ave Ste 201","22408",38.2429313659668,-77.4961929321289
"22405","Fredericksburg","VA","Mary Washington General Surgery","4548 Empire Ct","22408",38.2503136,-77.4919508
"22405","Fredericksburg","VA","Mary Washington Medical Group-Reese","10620 Spotsyvania Drive","22408",38.246985,-77.495646
"22405","Fredericksburg","VA","NextCare Urgent Care","330 White Oak Rd","22405",38.31087306922018,-77.42747750702955
"22405","Fredericksburg","VA","NextCare Urgent Care","15 S Gateway Dr Ste 101","22406",38.34451867396209,-77.49611145503941
"22406","Fredericksburg","VA","Primary And Urgent Care","1075 Garrisonville Rd Ste 115","22556",38.4742431640625,-77.46958923339844
"22406","Fredericksburg","VA","Mary Washington Urgent Care","10 Stafford Lakes Pkwy","22406",38.36294,-77.52768
"22406","Fredericksburg","VA","Nextcare Urgent Care","not_available","22406",38.415802,-77.548713
"22406","Fredericksburg","VA","Optimum Care","882 Garrisonville Rd","22554",38.46944971819177,-77.4587821215664
"22406","Fredericksburg","VA","Mountain View Rescue Squad","1268 Mountain View Rd","22406",38.42184829711914,-77.47705078125
"22406","Fredericksburg","VA","Garrisonville Urgent Care","9 Center St Ste 101","22556",38.474857,-77.432851
"22407","Fredericksburg","VA","NextCare Urgent Care","5825 Plank Rd Ste. 105","22407",38.29253673684233,-77.57078327988802
"22407","Fredericksburg","VA","Mary Washington Orthopedics in affiliation with FOA","4710 Spotsylvania Pkwy","22407",38.2188491,-77.50165319999999
"22407","Fredericksburg","VA","Primary & Urgent Care LLC","4510 Plank Rd #200","22407",38.235721000000005,-77.507166
"22407","Fredericksburg","VA","Oncology Of  Fredericksburg","4502","22408",38.24357984937057,-77.51305212239124
"22407","Fredericksburg","VA","Prime Care Urgent Care","9763 Courthouse Rd","22553",38.232321,-77.559762
"22407","Fredericksburg","VA","BetterMed Urgent Care","10004 Southpoint Pkwy","22407",38.23718,-77.50599
"22407","Fredericksburg","VA","BetterMed Urgent Care","4901 Plank Rd","22407",38.289856,-77.545144
"22408","Fredericksburg","VA","Room 3","not_available","22408",38.21765284217943,-77.49650909951174
"22427","Bowling Green","VA","Longstreet Medical","not_available","22427",38.130133,-77.323742
"22454","Dunnsville","VA","Riverside Tappahannock LZ/ First Med Staging Area","618 Hospital Rd","22560",37.901161193847656,-76.87883758544922
"22454","Dunnsville","VA","Riverside Tappahannock Hospice","659 Hospital Rd Ste 201","22560",37.89912796020508,-76.87923431396484
"22482","Kilmarnock","VA","Rappahannock General Hospital","101 Harris Rd","22482",37.70144783101254,-76.38741217511149
"22485","King George","VA","Gateway Urgent Care","not_available","22485",38.25997251257476,-77.17049660452324
"22485","King George","VA","Mary Washington Urgent Care","11131 Journal Pkwy","22485",38.26015,-77.17085
"22546","Ruther Glen","VA","PACS Urgent care","11073 Col. Armistead Dr Ste 105","22546",37.943928,-77.457644
"22554","Stafford","VA","Stafford Hospital","101 Hospital Center Blvd","22554",38.415361,-77.40731099999999
"22554","Stafford","VA","Patient First - Stafford","60 Prosperity Lane","22556",38.4698748,-77.4124016
"22554","Stafford","VA","Maeve Gleason, DO","125 Hospital Center Blvd Suite 221","22554",38.4151673,-77.4071697
"22554","Stafford","VA","Mary Washington Orthopedics in affiliation with FOA","90 Greenspring Dr","22554",38.46665790000001,-77.414568
"22554","Stafford","VA","Urgent Care of Stafford","422 Garrisonville Rd","22554",38.476126,-77.42822199999999
"22560","Tappahannock","VA","at the doctor","not_available","22560",37.91484451293945,-76.86493682861328
"22601","Winchester","VA","Winchester Medical Center","1840 Amherst St","22601",39.1939977,-78.19336340000001
"22601","Winchester","VA","Diagnostic Center at Winchester Medical Center","300 Campus Blvd","22601",39.19821685873351,-78.19016760921158
"22601","Winchester","VA","Central Monitoring Station","not_available","22601",39.189170837402344,-78.18384552001953
"22601","Winchester","VA","Blue Ridge Hospice","333 W Cork St","22601",39.183073,-78.172218
"22601","Winchester","VA","WMC SUPPORT SERVICES","AMHERST STREET","not_available",39.19538116455078,-78.1917953491211
"22601","Winchester","VA","Winchester Urgent Care PC","2505 Valley Ave","22601",39.1576402,-78.1867508
"22601","Winchester","VA","Valley Emergency Vet Clinic And Referral Center","164 Garber Ln","22602",39.157734000000005,-78.160253
"22601","Winchester","VA","Winchester Surgi Center","1860 Amherst St","22601",39.194972,-78.19331899999999
"22602","Winchester","VA","Winchester Medical Center Pediatric's Floor","not_available","22602",39.18613097607633,-78.12695307735291
"22602","Winchester","VA","MedExpress Urgent Care","207 Gateway Drive","22603",39.1856627,-78.1333945
"22602","Winchester","VA","WMC","not_available","22603",39.10648847475316,-78.19161840094056
"22611","Berryville","VA","Methodist Charlton Medical Center","3500 W Wheatland Rd","75237",39.23806381225586,-77.90347290039062
"22611","Berryville","VA","Rose Hill Rehab & Nursing Center","not_available","22611",39.15177890545286,-77.98242751898114
"22630","Front Royal","VA","Valley Health Urgent Care","not_available","22630",38.919832,-78.19013000000001
"22630","Front Royal","VA","Warren Memorial Hospital Outpatient Center","120 N Commerce Ave","22630",38.92024612426758,-78.19023132324219
"22630","Front Royal","VA","Warren Memorial Hospital","1000 N Shenandoah Ave","22630",38.93080399999999,-78.19779179999999
"22637","Gore","VA","Doctors Urgent Care- Capon Bridge","US50","26711",39.29873168128381,-78.43637466430664
"22652","Fort Valley","VA","Shenandoah Memorial Hospital","759 South Main Street","22664",38.870453999999995,-78.512553
"22701","Culpeper","VA","Culpeper Regional Hospital","501 Sunset Ln","22701",38.455169011364546,-78.01352120514449
"22701","Culpeper","VA","MedExpress Urgent Care","1420 South Main Street","22701",38.46529788157088,-77.99963861703878
"22701","Culpeper","VA","Medical Imaging Center, CRH","not_available","22701",38.455015,-78.013324
"22801","Harrisonburg","VA","BioLife Plasma Services","269 Lucy Dr","22801",38.424812124141624,-78.84768918403374
"22801","Harrisonburg","VA","Bridgewater Retirement Village Nursing Center","not_available","22812",38.382499967166545,-78.96980655288111
"22801","Harrisonburg","VA","RMH  Heart and Vascular Center","2010 Health Campus Dr","22801",38.40478515625,-78.85556030273438
"22801","Harrisonburg","VA","Rockingham Memorial Hospital","not_available","22801",38.40328480797474,-78.95129359467559
"22801","Harrisonburg","VA","Priority Patient Transport","not_available","22841",38.388327956199646,-78.91915082931519
"22801","Harrisonburg","VA","RMH Urology","2010 Campus Dr.","22801",38.40615463256836,-78.85816192626953
"22801","Harrisonburg","VA","RMH Hospital & Health Campus","Port & Reservoir","22801",38.44495918943064,-78.85433567825473
"22801","Harrisonburg","VA","Valley Urgent Care & Occupational Medicine","119 University Blvd Ste B","22801",38.43077638185685,-78.8475845767212
"22801","Harrisonburg","VA","MedExpress Urgent Care","1840 East Market Street","22802",38.43063,-78.841879
"22801","Harrisonburg","VA","Rockingham Memorial Hospital","235 Cantrell Ave","22801",38.43971633911133,-78.87041473388672
"22812","Bridgewater","VA","RMH Behavioral and Mental Health","2310 Health Campus Dr, Harrisonburg, VA 22801","22801",38.386828868140555,-78.97174490655654
"22815","Broadway","VA","Riverside Methodist Hospital 7 Blue","Thomas Ln, Broadway, VA 22815","22815",38.59336471557617,-78.76541900634766
"22815","Broadway","VA","Broadway Emergency Squad","not_available","22815",38.602209246825964,-78.80189025173433
"22827","Elkton","VA","East Rockingham Health Center","13737 Spotswood Trl","22827",38.400622999999996,-78.669296
"22835","Luray","VA","Page Memorial Hospital","200 Memorial Dr","22835",38.66241455078125,-78.46854400634766
"22840","Mc Gaheysville","VA","Ski Patrol","not_available","22840",38.392892,-78.769124
"22841","Mount Crawford","VA","Augusta Health Urgent Care Center","1140 Keezletown Rd","24486",38.285475969314575,-78.91234874725342
"22901","Charlottesville","VA","MedExpress Urgent Care","1149 Seminole Trail","22901",38.065306,-78.4880022
"22901","Charlottesville","VA","UVA Transitional Care","2965 Ivy Road","not_available",38.05147171020508,-78.5494155883789
"22901","Charlottesville","VA","Kluge Children's Rehabilitation Center","2270 Ivy Rd","22903",38.04557162134978,-78.52088866913311
"22901","Charlottesville","VA","Trinity Mission","not_available","22901",38.070691646281865,-78.49440399650092
"22901","Charlottesville","VA","Care Advantage, Inc.","674 Hillsdale Dr #1","22901",38.074526,-78.476346
"22901","Charlottesville","VA","2965 ivy road","not_available","22903",38.04767990112305,-78.52824401855469
"22901","Charlottesville","VA","Smithwick Sallie RN LAc","681 Berkmar Ct","22901",38.084106,-78.478813
"22901","Charlottesville","VA","Medical Transport","713 Harris St","22903",38.036495943899205,-78.48475749969973
"22902","Charlottesville","VA","University of Virginia Hospital","1215 Lee St","22908",38.0311525341848,-78.49887003024266
"22902","Charlottesville","VA","UVA West Complex","1300 Jefferson Park Ave","22903",38.03181040733347,-78.50074507207164
"22902","Charlottesville","VA","Emily Couric Clinical Cancer Center","1240 Lee St","22908",38.03239027333576,-78.49899436000314
"22902","Charlottesville","VA","MedExpress Urgent Care","260 Pantops Center","22911",38.0335066,-78.4564368
"22902","Charlottesville","VA","Martha Jefferson Hospital Room 3016","not_available","22911",38.023141,-78.444545
"22902","Charlottesville","VA","UVA Emergency Department","1215 Lee St Fl 1","22908",38.03115264450468,-78.49877286752013
"22903","Charlottesville","VA","4 West TCV","Lee St, University of Virginia, Charlottesville, VA 22903","22903",38.03104207332854,-78.49917044417562
"22911","Charlottesville","VA","Martha Jefferson Hospital","3263 Proffit Rd #10","22911",38.1322949161243,-78.43354225158691
"22911","Charlottesville","VA","First Med At Pantops","125 Riverbend Dr Ste 3","22911",38.03294210000001,-78.45461809999999
"22911","Charlottesville","VA","Martha Jefferson Hospital Emergency Department","500 Martha Jefferson Dr","22911",38.02205028689362,-78.44483101603343
"22920","Afton","VA","Waynesboro First Aid Crew","200 W. Broad St.","22980",38.069918,-78.886563
"22939","Fishersville","VA","Augusta Health","78 Medical Center Dr","22939",38.094358,-78.98659099999999
"22939","Fishersville","VA","Augusta Health Business office","not_available","22939",38.09545011003458,-78.98817241111507
"22939","Fishersville","VA","Western State Hospital","103 Valley Center Drive","24401",38.1443,-79.0305
"22939","Fishersville","VA","Senior Helpers","30 Ladd Rd","22939",38.080214,-78.990363
"22952","Lyndhurst","VA","Wintergreen Ski Patrol","not_available","22958",37.91503544971046,-78.94233960859577
"22952","Lyndhurst","VA","Stuarts Draft Urgent Care","Stuarts Draft Hwy","24477",38.033916,-79.040257
"22963","Palmyra","VA","LMVRS Medic 554","not_available","22963",37.905757904052734,-78.32585906982422
"22980","Waynesboro","VA","Hospital","not_available","22980",38.079457,-78.883918
"22980","Waynesboro","VA","Emergicare","Highway 250","22980",38.080292,-78.923292
"23005","Ashland","VA","BetterMed Urgent Care","300 N Washington Hwy","23005",37.76143201,-77.47188948
"23005","Ashland","VA","ExpressMed — Urgent Care","5310 Twin Hickory Rd","23059",37.681645,-77.587473
"23030","Charles City","VA","Chickahominy Animal Hospital","8250 Pocahontas Trl","23140",37.44647979736328,-77.05931091308594
"23059","Glen Allen","VA","Bon Secours Good Health Express","9851 Brook Rd","23059",37.667930603027344,-77.46039581298828
"23059","Glen Allen","VA","Retreat Hospital Wound Treatment Center","not_available","23220",37.67275681334668,-77.5520816705442
"23060","Glen Allen","VA","Patient First - Woodman","2300 E. Parham Road","23228",37.63987750007725,-77.4919407989058
"23060","Glen Allen","VA","VCU MCV Physicians at Mayland","3470 Mayland Ct","23233",37.63800652282832,-77.56801459147052
"23060","Glen Allen","VA","AFC Urgent Care Short Pump","4101 Dominion Blvd Ste 300","23060",37.647857,-77.585705
"23060","Glen Allen","VA","Concentra Urgent Care","9900 W Broad St Ste C","23060",37.6450539,-77.5676041
"23060","Glen Allen","VA","Patient First - Short Pump","3370 Pump Road","23233",37.64956627688646,-77.61363716894532
"23060","Glen Allen","VA","St Paul's church","not_available","23233",37.63759589319607,-77.62128953246268
"23060","Glen Allen","VA","The Little Clinic","9000 Staples Mill Rd","23228",37.6376579,-77.5141213
"23061","Gloucester","VA","Riverside Walter Reed Hospital","7519 Hospital Dr","23061",37.419860005489824,-76.54195064732288
"23061","Gloucester","VA","Riverside Employee Health","7544 Hospital Dr","23061",37.420401,-76.54284799999999
"23061","Gloucester","VA","M.D. Express Urgent Care","6567 George Washington Memorial Hwy","23061",37.38095,-76.534166
"23061","Gloucester","VA","Cryoex","3496 Hollow Pond Rd","23072",37.308602,-76.518467
"23061","Gloucester","VA","Sentara Urgent Care","5659 Parkway Dr Ste 100","23061",37.369191,-76.531598
"23075","Henrico","VA","Henrico health care","561 N Airport Dr","23075",37.541996002197266,-77.31039428710938
"23075","Henrico","VA","Room 4","The Hospital","23111",37.54505139226397,-77.33199097748302
"23089","Lanexa","VA","Cumberland Hospital for Children and Adolescents","9407 Cumberland Rd","23124",37.54611473176741,-76.97953748601776
"23089","Lanexa","VA","Alle Kiski Medical Center","not_available","23124",37.517645,-76.978856
"23103","Manakin Sabot","VA","West Creek Emergency Center","12720 Tuckahoe Creek Pkwy","23238",37.62600545894743,-77.66059398651129
"23111","Mechanicsville","VA","Memorial Regional Medical Center","8260 Atlee Rd","23116",37.628873934794456,-77.38625841986622
"23111","Mechanicsville","VA","Memorial Regional Outpatient Registration","MOB I","not_available",37.628200637610824,-77.38657144567227
"23111","Mechanicsville","VA","Bon Secours MRMC- Main Hospital","not_available","23116",37.62414674794479,-77.38363665631785
"23111","Mechanicsville","VA","MedExpress Urgent Care","4903 Nine Mile Rd","23223",37.544265,-77.367096
"23111","Mechanicsville","VA","Patient First - Mechanicsville","7238 Mechanicsville Turnpike","23111",37.61111742203823,-77.35278042020462
"23111","Mechanicsville","VA","Senior Helpers - Greater Richmond","9165 Atlee Rd","23116",37.64936258,-77.40068138
"23111","Mechanicsville","VA","MRMC ROOM 3120","not_available","23111",37.625655833790645,-77.38533903414175
"23111","Mechanicsville","VA","MRMC Room 3121","not_available","23294",37.635722,-77.392137
"23111","Mechanicsville","VA","VCUHS","E. Marshall Street","23228",37.6112622247157,-77.34002783527312
"23111","Mechanicsville","VA","Kid Med","8356 Bell Creek Rd","23116",37.63711929321289,-77.35543060302734
"23111","Mechanicsville","VA","MRMC Ambulance Port","8224 Meadowbridge Rd","23116",37.628122422313425,-77.38585005400282
"23111","Mechanicsville","VA","Memorial Regional Surgery Center","Meadowbridge Rd, Mechanicsville, VA","23116",37.62547865322551,-77.31219652106039
"23111","Mechanicsville","VA","BetterMed Urgent Care","6296 Mechanicsville Turnpike","23111",37.61746,-77.31988
"23111","Mechanicsville","VA","MRMC NICU","Atlee Road","23111",37.629593,-77.386373
"23111","Mechanicsville","VA","Richmond Gastroenterology Associates, Inc","8262 Atlee Rd Ste 202","23116",37.628710999999996,-77.386427
"23112","Midlothian","VA","Bon Secours St. Francis Medical Center","13710 St Francis Blvd","23114",37.46643706535362,-77.65890529258941
"23112","Midlothian","VA","Swift Creek ER","14720 Hancock Village St","23832",37.402432,-77.678315
"23112","Midlothian","VA","Commonwealth Ear Nose & Throat Specialists: Dr. Patrick Gibbons & Dr. Matthew Bridges","1 Park West Circle Suite 200","23114",37.4686581,-77.65508899999999
"23112","Midlothian","VA","MedExpress Urgent Care","11603 Midlothian Tpke","23113",37.504641,-77.612447
"23112","Midlothian","VA","Patient First","11020 Hull Street Road","23112",37.43824593691257,-77.59866546619513
"23112","Midlothian","VA","American Family Care (Afc)","not_available","23114",37.501737,-77.628253
"23112","Midlothian","VA","Peds Care After Hours","13204 Hull Street Rd","23112",37.4185859,-77.6403873
"23112","Midlothian","VA","Emergency Physicians Immediate Care Center","6100 Harbourside Centre Loop","23112",37.409921999999995,-77.65022900000001
"23112","Midlothian","VA","AFC Urgent Care Midlothian","12731 Stone Village Way","23113",37.501582,-77.62832
"23112","Midlothian","VA","iMedical Equipment and Service","11351 International Drive","23236",37.50223159790039,-77.60599517822266
"23112","Midlothian","VA","St. Francis Hospital (Watkins Centre)","not_available","23113",37.41044636197014,-77.60453848348803
"23113","Midlothian","VA","Johnston-Willis Hospital","1401 Johnston Willis Dr","23235",37.5110146,-77.5942395
"23113","Midlothian","VA","The Surgery Center","not_available","23235",37.509676,-77.594505
"23113","Midlothian","VA","Bon Secours St. Francis Watkins Centre","601 Watkins Centre Pkwy","23114",37.51023434425228,-77.69581650769392
"23113","Midlothian","VA","Children's Hospital Therapy Center - South","2925 Polo Pkwy","23113",37.526663,-77.609565
"23113","Midlothian","VA","Hagan Jackson, MD","9900 Kingsbridge Rd","23238",37.582679748535156,-77.61283874511719
"23116","Mechanicsville","VA","HDH Outpatient Surgery","East Parham St.","23227",37.64324,-77.43808
"23116","Mechanicsville","VA","MRMC Administration","8260 Atlee Rd Ste 1203","23116",37.62911904221787,-77.38651929149064
"23116","Mechanicsville","VA","Hanover Emergency Center","9275 Chamberlayne Rd","23116",37.65195615477212,-77.3990142345429
"23141","Quinton","VA","VCU Health Emergency Center at New Kent","2495 Pocahontas Trl","23141",37.506341,-77.186581
"23150","Sandston","VA","Henrico Volunteer Rescue Squad","5301 Huntsman Rd","23150",37.5167216555252,-77.34036281227506
"23185","Williamsburg","VA","Riverside Doctors' Hospital","1500 Commonwealth Ave","23185",37.25093471178085,-76.66807499274817
"23185","Williamsburg","VA","Eastern State Hospital","4601 Ironbound Rd","23188",37.29192981034957,-76.73587024211884
"23185","Williamsburg","VA","M.D. Express Urgent Care","120 Monticello Ave","23185",37.28239433054043,-76.72065794115872
"23185","Williamsburg","VA","Hampton Roads Medical Center","120 Kings Way","23185",37.243473,-76.741051
"23185","Williamsburg","VA","Newport News Behavioral Health Center","17579 Warwick Blvd","23603",37.20417022705078,-76.58448028564453
"23185","Williamsburg","VA","Sentara princess anne Hospital","not_available","23188",37.2647819519043,-76.76048278808594
"23185","Williamsburg","VA","Riverside Urgent Care","5231 John Tyler Hwy","23185",37.25886535644531,-76.74132537841797
"23185","Williamsburg","VA","JENNIFER DEAN","5239 Monticello Avenue, Suites B,C","23188-8213",37.274832,-76.747902
"23185","Williamsburg","VA","Red Cross Of Williamsburg","1317 Jamestown Rd #105, Williamsburg, VA 23185","23185",37.25152587890625,-76.73680877685547
"23185","Williamsburg","VA","Urgent Care","not_available","23185",37.243471862706976,-76.74056502072366
"23185","Williamsburg","VA","Sentara Urgent Care","4374 New Town Ave","23188",37.2814457286692,-76.73788667174573
"23188","Williamsburg","VA","Sentara Williamsburg Regional Medical Center","100 Sentara Cir","23188",37.3367458444369,-76.74258289789297
"23219","Richmond","VA","Gateway Building — VCU Medical","1200 E Marshall St","23298",37.54037276661169,-77.43025964183737
"23219","Richmond","VA","MCV Nelson Clinic","401 N 11th St","23219",37.54069817665713,-77.43085205554962
"23219","Richmond","VA","VCU Medical Center Emergency Department","not_available","23219",37.5404630323146,-77.42952908231695
"23219","Richmond","VA","VCU Health West Hospital","1200 E Broad St","23298",37.5394668,-77.4303639
"23219","Richmond","VA","VCU Critical Care Hospital","1213 E Clay St","23298",37.54038415957976,-77.42920490992792
"23219","Richmond","VA","Virginia Commonwealth University - North Hospital","1300 E Marshall St","23298",37.53979207799619,-77.4296462298849
"23219","Richmond","VA","VCU PICU","not_available","23223",37.5513886,-77.4233023
"23219","Richmond","VA","Pulmonary Disease Division","Gateway Bldg., 7th Fl.","23219",37.540401,-77.430463
"23219","Richmond","VA","VCU Hospital Hospitality House","612 E Marshall St","23219",37.54282998000212,-77.43501377488697
"23220","Richmond","VA","Retreat Hospital","2621 Grove Ave","23220",37.55382537841797,-77.4727783203125
"23220","Richmond","VA","Children's Hospital of Richmond","2924 Brook Rd","23220",37.570900343901734,-77.45019943444673
"23220","Richmond","VA","Children's Hospital of Richmond at VCU Virginia Treatment Center for Children","1308 Sherwood Ave","23220",37.5710169,-77.450982
"23220","Richmond","VA","AT Home Care: Hospice","2922 W Marshall St","23230",37.56478500366211,-77.47102355957031
"23220","Richmond","VA","Retreat Hospital","2526 Floyd Ave","23220",37.55310189554207,-77.47250233688214
"23221","Richmond","VA","Patient First","12 N. Thompson Street","23221",37.5581277,-77.4884119
"23221","Richmond","VA","Amazing Face Skin Care","6740 Forest Hill Ave","23225",37.5376117,-77.51744529999999
"23221","Richmond","VA","Prevent A Litter","3421 W Cary St","23221",37.55473407581766,-77.48526268031151
"23221","Richmond","VA","Post 65","Thompson and Cary","not_available",37.5569440496739,-77.48731811806185
"23222","Richmond","VA","RIR Informs Medical","RIR Infield","not_available",37.5922605504753,-77.41641470421719
"23223","Richmond","VA","Bon Secours Richmond Community Hospital","1500 N 28th St","23223",37.53970690310093,-77.40713998426817
"23223","Richmond","VA","Gumenick Suites at MCV","417 N 11th St","23298",37.53968936382856,-77.42969666481427
"23223","Richmond","VA","VCU Medical Center Ambulance Tunnel","401 N 12th St","23298",37.54018020629883,-77.42940521240234
"23224","Richmond","VA","Hunter Holmes McGuire VA Medical Center","1201 Broad Rock Blvd","23224",37.49754590841049,-77.46814453543068
"23224","Richmond","VA","Hunter Holmes Mcguire Veterans Hospital Bldg 514-Ptrp","1201 Broad Rock Blvd, Richmond, VA 23224","23224",37.49725504304276,-77.46682758113049
"23224","Richmond","VA","SCI Dining Room","not_available","23224",37.497205096947084,-77.46756144986296
"23224","Richmond","VA","Diana Lemus Herbalife Independent Distributor","5739 Hull Street Rd Suite #14 & #15","23224",37.485233306884766,-77.4980239868164
"23224","Richmond","VA","chippenham  women's center","not_available","23225",37.52082916722886,-77.50706017377496
"23224","Richmond","VA","Bldg 507","Broad Rock Blvd, Richmond, VA","23224",37.493419726993245,-77.46564553841047
"23225","Richmond","VA","Forest View Vol. Rescue St.3","8008 Midlothian Tpke","23235",37.49959945678711,-77.54387664794922
"23225","Richmond","VA","Daniel's Office (CPRP, ADC) - CJW Medical Center","7101 Jahnke Rd, Richmond, VA 23225","23225",37.513007373596196,-77.52745950945086
"23226","Richmond","VA","Bon Secours St. Mary's Hospital","5801 Bremo Rd","23226",37.58382521364506,-77.5134385082722
"23226","Richmond","VA","Encompass Health Rehabilitation Hospital of Richmond","5700 Fitzhugh Ave","23226",37.585551207805224,-77.5069972872734
"23226","Richmond","VA","BetterMed Urgent Care","1380 N Parham Rd","23229",37.60053253173828,-77.56421661376953
"23226","Richmond","VA","St. Marys South Building","Libbie Ave","23226",37.58379515431449,-77.51338251039958
"23226","Richmond","VA","St. Marys North building","not_available","23226",37.58407233496458,-77.51295564681332
"23226","Richmond","VA","Henrico Doctors' Hospital Emergency Department","1602 Skipwith Rd Frnt Entrance","23229",37.60404883929378,-77.54022654153232
"23226","Richmond","VA","Crtical Care Classroom","Skipwith","23229",37.60398395586397,-77.53963689294831
"23226","Richmond","VA","St. Mary's Medical Office Building","Bremo Road","23226",37.583780822532084,-77.51323131600611
"23226","Richmond","VA","Virginia Physicians For Women","7605 Forest Avenue #206","23229",37.6040769,-77.541371
"23226","Richmond","VA","Henrico Doctor's Women's Pavillion","7100 Forest Ave","23226",37.603723882330655,-77.52642367185213
"23226","Richmond","VA","St Mary’s Outpatient Infusion Center","G6 South Building","23226",37.583531,-77.513367
"23227","Richmond","VA","Va Blood Mobile @ Allianz","not_available","23227",37.60628890991211,-77.45143127441406
"23227","Richmond","VA","Commonwealth Medical Management","2108 W Laburnum Ave","23227",37.585343,-77.47238
"23228","Henrico","VA","Parham Doctors' Hospital","7700 East Parham Road","23294",37.6318311,-77.5250805
"23228","Henrico","VA","Vibra Hospital of Richmond","2220 Edward Holland Drive","23230",37.5906307,-77.4907207
"23228","Henrico","VA","MedExpress Urgent Care","8040 W Broad St","23294",37.62624975803837,-77.53059267997742
"23228","Henrico","VA","HDH Parham EMS Room","not_available","23228",37.63104268764003,-77.52668683148661
"23228","Henrico","VA","Parham Surgery Center","7640 E Parham Rd","23294",37.631816,-77.52401
"23228","Henrico","VA","Pediatric Round Table At St. Mary's Hospital","Libbie And Monument","23226",37.59176938023468,-77.51102497501064
"23228","Henrico","VA","HDH Radiology","Parham Rd","23228",37.63165490077859,-77.52599813583672
"23229","Henrico","VA","The Cancer Center - Radiation Therapy","Henrico Doctors","not_available",37.60434413652344,-77.54148998041879
"23229","Henrico","VA","Patient First - Parham","2205 N. Parham Road","23229",37.6201504938257,-77.55798802916063
"23229","Henrico","VA","Virginia Transplant Services","1602 Skipwith Rd","23229",37.60429382324219,-77.53987121582031
"23229","Henrico","VA","Richmond Urgent Care","not_available","23229",37.608726865421616,-77.56501204494307
"23229","Henrico","VA","Henrico Doctor's Hospital Education Center","8002 Discovery Dr Rm 313","23229",37.60419466790454,-77.5447138269376
"23229","Henrico","VA","Henrico Emergency Room","1602 Skipwith Road Front Entrance","23229",37.60429382324219,-77.53987121582031
"23231","Henrico","VA","Concentra Urgent Care","9211 Burge Ave","23237",37.4001647480732,-77.42217987183608
"23234","Richmond","VA","Reservoir Community Residences","not_available","23234",37.460435312631965,-77.48613068569959
"23235","Richmond","VA","Patient First - Midlothian","8110 Midlothian Turnpike","23235",37.4977728,-77.5463796
"23235","Richmond","VA","LHH-IVCU - CJW Medical Center","7101 Jahnke Rd","23225",37.512902441434306,-77.52743711306195
"23237","Richmond","VA","Eagle Medical Transports","7435 Whitepine Rd","23237",37.396759033203125,-77.52100372314453
"23237","Richmond","VA","RSUD meuraxa","Jl. Iskandar muda","23237",37.4046006,-77.46084943333334
"23237","Richmond","VA","Snowflake Residential Facility","not_available","23237",37.40903854370117,-77.47075653076172
"23237","Richmond","VA","The Little Clinic","10800 Iron Bridge Rd","23831",37.3679473,-77.5017351
"23314","Carrollton","VA","Sentara St. Luke's","20209 Sentara Way","23314",36.94127655029297,-76.57757568359375
"23314","Carrollton","VA","Tidewater Medical Sales","321 Center Ave​","23601",37.02363808618423,-76.45489677786827
"23320","Chesapeake","VA","Chesapeake Regional Medical Center","736 N Battlefield Blvd","23320",36.746035,-76.246286
"23320","Chesapeake","VA","Patient First - Battlefield","705 N. Battlefield Boulevard","23320",36.7440295,-76.2433822
"23320","Chesapeake","VA","Patient First - Cedar Road","1239 Cedar Road","23322",36.716823447441904,-76.28440906110389
"23320","Chesapeake","VA","CRMC IT DEPT200 Medical Parkway","200 Medical Pkwy","23320",36.744911193847656,-76.24710083007812
"23320","Chesapeake","VA","Urgent Care Center - Princess Anne","2088 S Independence Blvd","23453",36.789254,-76.111589
"23320","Chesapeake","VA","SPA room 509","not_available","23453",36.79312,-76.10542
"23320","Chesapeake","VA","The Sleep Center at Chesapeake Regional","800 North Battlefield Boulevard","23320",36.74783894,-76.24703405
"23320","Chesapeake","VA","Sentara ER","Concert dr","not_available",36.781793330542435,-76.11308268575586
"23320","Chesapeake","VA","3B SPAH","not_available","23456",36.77537247800014,-76.09965061850112
"23320","Chesapeake","VA","Emergency Room","Medical dr","not_available",36.745635,-76.246864
"23320","Chesapeake","VA","Sentara Urgent Care","not_available","23464",36.7967257197401,-76.19268001039022
"23320","Chesapeake","VA","Children's Hospital of the King's Daughters (CHKD)","500 Discovery Dr","23320",36.735116526548055,-76.22397865978694
"23320","Chesapeake","VA","Children's Orthopedics-Sports","2021 Concert Dr","23456",36.776801423814014,-76.10134407065051
"23320","Chesapeake","VA","Medical & Scientific Instruments","1385 Fordham Dr Ste 105","23464",36.7994746,-76.1772319
"23320","Chesapeake","VA","Pitt County Memorial hospital","Stantsonburg","27858",36.775402,-76.229652
"23320","Chesapeake","VA","Patient First - Indian River","5486 Indian River Road","23464",36.80109549935524,-76.18117446442082
"23320","Chesapeake","VA","Sentara Chesapeake Nursing Center","776 Oak Grove Rd","23320",36.749210357666016,-76.23895263671875
"23320","Chesapeake","VA","Create regional medical center","not_available","23320",36.743482433577846,-76.2431170956725
"23321","Chesapeake","VA","Sentara BelleHarbour","3920 Bridge Rd","23435",36.86444758328792,-76.44963693652329
"23321","Chesapeake","VA","Maryview Hospital","3434-3456 Cedar Ln","23703",36.84851547070436,-76.3737474017493
"23321","Chesapeake","VA","Shared Hospital Services","Elmhurst Lane","23701",36.80261825468344,-76.37800344489459
"23321","Chesapeake","VA","Patient First - Taylor Road","2425 Taylor Road","23321",36.8264764,-76.4093147
"23322","Chesapeake","VA","Drug & Alcohol Rehab Chesapeake","516 Albemarle Dr #D","23322",36.71486282348633,-76.25593566894531
"23324","Chesapeake","VA","US Navy Department Dispensary","1 Norfolk Naval Shipyard","23709",36.81675720214844,-76.30494689941406
"23350","Exmore","VA","Shore Memorial Hospital","9507 Hospital Ave","23413",37.475167,-75.864265
"23417","Onancock","VA","Riverside Shore Memorial Hospital","20480 Market St","23417",37.697373,-75.723258
"23430","Smithfield","VA","Mary Immaculate Occ Health","14702 Warwick Blvd","23608",37.13270672632387,-76.54268448449636
"23430","Smithfield","VA","Mary Immaculate Hosp.","14703 Warwick Blvd","23608",37.132612,-76.543012
"23430","Smithfield","VA","McDonald Army Hospital GYN","not_available","23604",37.153682708740234,-76.57371520996094
"23433","Suffolk","VA","Bon Secours Surgical Center","not_available","23435",36.893668451091976,-76.43765832258424
"23434","Suffolk","VA","Sentara Obici Hospital","2800 Godwin Blvd","23434",36.77330831140342,-76.58056737660172
"23434","Suffolk","VA","1Foot 2Foot Centre for Foot and Ankle Care, PC - Podiatrist Suffolk","171 N Main St","23434",36.72963,-76.583054
"23434","Suffolk","VA","Lakeview Cardiology","2098 Meade Pkwy","23434",36.76073133945465,-76.59455001354218
"23435","Suffolk","VA","AFC Urgent Care Suffolk","1013 University Blvd Ste 270","23435",36.873146057128906,-76.41993713378906
"23435","Suffolk","VA","1Foot 2Foot Centre for Foot and Ankle Care, PC","5839 Harbour View Blvd #101","23435",36.872082,-76.442226
"23435","Suffolk","VA","Meridian Harbourview","7190 Harbour Towne Pkwy","23435",36.868482781851206,-76.44178510150769
"23435","Suffolk","VA","Bon Secours Health Center at Harbour View","5818 Harbour View Blvd","23435",36.868561,-76.44159599999999
"23451","Virginia Beach","VA","Sentara Virginia Beach General Hospital","1060 First Colonial Rd","23454",36.86483302520561,-76.02717370926098
"23451","Virginia Beach","VA","First Diagnostic Center","1080 First Colonial Rd","23454",36.864748,-76.026426
"23451","Virginia Beach","VA","Sentara Health Education Center","not_available","23454",36.8638766,-76.02565864
"23451","Virginia Beach","VA","15th Street Medical Unit; M*A*S*H*","not_available","23451",36.844027,-75.973586
"23451","Virginia Beach","VA","Alcohol & Drug Rehab Virginia Beach","780 Lynnhaven Pkwy #201","23452",36.815847084553994,-76.06646060943604
"23451","Virginia Beach","VA","Patient First - Holland Road","3432 Holland Road","23452",36.8080826,-76.0913818
"23451","Virginia Beach","VA","Restorative Therapy Co.","1004 First Colonial Road Suite 101","23454",36.8619438,-76.02699659999999
"23451","Virginia Beach","VA","Drug & Alcohol Rehab Virginia Beach","633 10th St","23451",36.83748,-75.980784
"23452","Virginia Beach","VA","Sentara Independence","800 Independence Blvd","23455",36.86750124594695,-76.13149420051892
"23452","Virginia Beach","VA","Shenouda Teresa A MD / Signature Ophthalmology","828 Healthy Way Suite 200","23462",36.84829,-76.12637
"23452","Virginia Beach","VA","1622 Truck","not_available","23452",36.831727414542456,-76.09379983497648
"23452","Virginia Beach","VA","CHKD Urgent Care","3960 Virginia Beach Blvd","23452",36.841472780209216,-76.11098527908325
"23452","Virginia Beach","VA","Sentara Hospice House","3760 Sentara Way","23452",36.834925,-76.103607
"23452","Virginia Beach","VA","Sentara Bayside Hoapit","not_available","23455",36.87205685437041,-76.1332099072517
"23453","Virginia Beach","VA","Sentara Princess Anne Hospital","2025 Glenn Mitchell Dr","23456",36.77564997438741,-76.09832560279102
"23453","Virginia Beach","VA","DR. MUSCOSCO","1975 Glenn Mitchell Dr","23456",36.77581024169922,-76.09751892089844
"23453","Virginia Beach","VA","Drug & Alcohol Rehab Virginia Beach","3352 Princess Anne Rd #938","23456",36.776123046875,-76.0856704711914
"23454","Virginia Beach","VA","Patient First - General Booth","1605 General Booth Blvd","23454",36.78534608244308,-75.99778532981873
"23462","Virginia Beach","VA","Patient First - Newtown Road","332 Newtown Road","23462",36.848985,-76.1794095
"23462","Virginia Beach","VA","Sentara Leigh Hospital","830 Kempsville Rd","23502",36.850376478578994,-76.19009907986826
"23462","Virginia Beach","VA","Sentara Leigh Hospital-Wound Therapy Clinic","830 Kempsville Rd, Norfolk, VA 23502","23502",36.850772857666016,-76.18965148925781
"23462","Virginia Beach","VA","Sentara Leigh Emergency Department","not_available","23502",36.85086845610971,-76.19057546141572
"23462","Virginia Beach","VA","Ambulatory Surgery Center","870 Kempsville Rd.","23502",36.851652084444076,-76.1903938261515
"23462","Virginia Beach","VA","Sentara Leigh Hospital Registration","Sentara Leigh Hospital","23502",36.8502,-76.19007
"23462","Virginia Beach","VA","Weigh Memorial Hospital","6320 N Center Dr","23502",36.848468,-76.18969200000001
"23502","Norfolk","VA","Lake Taylor Regional Care Hospital","1309 Kempsville Rd","23502",36.86658617957388,-76.20619558940268
"23502","Norfolk","VA","Sentara Medical Group Administration","Glen Rock Road","not_available",36.85114,-76.201245
"23503","Norfolk","VA","BHC NAVSTA Norfolk","not_available","23505",36.943283,-76.316898
"23504","Norfolk","VA","Norfolk HealthCare","not_available","23504",36.856404,-76.274558
"23504","Norfolk","VA","Drug & Alcohol Rehab Norfolk","720 Church St #2","23510",36.85336685180664,-76.27959442138672
"23504","Norfolk","VA","waiting rm 3rd floor/Sentara Norfolk General","Norfolk, VA","23510",36.85076904296875,-76.28587341308594
"23505","Norfolk","VA","Bon Secours DePaul Medical Center","150 Kingsley Ln","23505",36.89887613156184,-76.28105878829956
"23505","Norfolk","VA","A little piece of Texas","not_available","23511",36.923500002096944,-76.31432369787758
"23505","Norfolk","VA","Province Place of DePaul","6403 Granby St","23505",36.900552000000005,-76.279823
"23505","Norfolk","VA","DePaul Emergency Department","Granby St.","not_available",36.89954994455342,-76.28031874837806
"23507","Norfolk","VA","Sentara Norfolk General Hospital","600 Gresham Dr","23507",36.86316284069176,-76.30281013781386
"23507","Norfolk","VA","Children's Hospital of The King's Daughters","601 Childrens Ln","23507",36.86219871286688,-76.30159689747582
"23507","Norfolk","VA","Lions Eye Clinic Sentara Norfolk General Hospital","not_available","23507",36.86199983846535,-76.30339262578484
"23507","Norfolk","VA","EVMS Department Of Pain Medicine","300 Fairfax Dr","23507",36.860467,-76.302188
"23507","Norfolk","VA","5rp D-Zone","600 Gresham Dr, Norfolk, VA 23507","23507",36.8645797383123,-76.30014649556568
"23507","Norfolk","VA","Depaul Memorial Chapel","not_available","23508",36.87501907348633,-76.2899169921875
"23507","Norfolk","VA","Hospital for Extended Recovery","not_available","23517",36.861688391316335,-76.30353400596391
"23510","Norfolk","VA","Naval Medical Center Portsmouth","620 John Paul Jones Cir","23708",36.84507892496095,-76.30584239959717
"23510","Norfolk","VA","Navy and Marine Corps Public Health Center","Downtown Portsmouth, VA","23708",36.844071844727225,-76.30469331776665
"23510","Norfolk","VA","Newborn Clinic","not_available","23704",36.845902239117514,-76.30658212609288
"23510","Norfolk","VA","Nmcp Med Records","not_available","23708",36.84542087436051,-76.30594875622937
"23518","Norfolk","VA","Sentara Urgent Care","1326 E Little Creek Rd","23518",36.916074096205,-76.23611591731631
"23523","Norfolk","VA","NMCP Command Orientation","not_available","23523",36.832285,-76.278677
"23601","Newport News","VA","Riverside Regional Medical Center","500 J Clyde Morris Blvd","23601",37.064938744633515,-76.48315110177441
"23601","Newport News","VA","Riverside Emergency Room","not_available","23606",37.062864932649276,-76.48309136727555
"23601","Newport News","VA","Sentara Urgent Care","747 J Clyde Morris Blvd","23601",37.07904815673828,-76.46363830566406
"23601","Newport News","VA","Sentara Port Warwick Emergency Room","1031 Loftis Blvd","23606",37.0847197824028,-76.4851777935008
"23601","Newport News","VA","RAI","739 thimble shoals blvd","23601",37.082426,-76.46576
"23601","Newport News","VA","Women's Executive Healthcare P.C. a Division of Mid-Atlantic Women's Care","11747 Jefferson Avenue, Suite 1","23606",37.08282000000001,-76.4813952
"23601","Newport News","VA","Childrens Hospital Of The Kings Daughters","11783 Rock Landing Dr","23606",37.087576272009436,-76.4649058836023
"23601","Newport News","VA","Riverside Pavillion","not_available","23601",37.063107,-76.483364
"23601","Newport News","VA","Riverside Regional Med Center; Ct Dept","500 J. Clyde","23601",37.064234,-76.483063
"23601","Newport News","VA","Riverside Regional Medical Center Employee Health","500 J Clyde Morris Blvd, Annex Bldg","23606",37.06429672241211,-76.48340606689453
"23601","Newport News","VA","Port Warrick Walk-In Emergency","11803 Jefferson Ave","23606",37.08482360839844,-76.48320007324219
"23601","Newport News","VA","Med Point Urgent Care","730 Thimble Shoals Blvd","23606",37.083479,-76.468549
"23602","Newport News","VA","M.D. Expess Urgent Care","12997 Warwick Blvd","23602",37.10374232972582,-76.51202740571009
"23602","Newport News","VA","Patient First - Denbigh","611 Denbigh Blvd","23608",37.1400153,-76.5192503
"23602","Newport News","VA","mary immaculate surgical pavillion","not_available","23608",37.143888900786195,-76.51040863987211
"23602","Newport News","VA","MIH 3A","not_available","23602",37.144767,-76.511659
"23602","Newport News","VA","Peninsula Kidney Associates","716 Denbigh Blvd Ste A5","23608",37.144837,-76.513846
"23602","Newport News","VA","St. Francis Nursing Center","4 Ridgewood Pkwy","23602",37.145975635306044,-76.5090868864895
"23602","Newport News","VA","Mary Immaculate 3 B","2 Bernadine Drive","23602",37.14406396425817,-76.51248081397058
"23602","Newport News","VA","Bon Secours Mary Immaculate Hospital","2 Bernardine Dr","23602",37.144482011554146,-76.51183149868106
"23604","Fort Eustis","VA","Mcdonald Army Health Center -Radiology","576 Jefferson Ave","23604",37.16141664554023,-76.57323097819858
"23607","Newport News","VA","Riverside Rehabilitation Institute","245 Chesapeake Ave","23607",36.98644260678293,-76.39272722178364
"23662","Poquoson","VA","Poquoson Veterinary Hospital","483 Wythe Creek Road","23662",37.126857,-76.392248
"23665","Hampton","VA","NASA 1192C Langley Clinic","not_available","23665",37.092099,-76.382945
"23665","Hampton","VA","Langley AFB Hospital","77 Nealy Ave","23665",37.07421853506545,-76.35712321354454
"23665","Hampton","VA","Langley Hospital Logistics","not_available","23669",37.073817612976946,-76.35880211983579
"23665","Hampton","VA","O.R. 2","LAFB Hospital","23665",37.0747403989874,-76.35723627187728
"23665","Hampton","VA","Sentara Vascular Specialists","not_available","23666",37.07576259345449,-76.39604912200384
"23666","Hampton","VA","Sentara CarePlex Hospital","3000 Coliseum Dr","23666",37.05716134010675,-76.39074249173281
"23666","Hampton","VA","1Foot 2Foot Centre For Foot And Ankle Care Of Hampton, VA","2240 Coliseum Dr Suite A","23666",37.053319,-76.391708
"23666","Hampton","VA","Patient First - Hampton","2304 West Mercury Boulevard","23666",37.0386266,-76.4058597
"23701","Portsmouth","VA","Bon Secours Maryview Medical Center","3636 High St","23707",36.836673827462086,-76.3479821273333
"23701","Portsmouth","VA","Sentera Nurshing Center","4201 Greenwood Dr","23701",36.79910329785883,-76.3645170247019
"23701","Portsmouth","VA","Maryview 5th Floor","not_available","23707",36.83685915569791,-76.34815737982572
"23701","Portsmouth","VA","Martha Davis Cancer Center","3640 High St","23707",36.836991999999995,-76.349042
"23701","Portsmouth","VA","Autumn Care Nursing Home","3610 Winchester Dr","23707",36.824782,-76.346386
"23702","Portsmouth","VA","AUTUM SIMMONS, FNP-C","49 Prospect Pkwy","23702",36.8,-76.31905
"23704","Portsmouth","VA","Developmental Pediatrics","Naval Medical Center Portsmouth","23708",36.84444662955116,-76.3054115204994
"23801","Fort Lee","VA","Kenner Army Health Clinic","Fort Lee, Va","23801",37.23846225548477,-77.34669021100805
"23801","Fort Lee","VA","Kenner Army Health Clinic Lab/X-ray Dept.","0000","23801",37.23802641830451,-77.34803049135192
"23801","Fort Lee","VA","Kenner Army Health Clinic Pharmacy","not_available","23834",37.24137754367175,-77.34725660751431
"23803","Petersburg","VA","Patient First - Colonial Heights","1260 Temple Avenue","23834",37.254506235789734,-77.38455878974528
"23803","Petersburg","VA","Southside Regional Medical Center - Same Day Surgery","not_available","23805",37.183166014047536,-77.36102872678502
"23803","Petersburg","VA","Hiram W. Davis Medical Center","not_available","23803",37.204995624410195,-77.4555892795431
"23803","Petersburg","VA","Poplar Spings Hospital","350 Poplar Drive","23805",37.1873426,-77.3591622
"23803","Petersburg","VA","Encompass Health Rehabilitation Hospital of Petersburg","95 Medical Park Blvd","23805",37.184514172276565,-77.36405400562944
"23803","Petersburg","VA","BetterMed Urgent Care","4600 Puddledock Rd","23875",37.25078733725214,-77.36725256099324
"23803","Petersburg","VA","Southside Regional Urgent Care Center","60 E Roslyn Ct","23834",37.241596,-77.393593
"23803","Petersburg","VA","Seattle Grace Mercy West","3111 Dale Ave","23834",37.27142333984375,-77.40924072265625
"23803","Petersburg","VA","Central State Hospital","26317 Washington St","23803",37.20756589116825,-77.45324500221011
"23803","Petersburg","VA","Kim Brandveen","112 S Adams St","23803",37.225441974119995,-77.40216851234436
"23803","Petersburg","VA","TriCities Emergency Center","1700 Temple Pkwy","23875",37.25094659494952,-77.371112635582
"23831","Chester","VA","BetterMed Urgent Care","11380 Iron Creek Road","23831",37.3596225,-77.49726319999999
"23831","Chester","VA","Patient First","12101 S. Chalkley Road","23831",37.35178387735547,-77.48014584363396
"23833","Church Road","VA","Frimley Park Childrens Centre","Church Road","23833",37.210779,-77.670034
"23836","Chester","VA","John Randolph Medical Center","411 W Randolph Rd","23860",37.307845831620874,-77.2912897468268
"23836","Chester","VA","John Randolph Hospital-Main ER","not_available","23860",37.307688029138774,-77.29166387903965
"23836","Chester","VA","LifeStar Ambulance Service - Hopewell","Randolph Street","23830",37.3079835773305,-77.29004788358876
"23836","Chester","VA","Hopewell Healthcare Center","4700-4998 Old Woodlawn St","23860",37.264367,-77.32495899999999
"23837","Courtland","VA","Care Advantage Inc.","177 Commerce Park Rd","23851",36.667110443115234,-76.94960021972656
"23837","Courtland","VA","MedExpress Urgent Care","1330 Armory Dr","23851",36.671584,-76.948106
"23838","Chesterfield","VA","Mental Ward","not_available","23838",37.349251288334926,-77.64667990412289
"23851","Franklin","VA","Southampton Memorial Hospital - Emergency Room","100 Fairview Dr","23851",36.69200897216797,-76.93710327148438
"23901","Farmville","VA","Southside Community Hospital","Oak St","23901",37.302490531959734,-78.40356038327587
"23901","Farmville","VA","Southside Emergency Room","800 Oak St","23901",37.30263137817383,-78.40412902832031
"23901","Farmville","VA","CSCH Admission Unit","not_available","23901",37.29811096191406,-78.39702606201172
"23917","Boydton","VA","Vcu Health - Community Memorial Hospital","1755 N Mecklenburg Ave","23950",36.748035,-78.10399
"23917","Boydton","VA","Helipad - CMH","Tunstall Drive","23970",36.74572764106062,-78.10184955596924
"23917","Boydton","VA","Vcu Community Memorial Hospital","not_available","23970",36.73372268676758,-78.13361358642578
"23921","Buckingham","VA","Felasfa M Wodajo","Facial Plastic Surgery Ctr 8503 Arlington Blvd Ste 400","22031",37.67521019642458,-78.64041030406952
"23921","Buckingham","VA","CareClix","1934 Old Gallows Rd Ste 350","22182",37.65338320128765,-78.607177734375
"23922","Burkeville","VA","peidmont geriatric","not_available","23922",37.191885298668545,-78.19891414362817
"23927","Clarksville","VA","Mecklenburg County Life Saving & Rescue Squad","Burlington Dr.","23927",36.60123434217058,-78.55444267815452
"23936","Dillwyn","VA","Asylum","Old Virginia","not_available",37.43732452392578,-78.65234375
"23936","Dillwyn","VA","Medic 5 South","not_available","23936",37.537094299586414,-78.47822193501898
"24012","Roanoke","VA","LewisGale Physicians - Urgent Care","4910 Valley View Blvd NW","24012",37.304676964723775,-79.96801099399818
"24012","Roanoke","VA","Carilion Warehouse","5568 Airport Rd NW","24012",37.323347,-79.96344599999999
"24012","Roanoke","VA","MedExpress Urgent Care","5610 Williamson Road","24012",37.32648541403027,-79.95358362793922
"24012","Roanoke","VA","Our Lady of the Valley","650 N Jefferson St","24016",37.277933000000004,-79.941037
"24012","Roanoke","VA","Carilion Roanoke Memorial Pediatric Emergency Department","1906 Belleview Ave SE","24014",37.324165836522624,-79.9414445150621
"24013","Roanoke","VA","Carilion Roanoke Community Hospital","101 Elm Ave SE","24013",37.26601370760348,-79.93954837155209
"24013","Roanoke","VA","9west Orthopedics Rmh","not_available","24016",37.26372394604918,-79.94131883535208
"24013","Roanoke","VA","Transport Rmh Holding Area","not_available","24014",37.26229652837131,-79.9414117290682
"24013","Roanoke","VA","carilion roanoke community hospital outpatient surgery","not_available","24013",37.26456069946289,-79.93973541259766
"24013","Roanoke","VA","Carilion Urgent Care","Elm Avenue","not_available",37.26663743333333,-79.93957579135895
"24014","Roanoke","VA","Carilion Clinic Talent Development Center","4420 Electric Rd","24018",37.231008,-79.97754
"24014","Roanoke","VA","Carilion Clinic Imaging - Crystal Spring","2001 Crystal Spring Ave SW","24014",37.25035539677065,-79.94618196197253
"24014","Roanoke","VA","Lewis Gale Emergency","not_available","24018",37.226903,-79.980598
"24014","Roanoke","VA","CCPT Ambulance #205","1850-2030 S Jefferson St","24016",37.25270976666667,-79.94275564
"24014","Roanoke","VA","Enviromental Services Office","1906 Belleview Ave SE Fl 3","24014",37.251543,-79.942362
"24014","Roanoke","VA","Roanoke memorial hospital 12th Floor","not_available","24015",37.256298492058285,-79.94307833485823
"24014","Roanoke","VA","roanoke memorial hospital 9th floor","9Th Floor","24016",37.25121737300472,-79.94224230379236
"24014","Roanoke","VA","Carilion Mohs Surgery Center","1 Riverside Cir","24016",37.257182,-79.942125
"24014","Roanoke","VA","AFC Urgent Care Roanoke","602 Brandon Ave. SW, Suite 222","24015",37.256248474121094,-79.9537124633789
"24014","Roanoke","VA","Carilion Clinic Patient Transport - Roanoke Division","531 McClanahan St","24014",37.251795077493995,-79.94904506956377
"24014","Roanoke","VA","Ashleigh K. McClendon, D.O.","1906 Belleview Ave, 14 S","24014",37.251305613138086,-79.94216680526733
"24014","Roanoke","VA","CCPT Ambulance 109","432 McClanahan St SW, Roanoke, VA 24014","24014",37.25217819213867,-79.94989013671875
"24016","Roanoke","VA","Allergy & Asthma of Virginia","1315 2nd St SW Suite 101","24016",37.2609922,-79.9445706
"24017","Roanoke","VA","VA EKG Department","not_available","24153",37.27532186833877,-80.01875239743148
"24018","Roanoke","VA","Lewis-Gale Ctr For Behavioral Health","1900 Braeburn Dr","24153",37.264530181884766,-80.02532958984375
"24018","Roanoke","VA","LGMC ER","1900 Electric Rd","24153",37.2635094545276,-80.03084431423899
"24018","Roanoke","VA","LewisGale Medical Center Cave Spring ER","2706 Ogden Rd","24018",37.227032,-79.980471
"24018","Roanoke","VA","VelocityCare - Roanoke","4035 Electric Rd Ste A","24018",37.223616,-79.982715
"24055","Bassett","VA","Sovah Health - Martinsville","320 Hospital Dr","24112",36.69931411743164,-79.86677551269531
"24055","Bassett","VA","Martinsville Memorial Hospital (ER)","300-398 Hospital Dr","24112",36.69931811774108,-79.86657854630263
"24055","Bassett","VA","Golden Living Center","1607 Spruce Street Ext","24112",36.670053323616706,-79.8422461261075
"24055","Bassett","VA","Kings Mountain Animal Clinic","5086 Kings Mountain Rd","24078",36.7300505,-79.9172765
"24055","Bassett","VA","MLC Cancer Foundation","245 John Spencer Rd","24112",36.646124,-79.94108100000001
"24055","Bassett","VA","Martinsville Urgent Care","1044 E Church St","24112",36.693,-79.845697
"24055","Bassett","VA","MedExpress Urgent Care","105 W. Commonwealth Blvd.","24112",36.6951221,-79.8748181
"24060","Blacksburg","VA","New River Women's Health","3708 S Main St Suite D","24060",37.1865725,-80.40913460000002
"24060","Blacksburg","VA","VelocityCare - Blacksburg","215 Gilbert St","24060",37.23325410425504,-80.42097330093384
"24060","Blacksburg","VA","Kroontje Healthcare","1000 Litton Ln","24060",37.196313,-80.423253
"24060","Blacksburg","VA","MTI LLC","not_available","24060",37.18949579283858,-80.40449637192677
"24073","Christiansburg","VA","Carilion New River Valley Medical Center","2900 Lamb Cir","24073",37.08890470438498,-80.50540924072266
"24073","Christiansburg","VA","MedExpress Urgent Care","100 Spradlin Farm Drive","24073",37.16022463063819,-80.42304396629333
"24073","Christiansburg","VA","The Berkshire, Vinton Va","not_available","24073",37.123897552490234,-80.49888610839844
"24083","Daleville","VA","VelocityCare - Daleville","46 Wesley Rd","24083",37.39658,-79.906806
"24084","Dublin","VA","Alliance Xpress Urgent Care","5275 Alexander Road","24084",37.081764221191406,-80.69357299804688
"24084","Dublin","VA","LewisGale Hospital Pulaski","2400 Lee Hwy N","24301",37.068220508478554,-80.75695216655731
"24085","Eagle Rock","VA","LewisGale Hospital - Alleghany, Senior Transitions","1 ARH Lane.","24457",37.79228675485302,-79.88120555877686
"24085","Eagle Rock","VA","Alliance Xpress Urgent Care","919 South Craig Ave Suite A","24426",37.782078141903185,-79.99089717864989
"24085","Eagle Rock","VA","LewisGale Hospital - Alleghany Morgue","1 ARH Lane","24457",37.79572244603537,-79.88091161067858
"24092","Glade Hill","VA","Ward 7A Hospital Tung Shin","Level 7","not_available",37.059364318847656,-79.74639892578125
"24112","Martinsville","VA","Clinica IMSS No. 2","not_available","24148",36.603615,-79.837983
"24124","Narrows","VA","Carilion Giles Community Hospital","159 Hartley Way","24134",37.333104,-80.7131
"24124","Narrows","VA","MedExpress Urgent Care","277 Greasy Ridge Rd.","24740",37.3614535,-81.045584
"24151","Rocky Mount","VA","Carilion Urgent Care ~ Westlake","Westlake Towne Center","24104",37.01781338593879,-79.88910244750171
"24151","Rocky Mount","VA","Carilion Franklin Memorial Hospital","390 S Main St","24151",36.994351684686094,-79.88986764689679
"24151","Rocky Mount","VA","Franklin Memorial ER","180 Floyd Ave","not_available",36.993804,-79.890383
"24153","Salem","VA","VelocityCare - Salem","1935 W Main St","24153",37.28952107622727,-80.09127885103226
"24153","Salem","VA","CCPT","431 McClanahan St SW","24014",37.251787869115965,-79.9489901356103
"24153","Salem","VA","MedExpress Urgent Care","1336 West Main Street","24153",37.28929050840979,-80.07873400124481
"24171","Stuart","VA","Pioneer Community Hospital","657-685 State Route 835","24171",36.646286334586335,-80.2546826951935
"24201","Bristol","VA","HealthSouth rehabilitation Hospital","North st","24201",36.597113464965325,-82.21670436806198
"24201","Bristol","VA","Rehabilitation Hospital of Bristol, a joint venture of Ballad Health and Encompass Health","103 North St","24201",36.597115,-82.216707
"24201","Bristol","VA","Bristol Regional Medical Center","not_available","24201",36.597115,-82.216707
"24201","Bristol","VA","Bristol Life Saving Crew","1601 Euclid Ave, Bristol, VA 24201","24201",36.600569,-82.19891700000001
"24201","Bristol","VA","Ballad Health Medical Associates Urgent Care - Bristol","410 Stagecoach Road","24201",36.62958526611328,-82.12080383300781
"24202","Bristol","VA","MBM Bristol Humane Society Spay/Neuter Clinic","16222 Lee Hwy","24202",36.659828000000005,-82.07423299999999
"24210","Abingdon","VA","JMH","not_available","24210",36.707842556137464,-81.94905696964396
"24210","Abingdon","VA","Urgent Care","610 Campus Dr","24210",36.711469177683355,-81.99315212505662
"24210","Abingdon","VA","Johnston Memorial Hospital","16000 Johnston Memorial Dr","24211",36.72279221333019,-81.91162505485033
"24210","Abingdon","VA","Johnston Memorial Hospital / Radiology Dept.","351 Court St","24210",36.71477330983697,-81.97115318282692
"24210","Abingdon","VA","Johnston Memorial Hospital / Outpatient Laboratory","352 Court St","24210",36.71477118333333,-81.97091383333333
"24210","Abingdon","VA","Wellmont Urgent Care","24530 Falcon Place Blvd","24211",36.711382,-81.929746
"24210","Abingdon","VA","Johnston Memorial Cancer Treatment Center","not_available","24211",36.722023010253906,-81.91224670410156
"24210","Abingdon","VA","Johnston Memorial Hospital / Respiratory","350 Court St","24210",36.704153,-81.983986
"24210","Abingdon","VA","The Vein Company","26108 Lee Highway","24211",36.720054626464844,-81.90836334228516
"24216","Appalachia","VA","Norton Community Hospital","not_available","24273",36.862799234137164,-82.7538799883098
"24216","Appalachia","VA","Lonesome Pine Hospital","1990 Holton Avenue East","24219",36.877083,-82.7545
"24216","Appalachia","VA","Heritage Hall","not_available","24219",36.876015,-82.753012
"24228","Clintwood","VA","Dickenson Community Hospital","312 Hospital Drive","24228",37.160711,-82.448998
"24230","Coeburn","VA","Mt. View Regional Medical Center","310 3rd St NE","24273",36.944529905951406,-82.6252871012167
"24230","Coeburn","VA","Friendship Ambulance And Home Medical Equipment","not_available","24293",36.97439254547307,-82.59731769561766
"24230","Coeburn","VA","Ballad Health Medical Associates Urgent Care - Norton","601 Commonwealth Dr","24273",36.9558843,-82.6055825
"24230","Coeburn","VA","Ballad Health Medical Associates Urgent Care - Norton","1014 Park Ave NW","24273",36.932430267333984,-82.63423156738281
"24236","Damascus","VA","Damascus Rescue Squad","not_available","24236",36.63854,-81.80342900000001
"24263","Jonesville","VA","Stone Mountain Health Services","276 Fieldstone Dr","24263",36.72214889526367,-83.11284637451172
"24266","Lebanon","VA","Russell County Medical Center","58 Carroll Street","24266",36.8987894,-82.0784537
"24266","Lebanon","VA","Ballad Health Medical Associates Urgent Care - Lebanon","344 Overlook Drive","24266",36.89936828613281,-82.06184387207031
"24273","Norton","VA","Norton Community Hospital","100 15th Street Northwest","24273",36.93169456,-82.64329476
"24277","Pennington Gap","VA","Third Floor","not_available","24277",36.74894913343319,-83.05091234192733
"24277","Pennington Gap","VA","Lee Regional Medical Center","1800 Combs Rd","24277",36.74773025512695,-83.05139923095703
"24311","Atkins","VA","smyth county community hospital","245 Medical Park Drive","24354",36.85189773,-81.48821049
"24311","Atkins","VA","MedExpress Urgent Care","1583 N Main St","24354",36.848056,-81.492215
"24311","Atkins","VA","Ballad Health Medical Associates Urgent Care - Marion","245 Medical Park Dr","24354",36.8519401550293,-81.48845672607422
"24314","Bastian","VA","MedExpress Urgent Care - Bluefield","4003 College Aveune Suite B","24605",37.238219370417156,-81.25566104303083
"24314","Bastian","VA","MedExpress Urgent Care","4003 College Avenue","24605",37.2379216,-81.2554507
"24315","Bland","VA","BRMC Emergency Room","500 Cherry St","24701",37.255693,-81.235555
"24333","Galax","VA","Twin County Regional Healthcare","200 Hospital Dr","24333",36.67071142159143,-80.92384921494107
"24333","Galax","VA","Twin County Urgent Care","961 E Stuart Dr","24333",36.67955017089844,-80.89598846435547
"24333","Galax","VA","Galax Hospital","not_available","24333",36.67462706565857,-80.91478407382965
"24333","Galax","VA","Joy Ranch","not_available","24381",36.727115,-80.792139
"24382","Wytheville","VA","Wythe County Community Hospital","600 W Ridge Rd","24382",36.954534,-81.09721400000001
"24401","Staunton","VA","Dejarnette Asylum","Frontier Road","24401",38.13340500177737,-79.04321036667206
"24401","Staunton","VA","MedExpress Urgent Care","1209 Richmond Avenue","24401",38.13354601147559,-79.04089763760567
"24401","Staunton","VA","Western State Hospital","2500 Richmond Ave","24401",38.13870064274863,-79.03939719884231
"24401","Staunton","VA","Staunton VA Medical Clinic","Middlebrook Avenue","24401",38.14142552045483,-79.0817141532898
"24401","Staunton","VA","Hotel California","not_available","24401",38.13877629874627,-79.03944978273204
"24415","Brownsburg","VA","RSCM Langsa","Jl. Garuda","24415",37.928989,-79.3188416
"24416","Buena Vista","VA","Carilion Stonewall Jackson Hospital","1 Health Cir","24450",37.77896779397847,-79.44111866522877
"24416","Buena Vista","VA","Carilion Stonewall jackson","not_available","24450",37.77928113043919,-79.44099270520428
"24445","Hot Springs","VA","Bath Community Hospital","106 Park Dr","24445",37.992915999999994,-79.831818
"24450","Lexington","VA","VelocityCare - Lexington","110 Houston St Ste D","24450",37.778372,-79.444903
"24482","Verona","VA","Synergy Rehab and Wellness","1561 Commerce Rd Ste 402","24482",38.189903259277344,-79.02230072021484
"24501","Lynchburg","VA","Centra Health Hospital","1920 Atherholt Rd","24501",37.41452,-79.170199
"24501","Lynchburg","VA","Lynchburg General Hospital","1901 Tate Springs Rd","24501",37.41646555946671,-79.17153316005334
"24501","Lynchburg","VA","Lynchburg Health And Rehab","5615 Seminole Ave","24502",37.36834980921964,-79.18139032618696
"24501","Lynchburg","VA","MedExpress Urgent Care","2818 Linkhorne Drive","24503",37.4161294,-79.2034964
"24501","Lynchburg","VA","MedExpress Urgent Care","21054 Timberlake Road","24502",37.3341100537052,-79.24155972898006
"24501","Lynchburg","VA","Animal Emergency And Critical Care","not_available","24502",37.384645,-79.16595600000001
"24501","Lynchburg","VA","Lynchburg Life Saving Crew Hall","not_available","24501",37.4086403,-79.16338648
"24501","Lynchburg","VA","The Summit Health & Rehabilitation","1300 Enterprise Drivr","24502",37.35473308814524,-79.24181923726655
"24501","Lynchburg","VA","Gastroenterology Associates","121 Nationwide Drive","24502",37.380359999999996,-79.214898
"24501","Lynchburg","VA","Room East Tower 366","not_available","24503",37.41622030735016,-79.17096197605133
"24502","Lynchburg","VA","Virginia Baptist Hospital","3300 Rivermont Ave","24503",37.43798583209605,-79.18775004277371
"24502","Lynchburg","VA","Centra Urgent Care","16830 Forest Rd","24551",37.366775,-79.261017
"24523","Bedford","VA","Bedford Memorial Hospital ER","1613 Oakwood St","24523",37.351433,-79.517528
"24523","Bedford","VA","Bedford Memorial Hospital","not_available","24523",37.35166823498733,-79.51777134879055
"24523","Bedford","VA","Bedford Urgent Care","1356 American Way","24523",37.32619094848633,-79.50196075439453
"24540","Danville","VA","MedExpress Urgent Care","133 Enterprise Drive","24540",36.5939896164823,-79.42546762526206
"24540","Danville","VA","Danville Regional Medical Center","142 S Main St","24541",36.577387665377884,-79.40543575652406
"24540","Danville","VA","Danville Regional Medical Center Room 6107","not_available","24541",36.629176480447235,-79.38835846560163
"24540","Danville","VA","Allergy & Asthma","4545 Riverside Dr ste D","24541",36.5865355,-79.4510066
"24540","Danville","VA","Piney Forest Health and Rehabilitation Center","450 Piney Forest Rd","24540",36.604997999999995,-79.41063299999999
"24540","Danville","VA","Back Of Transport 25","not_available","24540",36.61577064329452,-79.40586257137738
"24540","Danville","VA","Wake Forest Baptist Health","301 Medical Center Blvd","not_available",36.68458557128906,-79.57294464111328
"24540","Danville","VA","Pineyforest Health Care","428-454 Piney Forest Rd","24540",36.60474479198456,-79.4109982252121
"24558","Halifax","VA","Halifax Regional Hospital","2014 wilborn avenue","24592",36.712454830460594,-78.91418523554135
"24558","Halifax","VA","HRH Ambulatory Surgery","Wilborn Ave","24592",36.71231590205547,-78.91431232423547
"24558","Halifax","VA","Radiology Department","not_available","24592",36.71243333399413,-78.91439267546578
"24609","Cedar Bluff","VA","Clinch Valley Medical Center","6801 Governor Gc Peery Hwy","24641",37.094602,-81.8199
"24609","Cedar Bluff","VA","Clinch Valley PETNET Trailer","Hill St","not_available",37.09616973400588,-81.8190657718143
"24609","Cedar Bluff","VA","Clinch Valley Urgent Care","111 Fashion Rd","24637",37.068599700927734,-81.73045349121094
"24609","Cedar Bluff","VA","Marsh Blood Mobile","not_available","24641",37.08797299608183,-81.81633836727211
"24614","Grundy","VA","Buchanan General Hospital","not_available","24614",37.285255432128906,-82.06564331054688
"24614","Grundy","VA","KATIE DEEL, Family Nurse Practitioner","1107 Riverview St","24614",37.27696990966797,-82.10308837890625
"24630","North Tazewell","VA","Carilion Clinic Veterans Administration Clinic","388 Ben Bolt Ave","24651",37.12384230697697,-81.48904180539829
"24630","North Tazewell","VA","Carilion Tazewell Community Hospital","388 Ben Bolt Avenue","24651",37.12403106689453,-81.48888397216797
