"zip","city","state","name","address","postalCode","lat","lon"
"63005","Chesterfield","MO","Total Access Urgent Care","2501 Clarkson Road","63017",38.6214036,-90.5826724
"63005","Chesterfield","MO","KAMPERS HEARING AID SERVICE","18741 Babler Meadows Dr","63038",38.59072802633104,-90.70840358734131
"63005","Chesterfield","MO","Mercy Imaging Mammography Rm4","not_available","63017",38.60573678653658,-90.5887782400694
"63005","Chesterfield","MO","St. Luke's Urgent Care - Clarkson","233 Clarkson Rd","63011",38.59948358462533,-90.58514764344262
"63005","Chesterfield","MO","Ulrich Medical Usa, Inc.","18221 Edison Ave","63005",38.664726,-90.643171
"63005","Chesterfield","MO","Mercy-GoHealth Urgent Care","1326 Clarkson Clayton Ctr","63011",38.602872,-90.587765
"63005","Chesterfield","MO","St. Louis Cancer & Breast Institute","15945 Clayton Rd","63011",38.60556884008663,-90.58838069597351
"63010","Arnold","MO","Mercy Urgent Care - Richardson Square","3619 Richardson Square Dr","63010",38.41102679658217,-90.38676463558198
"63010","Arnold","MO","Arnold Urgent Care","3613 Richardson Square Dr","63010",38.41108335753104,-90.38644411757163
"63010","Arnold","MO","St Anthony Urgent Care","not_available","not_available",38.44465847178989,-90.3768148066336
"63011","Ballwin","MO","Total Access Urgent Care","13861 Manchester Rd","63011",38.5971947,-90.4834223
"63011","Ballwin","MO","Mercy-GoHealth Urgent Care","409 Lafayette Ctr","63011",38.595745,-90.520839
"63011","Ballwin","MO","Urgent care center","Manchester","not_available",38.593227,-90.510541
"63011","Ballwin","MO","Mercy Convenient Care - Wildwood","16555 Manchester Rd","63040",38.5823103,-90.6165113
"63011","Ballwin","MO","Des Peres Urgent Care","15420 Manchester Rd","63011",38.592318,-90.56278499999999
"63012","Barnhart","MO","Imperial Urgent Care","1125 Imperial Main Street","63052",38.37004911012448,-90.38116931749944
"63012","Barnhart","MO","Jefferson Regional Medical Center","not_available","63070",38.31624985369213,-90.40134798499231
"63012","Barnhart","MO","Mercy Urgent Care - Imperial","1125 Main St","63052",38.370105270548194,-90.38112063712265
"63016","Cedar Hill","MO","nurses office","not_available","63016",38.36078643798828,-90.62069702148438
"63017","Chesterfield","MO","St. Luke's Hospital","232 S Woods Mill Rd","63017",38.65132820389958,-90.50284445285797
"63017","Chesterfield","MO","American Red Cross","13369 Olive Blvd","63017",38.681587,-90.495496
"63017","Chesterfield","MO","St. Luke's Pharmacy 3rd Floor","232 S Woods Mill Rd","not_available",38.651371999999995,-90.502987
"63017","Chesterfield","MO","St. Luke's Hospital - Nursing Classroom","not_available","63005",38.65081614973526,-90.50252096077367
"63017","Chesterfield","MO","ShuFang Clinic (Holistic Medicine)","14891 Olive Blvd","63017",38.6685734,-90.5359927
"63017","Chesterfield","MO","St Luke's Infusion Center","224 S Woods Mill Rd","63017",38.650835288279936,-90.50242870843424
"63017","Chesterfield","MO","Seattle Grace Hospital","South Woods Mill Rd","63017",38.64932,-90.51034
"63017","Chesterfield","MO","Mercy-GoHealth Urgent Care","1722 Clarkson Rd","63017",38.6422303,-90.56616799999999
"63017","Chesterfield","MO","MetLife Urgent Care Call Center Sick Ward","not_available","63141",38.643704891609325,-90.4974197284715
"63017","Chesterfield","MO","Radiology Lab Building B","not_available","63131",38.65168965208566,-90.50176449792248
"63017","Chesterfield","MO","Dubuis Hospital of St. Louis","13190 South Outer 40 Road. Meadowview Bldg. Level 1","63017",38.636985778808594,-90.48905181884766
"63017","Chesterfield","MO","After Hours Pediatric Urgent Care","1723 Missouri 340","63017",38.642639035010276,-90.56808347431598
"63019","Crystal City","MO","Urgent Care of Festus","660A S Truman Blvd","63028",38.212520599365234,-90.39057922363281
"63019","Crystal City","MO","Total Access Urgent Care","408 Brothers Dr","63028",38.2125517,-90.3960366
"63020","De Soto","MO","Zebas Family Hospital","not_available","63020",38.134464566513834,-90.55921823494708
"63021","Ballwin","MO","Total Access Urgent Care","2980 Dougherty Ferry Rd","63122",38.567928314208984,-90.47532653808594
"63021","Ballwin","MO","St Clare Health Center","not_available","63026",38.56142221898104,-90.47223221784763
"63021","Ballwin","MO","Ballwin Ridge","1441 Charic Dr","63021",38.553646,-90.587761
"63021","Ballwin","MO","The Family Birthplace","1015 Bowles Ave","63026",38.53514261345727,-90.47362879927125
"63025","Eureka","MO","Mercy Urgent Care - Legends Parkway","20 The Legends Pkwy","63025",38.4957271,-90.6272302
"63025","Eureka","MO","RCF at Marymount","313 Augustine Rd","63025",38.496360778808594,-90.61408233642578
"63025","Eureka","MO","Emergency FOX llc","4500 Highway 109","63025",38.51876449584961,-90.62728881835938
"63025","Eureka","MO","Eureka Urgent Care","623 W 5th St","63025",38.50547790527344,-90.63899230957031
"63026","Fenton","MO","Total Access Urgent Care","3802 S Lindbergh Blvd Ste 101","63127",38.549804,-90.4058873
"63026","Fenton","MO","Rock Township Ambulance District","not_available","63010",38.50225061374572,-90.49249899863558
"63026","Fenton","MO","St. Luke's Urgent Care - Fenton","508 Old Smizer Mill Rd","63026",38.513821,-90.45054300000001
"63026","Fenton","MO","Accidents And Family Chiropractic Care","220 Gravois Rd","63026",38.5114,-90.43578
"63026","Fenton","MO","Mercy Urgent Care - 714 Gravois Road","714 Gravois Rd Ste 100","63026",38.51130340393908,-90.44580623130014
"63028","Festus","MO","Mercy Emergency Department - Jefferson","1400 US Highway 61","63028",38.196598180752346,-90.3935671352092
"63028","Festus","MO","Jefferson memorial cancer center","Highway 61","63028",38.19870105129749,-90.39073070109616
"63028","Festus","MO","Mercy Clinic Adult Critical Care - Jefferson","1400 US Highway 61 Ste H1521","63028",38.196581704827615,-90.39364444047544
"63028","Festus","MO","Mercy Surgery Center","not_available","63028",38.197318,-90.395931
"63031","Florissant","MO","christian northwest healthcare","not_available","63031",38.77958237596248,-90.33631817451382
"63031","Florissant","MO","Rancho Manor Healthcare and Rehab Center","615 Rancho Ln","63031",38.820514,-90.319703
"63031","Florissant","MO","BJC Medical Group Convenient Care","not_available","63042",38.785075,-90.353652
"63031","Florissant","MO","Mercy Urgent Care - North County","637 Dunn Rd Ste 101","63042",38.7807706146239,-90.363537151125
"63031","Florissant","MO","Christian Northwest ER","8231-8496 Sieloff Dr","63042",38.77978409872888,-90.33720552304372
"63031","Florissant","MO","Fast Track Urgent Care","2686 N Highway 67","63033",38.804997,-90.305243
"63031","Florissant","MO","Total Access Urgent Care","1090 N Highway 67 St","63031",38.798496,-90.32607
"63031","Florissant","MO","John Cochran V A Hospital","not_available","63106",38.77947860811013,-90.36531239054811
"63031","Florissant","MO","Depaul Emergency Room","not_available","63044",38.77811994206177,-90.41289315975595
"63033","Florissant","MO","Christian Hospital","11133 Dunn Rd","63136",38.77682277747552,-90.24041955450562
"63033","Florissant","MO","Village North","11160 Village North Dr","63136",38.77620315551758,-90.24613952636719
"63033","Florissant","MO","Our Urgent Care","3433 N Highway 67","63033",38.813423,-90.292048
"63033","Florissant","MO","Christian EMS","Dunn Rd","63136",38.77694050370661,-90.23925117491896
"63033","Florissant","MO","Urgent Care","2686 N Highway 7","63033",38.80598831176758,-90.30462646484375
"63033","Florissant","MO","C.N.E. Emergency Room","11084-11298 Dunn Rd","63136",38.776894151660365,-90.2393766314146
"63033","Florissant","MO","Christian Hospital Emergency Room","not_available","63136",38.77126421426959,-90.28268806232226
"63033","Florissant","MO","Christian Hospital Northeast 9 Amcu","not_available","63138",38.77541086780141,-90.2405707591346
"63033","Florissant","MO","Crestwood Health Care Center","11400 Mehl Ave","63033",38.777796,-90.268305
"63038","Wildwood","MO","Sierra Environmental Technologies","18545 Bridlegate Ln","63069",38.53092575073242,-90.69038391113281
"63042","Hazelwood","MO","St Joseph's Hospital Telemetry Floor","not_available","63146",38.7583991808306,-90.4292573011217
"63043","Maryland Heights","MO","Ranken Jordan - Pediatric Bridge Hospital","11375 Dorsett Road","63043",38.70997068499408,-90.41530841343807
"63043","Maryland Heights","MO","DePaul Hospital","12303 DE Paul Dr","63044",38.75143095910778,-90.43383121490479
"63043","Maryland Heights","MO","SSM De Paul Health Center","De Paul Dr, Bridgeton, MO 63044","63044",38.74991665987754,-90.43286246754914
"63043","Maryland Heights","MO","SSM Rehabilitation Hospital","12380 De Paul Dr","63044",38.7527,-90.43637
"63043","Maryland Heights","MO","Total Access Urgent Care","12409 Saint Charles Rock Rd","63044",38.755095,-90.4299764
"63043","Maryland Heights","MO","SSM Depaul Hospital Center","12303 De Paul Drive","63044",38.75082778930664,-90.43275451660156
"63043","Maryland Heights","MO","SSM Depaul Health Center","St Charles Rock Road","63074",38.752317479422054,-90.44931780927605
"63043","Maryland Heights","MO","Our Urgent Care","2070 McKelvey Rd","63043",38.7168636,-90.45310669999999
"63043","Maryland Heights","MO","SSM DePaul Medical Group","2024 Dorsett Village Shpg Ctr.","63043",38.75052790217687,-90.43255396660408
"63043","Maryland Heights","MO","Maryland Heights Urgent Care","not_available","63043",38.71691629588691,-90.45314343840403
"63044","Bridgeton","MO","St. Louis Children's Hospital Suite C","not_available","63112",38.74045206974632,-90.37945412522436
"63044","Bridgeton","MO","St. Ann Hospital","St. Bernard Ln","not_available",38.724753,-90.39336
"63045","Earth City","MO","saint joseph","not_available","63301",38.77245487209819,-90.4821430194849
"63049","High Ridge","MO","St. Clair Hospital","not_available","63021",38.48323330742111,-90.51444176702252
"63074","Saint Ann","MO","Bentley's Extended Care","3060 Ashby Rd","63114",38.711819,-90.388325
"63080","Sullivan","MO","Missouri Baptist Sullivan Hospital","965 Mattox Dr","63080",38.19568634033203,-91.16983795166016
"63080","Sullivan","MO","BJC Sullivan Hospital","Sappington Bridge Rd","not_available",38.19606852373651,-91.17066319285361
"63090","Washington","MO","Our Urgent Care","3195 Phoenix Center Dr","63090",38.5355518,-90.97831529999999
"63090","Washington","MO","St. John's Mercy Hospital","901 E 5th St","63090",38.55218607355357,-91.00099168831052
"63090","Washington","MO","Organic Healthy Habits","1165 Clock Tower Plaza, Suite 163","63090",38.53824996948242,-91.00031280517578
"63090","Washington","MO","Mercy Urgent Care","not_available","63090",38.535514,-90.978462
"63090","Washington","MO","Mercy Intensive Outpatient Behavioral Health - Washington","851 E 5th St Ste 154","63090",38.5525922,-91.0021838
"63090","Washington","MO","Total Access Urgent Care","1717 Madison Ave","63090",38.539923,-91.0050814
"63101","Saint Louis","MO","Hemodialysis Center","St. Louis","63101",38.627273,-90.197889
"63101","Saint Louis","MO","Downtown Urgent Care","916 Olive St","63101",38.62880902864708,-90.19455811677757
"63101","Saint Louis","MO","Prentice at Northwestern Memorial Hodpital","not_available","63101",38.62625503540039,-90.19226837158203
"63102","Saint Louis","MO","Drug & Alcohol Rehab St. Louis","1422 Delmar Blvd","63103",38.63368225097656,-90.19951629638672
"63103","Saint Louis","MO","CERT Final Exercise","20 N Grand Blvd","63103",38.636114,-90.232852
"63103","Saint Louis","MO","Cardinal Glennon Amdulatory Care Center Pharmacy","not_available","63103",38.62888,-90.233647
"63104","Saint Louis","MO","St. Louis University Hospital","3635 Vista Ave","63110",38.62310217852254,-90.23935406191285
"63104","Saint Louis","MO","Cardinal Glennon Same Day Surgery Waiting Room","not_available","63110",38.62160044034415,-90.23918244780096
"63104","Saint Louis","MO","St. Louis University Hospital Transplant Clinic","Grand Blvd","63104",38.624444691620155,-90.24199184958022
"63104","Saint Louis","MO","Cardinal Glennon Registration","not_available","63104",38.617950439453125,-90.23816680908203
"63104","Saint Louis","MO","SLUH Pharmacy","3636 Vista","63110",38.62306,-90.23808
"63104","Saint Louis","MO","St. Alexius Hospital-Jefferson Campus","Jefferson","63118",38.591078786630725,-90.22658069378262
"63104","Saint Louis","MO","Bonnies office","not_available","63118",38.589801426759806,-90.22374025424888
"63104","Saint Louis","MO","Cardinal Glennon ER","1465 S Grand Blvd","63104",38.620973268046846,-90.23978546038786
"63104","Saint Louis","MO","SLU Bone Marrow Transplant Clinic","3655 Vista Ave","63110",38.62329864501953,-90.2404556274414
"63104","Saint Louis","MO","Slu Hospital South Campus","1755 S Grand Blvd","63104",38.615638732910156,-90.2403335571289
"63104","Saint Louis","MO","Concentra","1617 S 3rd St","63104",38.60875236309136,-90.19849900964493
"63104","Saint Louis","MO","St Louis University Heart Station","3635 Vista","63110",38.62212002277374,-90.24005234241486
"63105","Saint Louis","MO","St Marys Pharmacy","not_available","63139",38.633131780365865,-90.31011832192613
"63105","Saint Louis","MO","St. Mary's Hospital Endoscopy Department","6420 Clayton Rd","63117",38.63302993774414,-90.3107681274414
"63105","Saint Louis","MO","HealthyBalanceMD","1034 S Brentwood Boulevard, Suite 516","63117",38.6360748,-90.3441842
"63105","Saint Louis","MO","Mercy-GoHealth Urgent Care","8321 Maryland Ave","63105",38.6531744,-90.3470867
"63105","Saint Louis","MO","St Mary's Cardiac Cath Waiting Room","not_available","63117",38.63441162,-90.3149091
"63105","Saint Louis","MO","St. Louis Children's Hospital","1 Childrens Pl","63110",38.63792872273078,-90.30437188214643
"63105","Saint Louis","MO","SSM Rehabilitation Hospital","1027 Bellevue Ave","63117",38.633013,-90.311621
"63105","Saint Louis","MO","Total Access Urgent Care","1005 S Big Bend Blvd","63117",38.634598,-90.31895899999999
"63106","Saint Louis","MO","John Cochran VA Medical Center","915 N Grand Blvd","63106",38.64213196289202,-90.23041952539315
"63106","Saint Louis","MO","John Cochran VA Hospital - ER","not_available","63108",38.642006,-90.231346
"63108","Saint Louis","MO","Barnes-Jewish Hospital","1 Barnes Jewish Hospital Plz","63110",38.6369044,-90.2645338
"63108","Saint Louis","MO","Siteman Cancer Center","4921 Parkview Pl","63110",38.638285836387354,-90.26285834332617
"63108","Saint Louis","MO","St. Louis Children's Hospital","1 Childrens Place","63110",38.63796280627147,-90.26472712382068
"63108","Saint Louis","MO","Shoenberg Pavilion","216 S Kingshighway Blvd","63110",38.63874816894531,-90.26435852050781
"63108","Saint Louis","MO","BJC Healthcare Clayton Ave Building","4353 Clayton Ave","63110",38.63371690576132,-90.25517727952577
"63108","Saint Louis","MO","West pavilion security","1 barnes-Jewish plaza","63110",38.63476329547711,-90.26498655566424
"63108","Saint Louis","MO","Washington University MDA  Clinic","600 S Euclid Ave","63110",38.63515853881836,-90.26268768310547
"63108","Saint Louis","MO","ACTU (AIDS Clinical Trials Unit)","620 S Taylor Ave","63110",38.63471984863281,-90.259033203125
"63109","Saint Louis","MO","Total Access Urgent Care","6900 Chippewa St","63109",38.5884764,-90.3094411
"63109","Saint Louis","MO","Gateway Regional Medical Center","not_available","63116",38.56969325,-90.27555025
"63109","Saint Louis","MO","South City Urgent care","not_available","63109",38.59403323690653,-90.2941295257705
"63110","Saint Louis","MO","Shriners Hospital for children","4400 Clayton Ave","63110",38.6323053741677,-90.25820810439751
"63110","Saint Louis","MO","St Louis Behavioral Medicine Institute","1129 Macklind Avenue","63110",38.6273983,-90.2753697
"63110","Saint Louis","MO","Total Access Urgent Care","2060 Hampton Ave","63139",38.6178478,-90.2872087
"63111","Saint Louis","MO","The River View","not_available","62240",38.53687286376953,-90.22317504882812
"63112","Saint Louis","MO","Smiley Urgent Care","Delmar Blvd","63108",38.6540412902832,-90.28011322021484
"63112","Saint Louis","MO","Barnes Jewish Hospital BJC Healthcare","Forest Park Pkwy","63112",38.639029499010235,-90.28574307282572
"63113","Saint Louis","MO","ST LOUIS CHILDRENS HOSPITAL ER","not_available","63130",38.64434561460868,-90.26764126938942
"63113","Saint Louis","MO","Professionals in OBGYN, LLC","555 N New Ballas Rd Ste 240","63141",38.64405922156645,-90.2462911605835
"63114","Saint Louis","MO","Northwest Habilitation Center","not_available","63114",38.705570220947266,-90.40326690673828
"63115","Saint Louis","MO","ST LOUIS CHILDRENS HOSPITAL DEPT OF OCCUPATIONAL THERAPY","not_available","63120",38.6927375793457,-90.24935150146484
"63116","Saint Louis","MO","Total Access Urgent Care","3114 S Grand Blvd","63118",38.602133,-90.242083
"63117","Saint Louis","MO","Mercy-GoHealth Urgent Care","2015 Maplewood Commons Dr","63143",38.6208365,-90.3336238
"63117","Saint Louis","MO","BJC Meridian I","8374 Eager Rd","63144",38.62839126586914,-90.3369369506836
"63117","Saint Louis","MO","st Mary's  rm 487","not_available","63143",38.6288036,-90.3314779
"63117","Saint Louis","MO","Our Urgent Care","1201 S Big Bend Blvd","63117",38.630816,-90.3197505
"63118","Saint Louis","MO","St. Alexius Hospital- Broadway Campus","3933 S Broadway","63118",38.58385614754734,-90.22859192773417
"63119","Saint Louis","MO","SSM Urgent Care","8820 Manchester Rd","63144",38.612430572509766,-90.35002899169922
"63119","Saint Louis","MO","Washington University Lung Transplant","not_available","63119",38.584865,-90.371452
"63119","Saint Louis","MO","St Louis Medical Professionals","8790 Watson Rd Ste 100","63119",38.563368664314154,-90.36420269800186
"63119","Saint Louis","MO","St. John Mercy Medical Center","615 South New Ballast Road","not_available",38.606529045322226,-90.38099917443962
"63119","Saint Louis","MO","Urgent Care","8790 Watson Road","not_available",38.56327438354492,-90.36415100097656
"63119","Saint Louis","MO","Total Access Urgent Care","9556 Manchester Rd","63119",38.6087771,-90.3656043
"63121","Saint Louis","MO","Hawthorn Children's Psychiatric Hospital","1901 Pennsylvania Ave","63133",38.68659973144531,-90.3139877319336
"63121","Saint Louis","MO","Natural Healing HC LLC (In cursive writing)","6418 Leschen Ave","63121",38.68421173095703,-90.28972625732422
"63122","Saint Louis","MO","Des Peres Hospital","2345 Dougherty Ferry Rd","63122",38.58417505974497,-90.45196659455041
"63122","Saint Louis","MO","Mercy-GoHealth Urgent Care","10700 Manchester Rd Ste E","63122",38.600074,-90.4042254
"63122","Saint Louis","MO","Mercy Urgent Care - 1001 S. Kirkwood","1001 S Kirkwood Rd","63122",38.56609786889248,-90.40764610820281
"63122","Saint Louis","MO","St. Luke's Urgent Care - Kirkwood","455 S Kirkwood Rd","63122",38.57527957987983,-90.40701345225962
"63122","Saint Louis","MO","Total Access Urgent Care","915 N Kirkwood Rd","63122",38.5974586,-90.40665609999999
"63122","Saint Louis","MO","3rd Floor Waiting Area Des Peres","not_available","63122",38.578633,-90.460229
"63122","Saint Louis","MO","MedPost Urgent Care","11648 Manchester Rd","63131",38.59926083,-90.42666709
"63122","Saint Louis","MO","Howard Lederer, MD","2315 Dougherty Ferry Rd Ste 109A","63122",38.58366775512695,-90.45098876953125
"63122","Saint Louis","MO","Mercy-GoHealth Urgent Care","13275 Manchester Rd","63131",38.602656735857614,-90.46598262334822
"63122","Saint Louis","MO","St. Luke's Convenient Care","1080 Lindemann Rd","63131",38.60073619,-90.43293654
"63122","Saint Louis","MO","Urgent Care","Kirkwood rd.","63122",38.57610813643569,-90.39916725191124
"63122","Saint Louis","MO","Aspire Precision Health","1610 Des Peres Road","63131",38.6047459,-90.4521532
"63123","Saint Louis","MO","HealthCare Mobility, Inc","9030 Gravois Rd","63123",38.55501937866211,-90.31358337402344
"63123","Saint Louis","MO","Total Access Urgent Care","9538 Gravois Rd","63123",38.552319,-90.322959
"63123","Saint Louis","MO","Total Access Urgent Care","6940 S Lindbergh Blvd","63125",38.50975861053908,-90.33347368240356
"63123","Saint Louis","MO","Metro Urgent Care","123 Concord Plaza Shopping Ctr","63128",38.5246838,-90.3633428
"63123","Saint Louis","MO","BJC Medical Group Convenient Care","7415 S Lindbergh Blvd","63125",38.505699157714844,-90.32474517822266
"63123","Saint Louis","MO","Anahit Danielyan, MD","8790 Watson Rd Ste 103","63119",38.56205933978674,-90.3629457950592
"63123","Saint Louis","MO","Saint anthonys Peadric Center","not_available","63128",38.51103591918945,-90.35660552978516
"63123","Saint Louis","MO","Lemay Urgent Care","Lemay Ferry Rd","63125",38.51600135109542,-90.31074023568132
"63124","Saint Louis","MO","St. Luke's Urgent Care Center Ladue","8857 Ladue Road","63124",38.6541395,-90.3520657
"63124","Saint Louis","MO","AFC Urgent Care Brentwood","2341 S Brentwood Blvd","63144",38.6185184,-90.348486
"63125","Saint Louis","MO","Jefferson Barracks VA Medical Center","1 Jefferson Barracks Rd","63125",38.493090074165096,-90.27965612926839
"63125","Saint Louis","MO","Jefferson Barracks Hospital Trav","E Cir Dr","63125",38.49266994,-90.27993752
"63127","Saint Louis","MO","St. Anthony's Hospice House","10024 Kennerly Rd","63128",38.5074577331543,-90.38540649414062
"63127","Saint Louis","MO","st anthonys cancer care center","10010 Kennerly Rd","63128",38.50726318359375,-90.38117218017578
"63128","Saint Louis","MO","St. Anthony's Hospital ER","10011 Kennerly Rd.","63128",38.507562212715996,-90.38073702366323
"63128","Saint Louis","MO","St. Louis Children’s Hospital After Hours Convenient Care","12436 Tesson Ferry Rd","63128",38.508904,-90.375105
"63128","Saint Louis","MO","Total Access Urgent Care","12616 Lamplighter Square Shpg Ctr","63128",38.5046337,-90.378322
"63128","Saint Louis","MO","Centerpointe Hosp","Cedar plaza parkway","63128",38.4851154048847,-90.38195428445978
"63128","Saint Louis","MO","St. Luke's","Old Smizer Mill Rd, Fenton, MO 63026","63026",38.48368096105922,-90.3790080955268
"63128","Saint Louis","MO","Med Surg 7 West @ St. Anthony's Hospital","10010 Kennerly Rd, Sappington, MO 63128","63128",38.507691732341854,-90.3803681466931
"63128","Saint Louis","MO","Senior Helpers of St. Louis","12300 Old Tesson Road","63128",38.51207001,-90.37169392
"63128","Saint Louis","MO","Hyland Education Building","Kennerly Road","not_available",38.507332512893086,-90.3804381674053
"63129","Saint Louis","MO","Total Access Urgent Care","4400 Telegraph Rd","63129",38.484445,-90.303849
"63129","Saint Louis","MO","Mercy-GoHealth Urgent Care","5640C Telegraph Rd","63129",38.46712120015306,-90.30289654232786
"63129","Saint Louis","MO","Southwest Vet Hospital","lemay ferry","not_available",38.49157448333333,-90.3459219
"63130","Saint Louis","MO","UOS Hospital","University City","63130",38.66623300000001,-90.331081
"63131","Saint Louis","MO","Missouri Baptist Medical Center","3015 N Ballas Rd","63131",38.63604708737899,-90.44652641207814
"63131","Saint Louis","MO","Mercy Heart Hospital","625 S New Ballas Rd","63141",38.64474845214265,-90.44736338476422
"63131","Saint Louis","MO","Mercy Medical Center","615 S New Ballas Rd Ste 1400","63141",38.645387313976485,-90.44667513864846
"63131","Saint Louis","MO","Mercy Behavioral Health - St. Louis","615 S New Ballas Rd","63141",38.6421512,-90.445556
"63132","Saint Louis","MO","AccuCare Home Health Care - St. Louis, Missouri","10131 Old Olive Street Rd","63141",38.6751594543457,-90.40331268310547
"63133","Saint Louis","MO","North City Urgent Care","6113 Ridge Ave","63133",38.67351,-90.287139
"63135","Saint Louis","MO","Ferguson Animal Hospital","483 Airport Rd","63135",38.747452944517136,-90.31052872538567
"63135","Saint Louis","MO","ComfortGuard Central","not_available","63135",38.73261137465863,-90.27987179304235
"63135","Saint Louis","MO","Heartland Women's Healthcare","10135 W Florissant Ave","63136",38.75207,-90.2802897
"63139","Saint Louis","MO","Concentra Urgent Care","6726 Manchester Ave","63139",38.61740493774414,-90.30475616455078
"63139","Saint Louis","MO","Forest Park Hospital","6150 Oakland Ave","63139",38.630036446279334,-90.28741287933397
"63141","Saint Louis","MO","Barnes Jewish West County Hospital","12634 Olive Blvd","63141",38.676257541939094,-90.46795520570632
"63141","Saint Louis","MO","Evelyn’s House","1000 N Mason Rd","63141",38.67277145385742,-90.46758270263672
"63146","Saint Louis","MO","Creve Coeur Urgent Care","13035 Olive Blvd","63141",38.682896772791445,-90.48016905784607
"63146","Saint Louis","MO","St. Luke's Rehabilitation Hospital","14709 Olive Blvd","63017",38.675104520840016,-90.53319319154808
"63146","Saint Louis","MO","Total Access Urgent Care","10923 Olive Blvd","63141",38.673531,-90.42041400000001
"63146","Saint Louis","MO","Mercy-GoHealth Urgent Care","11445 Olive Blvd","63141",38.67296125766543,-90.43394218650815
"63301","Saint Charles","MO","Barnes-Jewish St. Peters Hospital","10 Hospital Drive, St. Peters, Missouri 63376","63376",38.79396925140444,-90.58036484481221
"63301","Saint Charles","MO","St. Joseph's Hospital","300 1st Capitol Dr","63301",38.78059363128524,-90.48440433058927
"63301","Saint Charles","MO","SSM St. Joseph Health Center","1 First Capitol","63303",38.78126858807405,-90.48497898628901
"63301","Saint Charles","MO","Concentra Urgent Care","1794 Zumbehl Road","63303",38.77679799654654,-90.52776639898741
"63301","Saint Charles","MO","The Rehabilitation Institute of St. Louis - St. Peters","10 Hospital Dr Fl 3","63376",38.79359407258722,-90.57952412050592
"63301","Saint Charles","MO","st. joesph hospital","5thStreet","not_available",38.784935827938185,-90.6119813268343
"63301","Saint Charles","MO","Mercy-GoHealth Urgent Care","2031 Zumbehl Road MO","63303",38.782979,-90.534892
"63301","Saint Charles","MO","Total Access Urgent Care","3871 Mexico Rd","63303",38.7905447,-90.5637938
"63301","Saint Charles","MO","Room 357  Labor And Delivery","not_available","63341",38.79379130782934,-90.57955716058572
"63303","Saint Charles","MO","Urgent Care","not_available","63376",38.792924,-90.587745
"63304","Saint Charles","MO","Progress West Healthcare Center","2 Progress Point Parkway","63368",38.7160990497998,-90.69804896478738
"63304","Saint Charles","MO","St. Luke's Urgent Care - Winghaven","5551 Winghaven Blvd","63368",38.75243112316631,-90.74810748315595
"63304","Saint Charles","MO","St. Luke's Urgent Care - St. Peters","Mexico Rd","63376",38.75232064698559,-90.74808035727354
"63304","Saint Charles","MO","Amityville","not_available","63304",38.71517839688777,-90.67088171097967
"63304","Saint Charles","MO","Progess West Childrens Hospital","Technology Drive","not_available",38.716898514238196,-90.70319441272659
"63304","Saint Charles","MO","Total Access Urgent Care","4201 State Hwy K","63368",38.7246947,-90.6987245
"63304","Saint Charles","MO","ProgressWest BJC","2 Progress Point Ct","63368",38.71576690673828,-90.6985855102539
"63304","Saint Charles","MO","SSM Urgent Care","1475 Kisker Rd","63304",38.738921000000005,-90.621371
"63304","Saint Charles","MO","CenterPointe Hospital","5931 S Hwy. 94","63304",38.71550477214413,-90.67168570861875
"63304","Saint Charles","MO","Mercy-GoHealth Urgent Care","6167 Mid Rivers Mall Drive","63304",38.741893842388926,-90.6361774916794
"63304","Saint Charles","MO","St. Luke's Urgent Care - Weldon Spring","1051 Wolfrum Rd","63304",38.729568,-90.645067
"63304","Saint Charles","MO","Mercy-GoHealth Urgent Care","2991 State Hwy K","63368",38.75721123003186,-90.7037104122511
"63304","Saint Charles","MO","Our Urgent Care","1615 Jungermann Rd","63304",38.746682,-90.590599
"63304","Saint Charles","MO","Mo. Bap. 4th Floor","3015 N. Ballas","63117",38.662829397892885,-90.5692801323614
"63348","Foristell","MO","St Joseph Health Center Wentzville","500 Medical Dr","63385",38.822418212890625,-90.88074493408203
"63348","Foristell","MO","St Louis Crisis Nursery","700 Medical Dr, Wentzville, MO 63385","63385",38.821231842041016,-90.87992095947266
"63348","Foristell","MO","Heartland Women's Healthcare","1271 Wentzville Pkwy","63385",38.8213816,-90.8785744
"63351","Jonesburg","MO","jonesburg nursing and rehab","not_available","63351",38.85709890510688,-91.29937694239644
"63353","Louisiana","MO","Pike County Hospital","2305 Georgia St","63353",39.44051609182527,-91.06441493091036
"63362","Moscow Mills","MO","Winchester Spine & Sport Of Pacific-Eureka","34 Professional Pkwy","63379",38.97261047363281,-90.9618911743164
"63362","Moscow Mills","MO","Mercy Urgent Care - Lincoln","1000 E Cherry St","63379",38.98302724863821,-90.96419281118393
"63362","Moscow Mills","MO","Lincoln County Medical Center","Troy, MO","not_available",38.98298645019531,-90.96402740478516
"63362","Moscow Mills","MO","Courageous Hearts Equine Assisted Psychotherapy & Learning Center LLC","8848 September Way","19960",38.8905383,-90.8632614
"63362","Moscow Mills","MO","Troy Urgent Care","not_available","63379",38.982824,-90.963967
"63366","O Fallon","MO","SSM St. Joseph Hospital West","100 Medical Plz","63367",38.802727845260826,-90.77569484710693
"63366","O Fallon","MO","Mercy Hospital St. Louis","not_available","63366",38.807491302490234,-90.7046127319336
"63366","O Fallon","MO","Endoscopy","100 Medical Plz Fl 1","63367",38.80216979980469,-90.77538299560547
"63366","O Fallon","MO","SSM St. Joseph Hospital West Rm. 2317","not_available","63367",38.802307,-90.775695
"63366","O Fallon","MO","Total Access Urgent Care","507 S Main St","63366",38.8052441,-90.7004778
"63366","O Fallon","MO","St. Johns Mercy Urgent Care","300 Winding Woods Dr Ste 100","63366",38.784459368837965,-90.69867791205115
"63366","O Fallon","MO","Heartland Women's Healthcare","1000 Edgewater Point Suite 200","63367",38.8009895,-90.7629996
"63366","O Fallon","MO","Total Access Urgent Care","1001 Southern Ridge Ln","63367",38.7809384,-90.7883604
"63366","O Fallon","MO","Retirement Time Insurance LLC,","1079 E. Terra Ln","63366",38.80366897583008,-90.68241882324219
"63366","O Fallon","MO","BioLife Plasma Services","8484 Mexico Rd.","63376",38.79268264770508,-90.69320678710938
"63366","O Fallon","MO","Total Access Urgent Care","600 Mid Rivers Mall Dr","63376",38.786136,-90.6256325
"63367","Lake Saint Louis","MO","Crider Health Center","1032 Crosswinds Ct, Wentzville, MO 63385","63385",38.803061948338936,-90.81729029835914
"63367","Lake Saint Louis","MO","SSM URGENT CARE","7421 Highway N","63368",38.766231536865234,-90.74327087402344
"63376","Saint Peters","MO","Mercy Kids Convenient Care - Mid Rivers","4525 Mid Rivers Mall Dr Ste 10","63376",38.7649,-90.635486
"63376","Saint Peters","MO","St. John's Mercy Urgent Care","107 Piper Hill Dr Ste 100","63376",38.79332814767087,-90.58777356048
"63383","Warrenton","MO","SSM St. Charles","HWY N","63368",38.82059810236826,-91.13911348137624
"63383","Warrenton","MO","Warrenton Urgent Care","1343 NE Service Rd","63383",38.81903839111328,-91.12812042236328
"63385","Wentzville","MO","Total Access Urgent Care","1890 Wentzville Pkwy","63385",38.8173991,-90.8757437
"63385","Wentzville","MO","Timberland Nursery","not_available","63385",38.77325160500344,-90.84531904549736
"63385","Wentzville","MO","Our Urgent Care","1111 W Pearce Blvd","63385",38.8107947,-90.87058999999999
"63385","Wentzville","MO","Essentials of Life","205 Perque Valley Drive","63385",38.797942,-90.854341
"63386","West Alton","MO","Alton Memorial Hospital","1 Memorial Dr","62002",38.899563334004775,-90.15941279328705
"63386","West Alton","MO","St. Anthony's Health Center","not_available","62002",38.90832137721399,-90.173937424982
"63386","West Alton","MO","MASH 4077th","Greenwood","62035",38.928051642204565,-90.20192276139157
"63386","West Alton","MO","saint anthonys hospital","1 Saint Anthonys Way","62002",38.90812746065711,-90.17339768431839
"63386","West Alton","MO","Saint Anthonys Hospital Rm 223","Room 223","not_available",38.908181,-90.17323
"63401","Hannibal","MO","Levering Regional Medical Center","not_available","63401",39.704291,-91.383482
"63501","Kirksville","MO","Northeast Regional Medical Center - Emergency Room","315 S Osteopathy Ave","63501",40.19259262084961,-92.59007263183594
"63501","Kirksville","MO","Med Depot","not_available","63501",40.19313776728676,-92.59086700196045
"63552","Macon","MO","Samaritan Hosiptal","Highway 63","63552",39.74776113249344,-92.46898946581372
"63555","Memphis","MO","Scotland county hospital","not_available","63555",40.468570709228516,-92.1667709350586
"63556","Milan","MO","Milan Hospital","not_available","63556",40.1993602,-93.1270859
"63565","Unionville","MO","Putnam County Memorial Hospital","not_available","63565",40.48252487182617,-93.00623321533203
"63601","Park Hills","MO","Serenity Hospice","not_available","63640",37.8409154307452,-90.48322644351992
"63628","Bonne Terre","MO","Parkland Emergency  Hospital","Bonne Terre, MO 63628","63628",37.91229509732671,-90.53273128917955
"63640","Farmington","MO","Parkland Health Center","1101 W Liberty St","63640",37.781288212638536,-90.43820908036746
"63640","Farmington","MO","Ravi Patel, D.O.","4315 US Highway 67 Ste 2","63640",37.807579040527344,-90.44881439208984
"63640","Farmington","MO","Family Urgent Care","1031 E Karsch Blvd","63640",37.779136657714844,-90.40342712402344
"63640","Farmington","MO","Mineral Area Regional Medical Center","1212 Weber Rd","63640",37.80052185058594,-90.43978118896484
"63640","Farmington","MO","Kindred at Home","4783 Flat River Rd","63640",37.82005271,-90.45362066
"63645","Fredericktown","MO","Midwest Convenient Care","not_available","63645",37.560709,-90.292426
"63650","Ironton","MO","Iron County Hospital","not_available","63663",37.62263641646546,-90.64462158650866
"63664","Potosi","MO","TLC","not_available","63664",37.95218,-90.932653
"63664","Potosi","MO","Wcmh Er","not_available","63660",37.925312,-90.77329
"63664","Potosi","MO","Washington County Memorial Hospital","Healthway","63664",37.92602070192866,-90.77324701830882
"63670","Sainte Genevieve","MO","Ste Genevieve County Memorial Hospital","not_available","63670",37.9691162109375,-90.0528335571289
"63670","Sainte Genevieve","MO","Ste Genevieve County Ambulance District","3 Basler Dr","63670",37.96656036376953,-90.0559310913086
"63673","Saint Mary","MO","Perry County Memorial Hospital","434 N West St","63775",37.731876373291016,-89.86511993408203
"63701","Cape Girardeau","MO","Southeast Missouri Hospital","1701 Lacey St","63701",37.310566912691925,-89.54003623956365
"63701","Cape Girardeau","MO","Heartland Plastic & Hand Surgery","319 South Silver Springs Road","63703",37.2961332,-89.56726548
"63701","Cape Girardeau","MO","River City Biological","813 Southern Expy","63703",37.28368377685547,-89.53194427490234
"63701","Cape Girardeau","MO","AFC Urgent Care Cape Girardeau","465 S Mount Auburn Rd Ste 103","63703",37.28950881958008,-89.5716323852539
"63701","Cape Girardeau","MO","The Tree","not_available","63701",37.31053164053537,-89.54019656829561
"63701","Cape Girardeau","MO","Healing Arts Pharmacy","not_available","63703",37.30219268798828,-89.5707778930664
"63701","Cape Girardeau","MO","Regional Brain & Spine","1723 Broadway St Ste 410","63701",37.311859130859375,-89.5409927368164
"63701","Cape Girardeau","MO","Saint Francis Sleep Disorders Center","211 Saint Francis Dr","63703",37.30348587036133,-89.57128143310547
"63751","Glenallen","MO","Scott County Health Department","102 Grove Estates Court","63801",37.20265722867926,-90.16248098743708
"63801","Sikeston","MO","Missouri Delta Medical Center","not_available","63801",36.88974668090449,-89.58357681102217
"63841","Dexter","MO","Missouri Southern Healthcare","60 N one mile","63841",36.807708740234375,-89.96977233886719
"63851","Hayti","MO","Pemiscot County Memorial Hospital","not_available","63851",36.237781205672185,-89.73947882422397
"63857","Kennett","MO","St. Bernards Urgent Care- Kennett","1312 1st St","63857",36.23692844,-90.04166304
"63901","Poplar Bluff","MO","Poplar Bluff Regional Medical Center North","2620 N Westwood Blvd","63901",36.785702645240065,-90.4266422651934
"63901","Poplar Bluff","MO","Poplar Bluff Regional Medical Center - Emergency Room","3100 Oak Grove Rd","63901",36.78738784790039,-90.4433822631836
"63901","Poplar Bluff","MO","Gamma Labs In Poplar Bluff, Moc","1910A Greenwood Dr","63901",36.78049850463867,-90.42131042480469
"63901","Poplar Bluff","MO","Poplar Bluff Regional Medical Center South","621 West Pine","63901",36.75784683227539,-90.39736938476562
"63901","Poplar Bluff","MO","Poplar Bluff Medical Park","not_available","63901",36.732554883333336,-90.4421493
"63901","Poplar Bluff","MO","John J. Pershing VA Medical Center","1500 N Westwood Blvd","63901",36.77259063720703,-90.4168472290039
"63901","Poplar Bluff","MO","Heartland Women's Healthcare","2340 Katy Ln.","63901",36.7874984,-90.427174
"63935","Doniphan","MO","Ripley County Memorial Hosital","not_available","63935",36.6213931282827,-90.8262032703954
"64012","Belton","MO","Research Belton Hospital","17065 US 71 Highway","64012",38.81576746152999,-94.50347147168469
"64012","Belton","MO","Research Belton ER","not_available","64012",38.81600135273718,-94.5036742270669
"64012","Belton","MO","Urgent Care","2019 W Foxwood","64012",38.81236,-94.496168
"64014","Blue Springs","MO","St Mary's Hospital","201 NW R D Mize Rd","64014",39.026241189721325,-94.26432736267155
"64014","Blue Springs","MO","St. Mary's Emergency Room","not_available","64014",39.02618054981099,-94.26457607398558
"64014","Blue Springs","MO","CareNow Urgent Care - Blue Springs","1215 NE Coronado Dr","64014",39.02619290000001,-94.24670119999999
"64014","Blue Springs","MO","Centerpoint Urgent Care","725 NW State Hwy 7","64015",39.0256696558834,-94.27278213397638
"64014","Blue Springs","MO","Women Infant Children Wic","733-829 SW Clark Rd","64015",39.00066693829312,-94.27342843008712
"64014","Blue Springs","MO","The University of Kansas Cancer Center","300 Nw Mock Ave Ste 100","64014",39.0273449,-94.2666799
"64014","Blue Springs","MO","Saint Luke's Convenient Care - Blue Springs","1101 SW MO Hwy 7","64014",39.006370544433594,-94.27285766601562
"64015","Blue Springs","MO","Childrens Mercy East Clinics","20300 E Valley View Pkwy","64057",39.035836675726536,-94.33939084946002
"64015","Blue Springs","MO","Room 311","not_available","64057",39.049778,-94.349015
"64015","Blue Springs","MO","BioLife Plasma Services","19351 E. Eastland Center Ct.","64055",39.0335684,-94.35252
"64015","Blue Springs","MO","Urgent Care of Kansas City","4714 Arrowhead drive","not_available",39.03116778941127,-94.35791510683923
"64015","Blue Springs","MO","The University of Kansas Cancer Center","4881 Ne Goodview Circle","64064",39.000795,-94.353576
"64015","Blue Springs","MO","Kindred at Home","20101 E Jackson Dr","64057",39.040684000000006,-94.343676
"64015","Blue Springs","MO","St. Mary's Hospital","not_available","64064",39.02368978,-94.35614883899689
"64024","Excelsior Springs","MO","Convalescent Center","1700 Rainbow Blvd","64024",39.362612505469365,-94.23889310463579
"64024","Excelsior Springs","MO","A Chem Products Inc","12001 McKee Rd N","64024",39.311221,-94.25151699999999
"64030","Grandview","MO","SpringBridge","6301 E 125th St","64030",38.896873474121094,-94.51882934570312
"64030","Grandview","MO","Research Medical Center- Pharmacy Department","2316 E Meyer Blvd, Kansas City, MO 64132","64132",38.87739106388444,-94.53254013270505
"64030","Grandview","MO","Grandview Animal Hospital","1006 Main St","64030",38.889673388475146,-94.53348893261212
"64030","Grandview","MO","Dr James Young","not_available","64030",38.85622233428912,-94.52563567001775
"64030","Grandview","MO","Concentra Urgent Care","12220 Blue Ridge Ext Ste A","64030",38.90329675301579,-94.53220619821877
"64030","Grandview","MO","The University of Kansas Health System Blue Ridge Family Physicians","12121 Blue Ridge Extension Ste M","64030",38.902453,-94.530413
"64036","Henrietta","MO","benchmark of lexington","not_available","64067",39.15985580165796,-93.88236231670568
"64037","Higginsville","MO","Meyer Memorial Care Center","1201 W 19th St","64037",39.07490144,-93.73957345
"64050","Independence","MO","Independence Animal Hospital","300 S Noland Rd","64050",39.08943,-94.413844
"64052","Independence","MO","Saint Joseph Hospital Sports Medicine And Rehabilitation","not_available","64052",39.05352020263672,-94.43403625488281
"64052","Independence","MO","tmc Lakewood urgent care","not_available","64015",39.0853239220558,-94.4605429655777
"64052","Independence","MO","My Daily Choice - CBD","10910 East Winner Road","64052",39.0879156,-94.4488377
"64053","Independence","MO","Room 628 (Centerpoint Medical Center)","not_available","64125",39.10371,-94.47767
"64055","Independence","MO","Two Rivers Psychiatric Hospital","5121 Raytown Rd","64133",39.033843709022406,-94.46748666038975
"64055","Independence","MO","CareNow Urgent Care - Independence","17700 E 39th St S","64055",39.0490824,-94.3707749
"64055","Independence","MO","Crossroads Hospice & Palliative Care","14310 East 42nd Street South Unit 600","64055",39.0452225,-94.41185929999999
"64063","Lees Summit","MO","Benchmark Of Lee's Summit","not_available","64081",38.910418,-94.403288
"64063","Lees Summit","MO","Lee's Summit Animal Hospital","411 SW Market St","64063",38.909316919185514,-94.37711644456016
"64063","Lees Summit","MO","LSMC Outpatient Therapy","2000 SE Blue Pkwy","64063",38.903621,-94.333845
"64063","Lees Summit","MO","CareNow Urgent Care - Lee's Summit","228 NW Oldham Pkwy","64081",38.9174808,-94.4016055
"64063","Lees Summit","MO","Rustic Oils CBD Of Lee’s Summit","618 SW 3rd St Ste J","64063",38.91153169657595,-94.39143771614681
"64063","Lees Summit","MO","Lees Summit Medical Center","not_available","64063",38.92047395111062,-94.33346311130708
"64063","Lees Summit","MO","Lee's Summit Medical Center Emergency Room","2100 SE Blue Pkwy","64063",38.90359,-94.3330751
"64063","Lees Summit","MO","John Knox Village EMS","400 NW Murray Rd","64081",38.92197799682617,-94.40339660644531
"64063","Lees Summit","MO","north kansas city hospital","not_available","64106",38.906311673998125,-94.34241698161463
"64064","Lees Summit","MO","Saint Lukes Hospital","4401 Wornall Rd","64111",38.95559761327701,-94.37889510820149
"64068","Liberty","MO","BioLife Plasma Services","9500 Terrace,NE 82nd","64158",39.241643,-94.4634066
"64068","Liberty","MO","Liberty Hospital","2525 Glenn Hendren Dr","64068",39.27460629604983,-94.4243912712245
"64068","Liberty","MO","Liberty Urgent Care Center","1177 W Kansas St","64068",39.2437629699707,-94.44104766845703
"64068","Liberty","MO","The University of Kansas Health System Cardiology","1530 N Church Rd","64068",39.267917,-94.445976
"64068","Liberty","MO","WOF First Aid","not_available","64161",39.17589569091797,-94.4869384765625
"64068","Liberty","MO","Liberty Hospital Birthing Center","2529 Glenn Hendren Dr, Medical Plaza East","64068",39.275196,-94.422458
"64068","Liberty","MO","Liberty Cardiac Rehab","not_available","64068",39.27481447827893,-94.424988838234
"64068","Liberty","MO","Northland Women's Health Care","8380 North Tullis Avenue","64158",39.2440709,-94.4871385
"64068","Liberty","MO","Southwestern Hearing Centers","1004 Middlebrook Drive","64068",39.240535736083984,-94.4375228881836
"64068","Liberty","MO","Liberty Hospital  Pre Surgical Testing","2522 Glen Hendren Dr","not_available",39.27505111694336,-94.42455291748047
"64068","Liberty","MO","Liberty Urgent Care","2 Victory Dr Ste 100","64068",39.244059,-94.44759499999999
"64068","Liberty","MO","My Eye Care","8560 N Church Rd","64157",39.246304,-94.460664
"64079","Platte City","MO","Leavenworth Va Hospital","Riverview Ave","66048",39.28222780567225,-94.89666171168363
"64079","Platte City","MO","Saint John Hospital","3500 S 4th St","66048",39.2825927,-94.90343469999999
"64079","Platte City","MO","urgent care","not_available","64153",39.27597774455967,-94.66949549779429
"64079","Platte City","MO","Saint John Hospital  Emergency Medicine","3550 S 4th St","66048",39.28271,-94.90318
"64079","Platte City","MO","The University of Kansas Health System Cardiology","3601 S 4th St Ste 1","66048",39.27982,-94.900588
"64081","Lees Summit","MO","Saint Luke's East Hospital","100 NE Saint Lukes Blvd","64086",38.942074003118805,-94.38158327867076
"64081","Lees Summit","MO","St Luke's Maternity","not_available","64086",38.94185756571999,-94.38130477781588
"64081","Lees Summit","MO","Va Med Center Audiology Clinic","not_available","66062",38.88032872309091,-94.43745573151165
"64082","Lees Summit","MO","Raymore Urgent Care","242 Broadmoor Dr","64083",38.81110382080078,-94.46900177001953
"64085","Richmond","MO","Ray County Hospital","not_available","64085",39.264610181550076,-93.95718507659448
"64089","Smithville","MO","Saint Luke's North Hospital–Smithville","601 S 169 Hwy","64089",39.376887065946946,-94.58119933493435
"64089","Smithville","MO","Saint Lukes Smithville","601 169th Hwy","64089",39.376284943912744,-94.58151464118814
"64093","Warrensburg","MO","Western Missouri Medical Center","403 Burkarth Road","64093",38.765869,-93.7224074
"64093","Warrensburg","MO","Western Missouri Medical Center Patient Accounts","403 Burkarth Rd, Warrensburg, MO 64093","64093",38.76605987548828,-93.72245025634766
"64093","Warrensburg","MO","ChiroHealth","420 E Young Ave","64093",38.77043151855469,-93.72948455810547
"64105","Kansas City","MO","Research Urgent Care","920 Main St #170","64105",39.103050231933594,-94.58336639404297
"64105","Kansas City","MO","Auto Car Center","1496  Ridge Road","67530",39.10022600175347,-94.58654522895813
"64106","Kansas City","MO","Sprint Center Urgent Care","1403 Grand Blvd.","64106",39.09722,-94.579948
"64106","Kansas City","MO","The University of Kansas Health System Primary Care and Urgent Care","1403 Grand Blvd","64106",39.096916,-94.580932
"64108","Kansas City","MO","Children's Mercy Hospital And Clinics","2401 Gillham Rd","64108",39.0847900512042,-94.57605943555693
"64108","Kansas City","MO","Truman Medical Center","2301 Holmes St","64108",39.08440650496947,-94.5750748591756
"64108","Kansas City","MO","Childrens Mercy Emergency Room","not_available","64109",39.08300255933115,-94.57684605873055
"64108","Kansas City","MO","Childrens Mercy Orthopedic Clinic","not_available","64108",39.08465766821296,-94.577891386875
"64108","Kansas City","MO","Children's Mercy Hospital Henson Tower","2301 Gillham Rd","64108",39.08336049635093,-94.57693909190054
"64108","Kansas City","MO","Eye Foundation","2300 Holmes St","64108",39.08475,-94.576169
"64108","Kansas City","MO","Spira Care","1919 Grand Blvd","64108",39.08963025886248,-94.58166546112162
"64108","Kansas City","MO","Truman Medical Centers Room #429A","2525 Holmes St","64108",39.080572,-94.575716
"64109","Kansas City","MO","St. Lukes- ER","not_available","64111",39.05628589127374,-94.57473728875615
"64110","Kansas City","MO","Truman Medical Center","241130 Holmes","64109",39.01423752580144,-94.57355832796834
"64111","Kansas City","MO","Saint Luke's Hospital of Kansas City Medical Plaza I","4320 Wornall Rd, Stes 100 – 750","64111",39.048658403521785,-94.59040783038806
"64111","Kansas City","MO","St Lukes Womens Center","4300 Wornall","64111",39.05100335382694,-94.59072632710772
"64111","Kansas City","MO","Saint Luke’s Outpatient Infusion Center","4401 Wornall Rd Rm 1211","64111",39.048126,-94.589502
"64111","Kansas City","MO","St Luke's Hospital","not_available","64112",39.04230052948982,-94.58666941186641
"64111","Kansas City","MO","Beer-tub Russian Roulette","500 Westport Rd, Kansas City, MO 64111","64111",39.05289077758789,-94.5916748046875
"64114","Kansas City","MO","CareNow Urgent Care - State Line Road","8951 State Line Rd","64114",38.96631622314453,-94.60765838623047
"64114","Kansas City","MO","St. Joseph Hospital","1000 Carondelet Dr","64114",38.93581863119641,-94.60376090469802
"64114","Kansas City","MO","University Of Kansas Medical Center","not_available","66208",38.99430991668322,-94.60841398851863
"64114","Kansas City","MO","St. Joseph Hospital Room 543","not_available","64114",38.93604,-94.604141
"64114","Kansas City","MO","Mid America Rehabilitation Hospital","5701 W 110th St","66211",38.93566559904716,-94.60676040928824
"64114","Kansas City","MO","Encompass Medical Group Wornall Urgent Care","373 W. 101st Twrrace","64114",38.943391397749814,-94.59513029884639
"64114","Kansas City","MO","Childrens Mercy","not_available","64137",38.9293179651226,-94.59595288738973
"64114","Kansas City","MO","Encompass Medical Group","373 W 101st Ter #110","64114",38.94341,-94.5951
"64114","Kansas City","MO","St. Joseph Hospital Rm 411","1000 Carondelet Dr, Kansas City, MO 64114","64114",38.935420989990234,-94.60395812988281
"64114","Kansas City","MO","Carondelet pharmacy","1000 Carondelet Dr Ste 120","64114",38.935420989990234,-94.60395812988281
"64116","Kansas City","MO","North Kansas City Hospital","2800 Clay Edwards Dr","64116",39.14891598029977,-94.55109670717637
"64116","Kansas City","MO","NKC Hospital Emergency Room","not_available","64116",39.150767968143015,-94.55055739865237
"64116","Kansas City","MO","North Kansas City Hospital Health Services Pavilion Neurology","2790 Clay Edwards Dr Ste 405","64116",39.14912,-94.55221
"64116","Kansas City","MO","Pavilion Surgery","2750 Clay Edwards Dr","64116",39.15085220336914,-94.55268859863281
"64116","Kansas City","MO","Relay For Life Committee Meeting","Clay Edwards Drive","64116",39.14891773342024,-94.5511478399214
"64116","Kansas City","MO","North Kansas City Hospital Radiology","2790 Clay Edwards Dr","64116",39.149733,-94.552663
"64116","Kansas City","MO","Concentra Urgent Care","599 Armour Rd","64116",39.14217471361714,-94.57355797290802
"64116","Kansas City","MO","Gift of Life Garden","not_available","64117",39.16272735595703,-94.54808807373047
"64116","Kansas City","MO","Rural Hospital Group","4770 N Belleview Ave","64116",39.17936325073242,-94.59172821044922
"64118","Kansas City","MO","Excelsior Springs Medical Center","not_available","64118",39.240447,-94.554564
"64118","Kansas City","MO","Childrens Mercy Northland","501 NW Barry Rd","64155",39.24456996583785,-94.5872672342911
"64118","Kansas City","MO","The University of Kansas Health System Creekwood Family Care","6420 N Prospect Ave","64119",39.210291,-94.549906
"64118","Kansas City","MO","Drug Rehab Kansas City MO","721 NE 76th St","64118",39.23141860961914,-94.5718765258789
"64118","Kansas City","MO","Englewood Center","101 Nw Englewood Rd Ste 130","64118",39.196266,-94.582441
"64118","Kansas City","MO","Creekwood Urgent Care","6420 N. Prospect Ave.","64119",39.1956353,-94.5475883
"64120","Kansas City","MO","Concentra Urgent Care","6401 E Front St","64120",39.12975012632994,-94.50708236545609
"64123","Kansas City","MO","Children's Mercy Sports Medicine","not_available","64124",39.10625076293945,-94.5293960571289
"64127","Kansas City","MO","VA Medical Center 8W","4801 Lindwood Blvd","64109",39.09453364182704,-94.54367470395198
"64128","Kansas City","MO","Kansas City VA Medical Center","4801 E Linwood Blvd","64128",39.063713836915184,-94.52671438957434
"64128","Kansas City","MO","KCVA Pharmacy","not_available","64128",39.06395985051427,-94.52676324774771
"64129","Kansas City","MO","The University of Kansas Health System Sports Medicine and Performance Center","1 Arrowhead Dr","64129",39.048872,-94.484065
"64129","Kansas City","MO","Medical Center Emergency Room","not_available","64129",39.06680061782865,-94.49600493404299
"64129","Kansas City","MO","KU Hospital Admissions","not_available","66103",39.01946238687093,-94.48077318822203
"64130","Kansas City","MO","The Search","not_available","64130",39.04773335994427,-94.55757435399383
"64131","Kansas City","MO","Research Medical Center Emergency Department","2316 E Meyer Blvd","64132",39.00843249926109,-94.55750887625543
"64131","Kansas City","MO","Research Brookside Health and Rehabilitation Center","not_available","64131",39.006700080667095,-94.57839525341825
"64131","Kansas City","MO","Research Medical Center Brookside Campus","6601 Rockhill Rd","64131",39.007137504561435,-94.5773717575139
"64131","Kansas City","MO","The University of Kansas Health System South Kansas City Medical Pavilion","1000 E 101st Terr","64131",38.9437964,-94.57830899999999
"64131","Kansas City","MO","The University of Kansas Health System South Kansas City Medical Pavilion Cardiology","1000 E 101st Ter","64131",38.94381,-94.578829
"64131","Kansas City","MO","Research Medical Center ICU Waiting Room","not_available","64132",39.008872,-94.558141
"64131","Kansas City","MO","Childrens Mercy South","not_available","66211",38.9264739170942,-94.57008709239668
"64133","Kansas City","MO","CareNow Urgent Care - Raytown","9490 E State Route 350","64133",38.9926769,-94.469179
"64134","Kansas City","MO","Crittenton Childrens Center","10918 Elm Ave","64134",38.92376924491096,-94.48067193100289
"64138","Kansas City","MO","Truman Medical Center Lakewood Education Center","not_available","64138",38.97365951538086,-94.43265533447266
"64139","Kansas City","MO","Truman Medical Center Lakewood","7900 Lees Summit","64081",38.975421249839606,-94.39297175499603
"64139","Kansas City","MO","The Birds @ Truman Lakewood","7900 Lee's Summit Road","64139",38.97458234003697,-94.39483608876448
"64139","Kansas City","MO","Truman Med Surgery Center","not_available","64139",38.97562083372302,-94.39439921737882
"64145","Kansas City","MO","CareNow Urgent Care - South Kansas City","13551 Madison Ave","64145",38.882216,-94.605064
"64145","Kansas City","MO","CBD American Shaman State Line","13125 State Line Rd","64145",38.8890567,-94.6072923
"64150","Riverside","MO","Riverside Rehabilitation Center","not_available","64150",39.173278481962015,-94.62078718093622
"64151","Kansas City","MO","First Point Urgent Care","8144 NW Prairie View Rd","64151",39.2421672,-94.65947349999999
"64151","Kansas City","MO","CareSpot","6344 N Chatham Ave","64151",39.209888,-94.644185
"64152","Kansas City","MO","Saint Luke's Convenient Care - Price Chopper 45 Hwy","9107 NW Highway 45","64152",39.209342,-94.685928
"64152","Kansas City","MO","Laferla Family Eyecare","8301 N Congress Ave","64152",39.24564960745405,-94.66788428417414
"64154","Kansas City","MO","St Luke's ER","not_available","64154",39.248782411067744,-94.64969413697534
"64154","Kansas City","MO","Rehabilitation Services","5844 NW Barry Rd Ste 100","64154",39.24809976122914,-94.64940151022199
"64154","Kansas City","MO","My Eye Care","8924 Northwest Skyview Avenue","64154",39.2574637,-94.651238
"64154","Kansas City","MO","Maureen H Sheehan, MD","8700 N Green Hills Rd","64154",39.252791,-94.632237
"64155","Kansas City","MO","st lukes north","not_available","64155",39.304325103759766,-94.58601379394531
"64402","Albany","MO","Mosaic Medical Center - Albany","705 N College St","64402",40.252803420320596,-94.32439943305981
"64424","Bethany","MO","Harrison County Community Hospital","Miller St","64424",40.26478576660156,-94.02562713623047
"64429","Cameron","MO","Cameron Ambulance","not_available","64429",39.737999368848016,-94.23612674989009
"64429","Cameron","MO","Cameron Regional Medical Center","Jones Road","64429",39.73061503456665,-94.21824619373149
"64439","Dearborn","MO","DAFPD ambulance","not_available","64439",39.525482177734375,-94.77201080322266
"64446","Fairfax","MO","Community Hospital Fairfax","26136 US Highway 59","64446",40.34943771362305,-95.3951187133789
"64451","Forest City","MO","Atchison Holt Ems Mound City Station","27858 hwy 159","64451",40.079466104507446,-95.18943071365356
"64468","Maryville","MO","St. Francis Hospital and Health Services","2016 S Main St","64468",40.3262587648065,-94.87628300228964
"64501","Saint Joseph","MO","Missouri State Insane Assylum","not_available","64506",39.77630253273342,-94.80990480346492
"64503","Saint Joseph","MO","Claudia Costa, MD","901 Heartland Road, Plaza 2, Suite 2800","64506",39.773911915570466,-94.77175712585449
"64503","Saint Joseph","MO","The University of Kansas Health System Cardiology","3943 Sherman Ave","64506",39.781064,-94.798516
"64503","Saint Joseph","MO","Pamela Lotz, ACNS","902 N. Riverside Road, Suite 200","64507",39.7760352057032,-94.76926803588867
"64503","Saint Joseph","MO","HRMC Plaza 1","802 N Riverside","64506",39.77347058895824,-94.76911052008548
"64503","Saint Joseph","MO","Cassandra Munoz, APRN","802 N. Riverside Road, Plaza I Suite G50","64507",39.773417158945875,-94.7696328163147
"64503","Saint Joseph","MO","Heather Runde, FNP","711 N. 36th St.","64506",39.77262554094965,-94.80482339859009
"64503","Saint Joseph","MO","Ronda Damgar, APRN","802 North Riverside, Suite 225","64507",39.773417158945875,-94.76965427398682
"64503","Saint Joseph","MO","Tiffany Vorderstrasse, FNP","105 Far West Drive, Suite 100","64506",39.76884873810473,-94.77242231369019
"64503","Saint Joseph","MO","Christine Howard, FNP","901 Heartland Road, Plaza 2, Suite 3800","64506",39.77386244006803,-94.77173566818237
"64503","Saint Joseph","MO","HRMC","5325 Faraon St","64506",39.77214081411885,-94.76970211214547
"64503","Saint Joseph","MO","Sandeep Sagar, MD","5514 Corporate Drive, Suite 150","64507",39.753350132579754,-94.76724243177159
"64503","Saint Joseph","MO","Della Taylor, FNP","901 Heartland Road, Plaza 2, Suite 4890","64506",39.77344131706678,-94.77174664847553
"64503","Saint Joseph","MO","James Weaver, FNP","1115 North Belt Highway","64506",39.777523531193616,-94.80267763137817
"64503","Saint Joseph","MO","clinica 94 IMSS","not_available","64507",39.76139831542969,-94.79682159423828
"64505","Saint Joseph","MO","Linda Gerhardt, FNP","5210 North Belt Highway, Entrance B & C","64506",39.81328313401992,-94.81656074523926
"64505","Saint Joseph","MO","Urgent Care Express","4776 Verona Drive","64506",39.810306549072266,-94.80313110351562
"64505","Saint Joseph","MO","Countryside Vet Clinic","5025 Frederick Ave","64506",39.78080749511719,-94.77663338184357
"64505","Saint Joseph","MO","St Joseph Center For Outpatient Surgery","4510 Frederick","not_available",39.77870094557235,-94.78460019256755
"64601","Chillicothe","MO","Hedrick Specialty Clinic","not_available","64601",39.80065713356434,-93.54598476957585
"64628","Brookfield","MO","Pershing Memorial Hospital","103 East Lockling","64628",39.77571105957031,-93.0677719116211
"64633","Carrollton","MO","Carroll County Memorial Hospital","not_available","64633",39.376249797140254,-93.4934242385877
"64683","Trenton","MO","Wright Memorial Hospital","191 Iowa Blvd","64683",40.06766834685648,-93.58174388296902
"64683","Trenton","MO","Wright Memorial Hospital","3799 Serendipity Ln","64683",40.06738565364708,-93.58212385130729
"64683","Trenton","MO","Wright Memorial Hospital","First Street","64683",40.06710206525146,-93.61126115457068
"64735","Clinton","MO","GVMH","1600 N 2nd St","64735",38.38958740234375,-93.7686767578125
"64759","Lamar","MO","Barton County EMS","1100 Cherry St","64759",37.49441909790039,-94.2789535522461
"64759","Lamar","MO","Barton County Memorial Hospital","29 NW 1st Ln","64759",37.50543975830078,-94.30047607421875
"64763","Lowry City","MO","Bartle Scout Reservation Health Lodge","not_available","64776",38.09262764794588,-93.56388455710483
"64772","Nevada","MO","Nevada Regional Medical Center","800 S Ash St","64772",37.830414,-94.360363
"64772","Nevada","MO","NowCare Clinic","345 S Barrett Ln","64772",37.8347457,-94.3274359
"64772","Nevada","MO","Nevada Urgent Care","111 N Elm St, Nevada, MO 64772","64772",37.83881759643555,-94.35185241699219
"64772","Nevada","MO","Heartland","not_available","64772",37.84569923445362,-94.37271078762272
"64772","Nevada","MO","LBMMC - PT Lab","Atlantic, Nevada, MO 64772","64772",37.850799560546875,-94.35045623779297
"64801","Joplin","MO","Freeman Urgent Care - Webb City","1636 S Madison St","64870",37.12818934153615,-94.47614550590515
"64801","Joplin","MO","Mercy Convenient Care - S. Range Line","1717 S Range Line Rd Ste B","64804",37.07105396103343,-94.47573223505907
"64801","Joplin","MO","Joplin, MO KW","not_available","64804",37.061295127753226,-94.42675241841933
"64801","Joplin","MO","Joplin urgent care","not_available","64801",37.11446500019521,-94.47678990262445
"64801","Joplin","MO","Mercy Convenient Care - Stone's Corner","6151 N Main Street Rd","64870",37.14433624542218,-94.51171731779095
"64804","Joplin","MO","Mercy Hospital Joplin","100 Mercy Way","64804",37.03647984317174,-94.50972624801022
"64804","Joplin","MO","Freeman Hospital East","932 E 34th St","64804",37.05063900101202,-94.50623989105225
"64804","Joplin","MO","Freeman Heart Institute","3300-3336 McIntosh Cir","64804",37.0530668862712,-94.52606076551774
"64804","Joplin","MO","BioLife Plasma Services","1803 St.,West 32nd","64804",37.055772948014926,-94.53543228795253
"64804","Joplin","MO","Freeman Urgent Care - Joplin","1130 E 32nd St","64804",37.05446376439812,-94.5030266046524
"64804","Joplin","MO","Mercy Convenient Care - 50th Street","202 E 50th St","64804",37.03230750316874,-94.51397578802869
"64804","Joplin","MO","Freeman Rehabilitation & Sports Center","2206 E 32nd St","64804",37.05430603027344,-94.49089813232422
"64804","Joplin","MO","Freeman Hospital West","1102 W 32nd St","64804",37.05227915401188,-94.52636053871176
"64804","Joplin","MO","Mercy Hospital","2817 Saint Johns Blvd","64804",37.05778503417969,-94.52711486816406
"64836","Carthage","MO","Legget & Platt Wellness Center","Dr. Russell Smith Way","64836",37.12191360738214,-94.32619578403688
"64836","Carthage","MO","McCune Brooks Hospital","not_available","64836",37.13565876933004,-94.32095529865985
"64836","Carthage","MO","Ozark Center - Carthage","1632 Missouri Ave","64836",37.16076906155395,-94.31551867397502
"64836","Carthage","MO","LOONY BIN","not_available","64859",37.18353355855464,-94.1459958545283
"64836","Carthage","MO","Mercy Hospital Carthage","3125 Dr Russell Smith Way","64836",37.13611696727468,-94.32129696121939
"64850","Neosho","MO","Freeman Neosho Radiology","not_available","64850",36.86728428236826,-94.36890618043392
"64850","Neosho","MO","Freeman Neosho Hospital","113 W Hickory St","64850",36.866626680377955,-94.36960132918085
"65010","Ashland","MO","Hannibal Hospital","not_available","65010",38.800447,-92.286016
"65013","Belle","MO","Ozark central ambulance","102 North Vienna","65013",38.289422864649495,-91.71840373959243
"65018","California","MO","Capital Region Physicians - California","704 Buchanan St","65018",38.62762710348283,-92.56029602495693
"65020","Camdenton","MO","Lake Regional Hospital","54 Hospital Dr","65065",38.120802658917384,-92.68245775785319
"65020","Camdenton","MO","Lake Regional Cancer Center","not_available","65065",38.120456,-92.682969
"65020","Camdenton","MO","Lake Regional Urgent Care","Osage Beach, MO","65065",38.11796569824219,-92.67972564697266
"65020","Camdenton","MO","Lake Regional Health System","54 Hospital Drive","65065",38.12004852294922,-92.68294525146484
"65020","Camdenton","MO","University of Missouri Womens and Childrens hospital","not_available","65020",38.005638122558594,-92.7525405883789
"65020","Camdenton","MO","Lake Regional Imaging Partners LLC","1075 Nichols Rd","65065",38.1219156,-92.6801996
"65020","Camdenton","MO","Lake Regional Urgent Care","111 Medical Park Dr","not_available",38.121463474220825,-92.68086489911484
"65026","Eldon","MO","Lake Regional Urgent Care – Eldon","304 E 4th St","65026",38.34633388134698,-92.57872134447098
"65026","Eldon","MO","Capital Region Physicians - Eldon","103 N Business 54","65026",38.351134205019456,-92.57366497100232
"65037","Gravois Mills","MO","Lake Regional Clinic – Laurie","156 Missouri Blvd.","65037",38.19728088378906,-92.8275375366211
"65037","Gravois Mills","MO","WestValley Urgent Care","14811 w. Bell Rd Ste 101","85374",38.2160758972168,-92.76953887939453
"65041","Hermann","MO","Hermann District Hospital","not_available","65041",38.69323298211158,-91.44967789948292
"65043","Holts Summit","MO","Capital Region Medical Center","1125 Madison St","65101",38.56592848477245,-92.18174856948487
"65043","Holts Summit","MO","Capital Region Physicians - Holts Summit","180 Northstar Dr","65043",38.656390144966416,-92.11544040978654
"65043","Holts Summit","MO","St Marys Emergency Room","not_available","65109",38.57944392898575,-92.18263171660266
"65047","Kaiser","MO","St. Marys Urgent Care","not_available","65049",38.18696098778551,-92.63976114987297
"65051","Linn","MO","Osage Amublance District","Hwy 89 S","65051",38.48544724830187,-91.8138913374537
"65051","Linn","MO","Capital Region Physicians - Linn","916 E Main St","65051",38.48154757511887,-91.84568266489087
"65101","Jefferson City","MO","SSM Health St. Mary's Hospital - Jefferson City","2505 Mission Dr","65109",38.55816662907699,-92.22083687782288
"65101","Jefferson City","MO","Health Branch West Urgent Care","3308 W Edgewood Dr","65109",38.56951904296875,-92.24352264404297
"65101","Jefferson City","MO","Capital Region Quick Care","3721 W Truman Blvd","65109",38.58811567623617,-92.25348175494284
"65101","Jefferson City","MO","Capital Region Physicians – Center of Orthopedic Excellence","3308 W Edgewood Dr Suite A","65109",38.569727262196466,-92.2431027605651
"65101","Jefferson City","MO","Capital Region Urgent Care","3308 W Edgewood Dr Ste B","65109",38.56951904296875,-92.24352264404297
"65101","Jefferson City","MO","Youroptions.com","1731 Southridge Dr","65109",38.55625915527344,-92.19664764404297
"65201","Columbia","MO","University Hospital","1 Hospital Dr","65211",38.938315427413905,-92.32747077941895
"65201","Columbia","MO","Harry S. Truman Memorial Veterans Hospital","800 Hospital Dr","65201",38.93676207898987,-92.3285251347237
"65201","Columbia","MO","University of Missouri Orthopedic Hospital","not_available","65201",38.936229490865415,-92.32619267664454
"65201","Columbia","MO","Boone Hospital Center","1600 E Broadway","65201",38.94922895116787,-92.31638271192753
"65201","Columbia","MO","Boone Medical Plaza, Bldg 3","1701 E Broadway","65201",38.950409940881016,-92.31373992539191
"65201","Columbia","MO","Student Health Center","1020 Hitt St","65212",38.938495831413995,-92.32486004363226
"65201","Columbia","MO","CICU","University Hospital","not_available",38.93893019392867,-92.32779803889787
"65201","Columbia","MO","Ellis Fischel Kidney Program","not_available","65203",38.967096,-92.339103
"65201","Columbia","MO","James C Ronald MD","1 Hospital Dr","65212",38.93871877445671,-92.32825845501793
"65201","Columbia","MO","Cardiac Clinic","not_available","65211",38.938388,-92.327537
"65201","Columbia","MO","Drunkard's Rehabilitation Center","101 W Parkway","not_available",38.95014641373172,-92.34277084876875
"65201","Columbia","MO","Providence Urgent Care","2910 Trimble Rd Ste 105","65201",38.94707727865256,-92.29509115219116
"65202","Columbia","MO","Boone Hospital Joint Replacement Center","not_available","65284",39.11779721793844,-92.32980119187836
"65202","Columbia","MO","Center Pointe Hospital","1201 International Dr","65202",39.00690460205078,-92.32139587402344
"65202","Columbia","MO","Women's And Children's Hospital","400 N Keene St","65201",38.955988,-92.289143
"65202","Columbia","MO","South Pavilion","Keene street","not_available",38.95613275446373,-92.28967789744041
"65202","Columbia","MO","Columbia Regional Hospital","404 N Keene St","65201",38.95886993408203,-92.28816223144531
"65202","Columbia","MO","Center Pointe Hospital","not_available","65202",39.007057,-92.321559
"65202","Columbia","MO","Broadway Urgent Care","2003 W Broadway Ste 100","65203",38.95441,-92.370266
"65202","Columbia","MO","American Response Vehicles","521 Hillsdale Rd","65201",38.956628,-92.276971
"65202","Columbia","MO","Great Grannys","925 Sondra Ave","65202",38.970133,-92.352038
"65202","Columbia","MO","Rusk Rehabilitation Hospital, an affiliation of Encompass Health and MU Health Care","315 W Business Loop 70","65203",38.966225,-92.3420576
"65202","Columbia","MO","cancer research center","3501 Berrywood Dr","65201",38.958391,-92.28625
"65202","Columbia","MO","Providence Urgent Care","403 N. Stadium Blvd. Ste. 104","65203",38.960224787319554,-92.371916661877
"65203","Columbia","MO","Restoration Eye Care","1410 Forum Katy Pkwy","65203",38.934374,-92.360021
"65203","Columbia","MO","Kindred at Home","2404 Forum Blvd","65203",38.92663209,-92.36341467
"65251","Fulton","MO","Callaway ER","not_available","65251",38.8432624984606,-91.96585268396305
"65251","Fulton","MO","Fulton State Hospital","5th St Cir","65251",38.844098820791544,-91.93378990430966
"65251","Fulton","MO","Fulton Medical Center","10 S Hospital Dr","65251",38.843406677246094,-91.9657211303711
"65251","Fulton","MO","fulton state hospital GFC","Missouri O, Fulton, MO 65251","65251",38.84413396754489,-91.93376714908132
"65251","Fulton","MO","Fulton State Hospital","201-299 E 2nd St","65251",38.84446700218108,-91.93318850158781
"65251","Fulton","MO","Callaway Community Hospital","10 N Hospital Dr","65251",38.843649244662345,-91.96555176367079
"65265","Mexico","MO","Amc Respiratory Therapy","not_available","65265",39.172028,-91.87791
"65270","Moberly","MO","Moberly Regional Medical Center - Emergency Room","1515 Union Ave","65270",39.4252369,-92.4136863
"65270","Moberly","MO","Boone Hospital Center","not_available","65270",39.40591812133789,-92.43500518798828
"65301","Sedalia","MO","AFC Urgent Care Sedalia","115 W Broadway Blvd","65301",38.70387,-93.22895
"65301","Sedalia","MO","Bothwell Regional Nuclear Medicine","not_available","65301",38.699342,-93.220351
"65301","Sedalia","MO","Children's Therapy Center","1500 Ewing Dr","65301",38.7245871,-93.247953
"65305","Whiteman Air Force Base","MO","Base Vet","not_available","65305",38.730293,-93.563999
"65323","Calhoun","MO","Royal Oaks Hospital","not_available","65360",38.533779470818565,-93.51891258909757
"65340","Marshall","MO","Fitzgibbon Hospital","2305 S Highway 65","65340",39.09210461991851,-93.21231246523541
"65351","Sweet Springs","MO","I-70 Medical Center","not_available","65351",38.97858215528282,-93.41702268195947
"65401","Rolla","MO","Surgery Second Floor PCMC","not_available","65401",37.953036,-91.781118
"65401","Rolla","MO","Phelps Health Walk-in Clinic","1050 W 10th St","65401",37.95159149169922,-91.78558349609375
"65401","Rolla","MO","Mercy Convenient Care - Rolla","1605 Martin Springs Dr Ste 210","65401",37.94024480505961,-91.7971176631537
"65444","Bucyrus","MO","Texas County Memorial Hospital","Bluebell Ln","65483",37.31609445019918,-91.96137730250123
"65459","Dixon","MO","Capital Region Physicians - Vienna","111 Parkway","65582",38.18670315873623,-91.95521179179114
"65464","Elk Creek","MO","RS Brayat Minulya","Solo","not_available",37.2333829,-91.9532093
"65473","Fort Leonard Wood","MO","Pre Op 3rd Floor","not_available","65473",37.762621,-92.127849
"65473","Fort Leonard Wood","MO","GLWACH Lab","Missouri Ave","not_available",37.77822268718689,-92.12059922021993
"65536","Lebanon","MO","Mercy Lebanon Hospital","not_available","65536",37.68325424194336,-92.63285064697266
"65536","Lebanon","MO","Mercy Urgent Care - Lebanon","120 Hospital Dr Ste 250","65536",37.68131673657093,-92.63378563558194
"65536","Lebanon","MO","Christian Healthcare North","596 Morton Rd","65536",37.66883850097656,-92.6576919555664
"65536","Lebanon","MO","Mercy Emergency Department - Lebanon","100 Hospital Dr","65536",37.681511,-92.634144
"65536","Lebanon","MO","Medical Center Of Arlington Education And Research Department","Omega Dr.","65722",37.58884048461914,-92.70459747314453
"65548","Mountain View","MO","Mercy Emergency Department - Mountain View","100 W US Highway 60","65548",37.00242090976972,-91.70320360500261
"65548","Mountain View","MO","St Johns EMS","8th St","65548",37.00221018874402,-91.70245248606706
"65560","Salem","MO","Salem Memorial Hospital","not_available","65560",37.66038419020347,-91.5695245588254
"65583","Waynesville","MO","Lake regional hospital","not_available","65583",37.8254986723495,-92.21240005201011
"65605","Aurora","MO","Aurora Nursing Center","1760-1832 S Hudson Ave","65605",36.95713796135384,-93.70903840956068
"65605","Aurora","MO","St. John's Conference Room","not_available","65605",36.9655119,-93.6934782
"65605","Aurora","MO","Mercy Emergency Department - Aurora","500 Porter Ave","65605",36.969808583921285,-93.71010702211157
"65611","Blue Eye","MO","Mercy EMS Stone County South Station","6578 N Highway 13","65611",36.564056034669214,-93.43826229543926
"65613","Bolivar","MO","Citizens Memorial Hospital","1500 N Butterfield Rd","65613",37.6245442,-93.42095778333334
"65613","Bolivar","MO","Park View Manor","not_available","65613",37.62397902556416,-93.41535740821416
"65613","Bolivar","MO","Citizens Memorial Hospital","1500 N Oakland Ave","65613",37.626584525277835,-93.42027948864546
"65616","Branson","MO","Cox Medical Center","545 Branson Landing Blvd","65616",36.650405170660356,-93.22231486439071
"65616","Branson","MO","Mercy Urgent Care - Branson Highway 248","448 State Highway 248 Ste 120","65616",36.6611289,-93.2240295
"65616","Branson","MO","Skaggs Education Center","not_available","65616",36.643673,-93.218514
"65616","Branson","MO","St Johns Urgent Care & Internal Medicine","1065 State Highway 248","65616",36.66282653808594,-93.23649597167969
"65625","Cassville","MO","Mercy Hospital Cassville","94 Main St","65625",36.67470236113903,-93.87232650429917
"65625","Cassville","MO","Mercy St Johns Hospital","not_available","65625",36.6747932434082,-93.87226867675781
"65656","Galena","MO","Mercy EMS Headquarters Stone County","50 Meadowlark Ln","65737",36.704342524646805,-93.3693825336419
"65669","Highlandville","MO","Cox North Addiction Center","not_available","65802",36.9542969698738,-93.29899153877241
"65682","Lockwood","MO","Travis Hawks, MD","1307 S Main St","65682",37.38231799229817,-93.9537422144611
"65686","Kimberling City","MO","Table Rock Healthcare","276 Fountain Ln","65686",36.642181396484375,-93.44764709472656
"65706","Marshfield","MO","Nut House","track rd","65706",37.35645486,-92.84769596
"65707","Miller","MO","St Johns Cedar County Stockton Station","816 St Hwy 39","not_available",37.18321990966797,-93.83917236328125
"65708","Monett","MO","Mercy Urgant Care","not_available","65708",36.928531646728516,-93.92517852783203
"65708","Monett","MO","St John's Clinic And Urgent Care","315 E Cleveland Ave","65708",36.92866134643555,-93.92535400390625
"65708","Monett","MO","Monett Cox Hospital","800-898 Euclid Ave","65708",36.9268798828125,-93.93075561523438
"65711","Mountain Grove","MO","Mercy EMS Mountain Grove North","323 E State St","65711",37.13111877441406,-92.25975036621094
"65712","Mount Vernon","MO","Missouri Rehabilitation Center","600 N Main St","65712",37.111887919189236,-93.82104679414239
"65712","Mount Vernon","MO","Gene Taylor VA Clinic","not_available","65712",37.111712494047445,-93.82076866127747
"65712","Mount Vernon","MO","Missouri Rehabilitation Center Radiology Department","600 N Main St, Mt Vernon, MO 65712","65712",37.11151885986328,-93.82147979736328
"65714","Nixa","MO","Ozarks Community Hospital","105 S Ridgecrest Ave","65714",37.042656989130755,-93.28402721101116
"65721","Ozark","MO","Sharlin Health and Neurology","5528 N. Farmer Branch Rd","65721",37.0712245,-93.2182964
"65742","Rogersville","MO","Mercy Surgery","3rd Floor","65742",37.0563,-93.10477
"65747","Shell Knob","MO","Shell Knob First Responders","not_available","65747",36.606153,-93.61153
"65775","West Plains","MO","Ozark Medical Center Emergency Room","not_available","65775",36.738914865446745,-91.87466254736708
"65775","West Plains","MO","OMC Urgent Care","181 N Kentucky Ave Ste 100","65775",36.728878021240234,-91.8767318725586
"65775","West Plains","MO","Ozarks Medical Center","1100 N Kentucky Ave","65775",36.7382692,-91.8746777
"65775","West Plains","MO","Burton Creek Rural Clinic","805 North Kentucky Avenue","65775",36.73484267,-91.87609418
"65775","West Plains","MO","SonoBed","10380 County Road 6310","65775",36.6691325,-91.9164831
"65802","Springfield","MO","Cox Medical Center North","1423 N Jefferson Ave","65802",37.224919,-93.289847
"65802","Springfield","MO","Mercy Hospital Springfield","1235 E Cherokee St","65804",37.17920164424407,-93.2745237267759
"65802","Springfield","MO","Mercy Hospital ER","not_available","65804",37.18073947203841,-93.2760053710147
"65802","Springfield","MO","Ozarks Community Hospital","2828 N National Ave","65803",37.24831258199485,-93.27220834318699
"65802","Springfield","MO","Cox EMS North Station","1750 N National Ave","65803",37.23007583618164,-93.27494049072266
"65802","Springfield","MO","H-4631","4th Floor","65804",37.178935,-93.274367
"65802","Springfield","MO","doctor Hospital","not_available","65803",37.25100618425006,-93.26314867718372
"65802","Springfield","MO","St. John's Clinic","2120 W Kearney St","65803",37.24062241707303,-93.31931683222334
"65802","Springfield","MO","Cox North Emergency Room","1423 N Jefferson Ave.","not_available",37.22532321839448,-93.2900868200326
"65802","Springfield","MO","BioLife Plasma Services","1815 McCurry","65807",37.18061065673828,-93.35967254638672
"65802","Springfield","MO","DCFS","406 East Monroe Street","not_available",37.2008684258293,-93.28710079193115
"65803","Springfield","MO","St Johns Mercy Nuclear Medicine Department","not_available","65807",37.22079536968284,-93.32916995997282
"65803","Springfield","MO","Concentra","1308 N Glenstone Ave","65802",37.22218628007143,-93.26115462903438
"65803","Springfield","MO","Mercy EMS Post 2","1601 E Kearney","65802",37.23932636264529,-93.26350230997058
"65804","Springfield","MO","Cox South Hospital","3801 S National Ave","65807",37.1447624882882,-93.27902154282839
"65804","Springfield","MO","Mercy Clinic - Smith Glynn Callaway","3231 S National Ave Ste 230","65807",37.155270952358684,-93.27959440244672
"65804","Springfield","MO","Mercy-GoHealth Urgent Care","900 E Battlefield St Ste 124","65807",37.1588989,-93.2835372
"65804","Springfield","MO","Meyer Orthopedic Center & Rehabilitation Hospital","3535 S National Ave","65807",37.1506544326163,-93.28017897934554
"65806","Springfield","MO","Lakeland Regional Hospital","440 S Market Ave","65806",37.204762526850466,-93.29495145744274
"65806","Springfield","MO","Lakeland Behavioral  Health System Residential Treatment Center","2323 W Grand St","65802",37.1982148,-93.3229132
"65807","Springfield","MO","Mercy-GoHealth Urgent Care","2150 W Republic Rd Ste 112","65807",37.1378755,-93.3226986
"65809","Springfield","MO","Mercy-GoHealth Urgent Care","3233 E Sunshine St Ste 100","65804",37.1809378,-93.2301356
"65810","Springfield","MO","Family Urgent Care","not_available","65810",37.136527,-93.305184
