"zip","city","state","name","address","postalCode","lat","lon"
"30002","Avondale Estates","GA","Emory University Hospital Emergency Department","not_available","30033",33.776245538376784,-84.26798419455261
"30004","Alpharetta","GA","CPR Training School","62 Roswell St","30009",34.07409719601414,-84.29760217666626
"30004","Alpharetta","GA","Piedmont Urgent Care By Wellstreet","not_available","30004",34.101946,-84.269775
"30004","Alpharetta","GA","Med Help Urgent Care","5304 Windward Pkwy","30004",34.08960723876953,-84.27375030517578
"30004","Alpharetta","GA","Urgent Care By North Fulton","not_available","not_available",34.145485,-84.252019
"30004","Alpharetta","GA","Harmony Pediatrics","1800 Abbey Court","30004",34.087216999999995,-84.354753
"30004","Alpharetta","GA","Urgent Care Center","5655 Atlanta Hwy Ste A","30004",34.145342,-84.251694
"30005","Alpharetta","GA","Peachtree Immediate Care - Johns Creek","2575 Peachtree Pkwy Ste 100","30041",34.0975809,-84.1765322
"30005","Alpharetta","GA","Northside Hospital Pharmacy","not_available","30005",34.06969863274881,-84.2627234980946
"30005","Alpharetta","GA","Arthritis and Total Joint Specialists: Alpharetta","3400 Old Milton Pkwy Ste C290","30005",34.0694578,-84.2638987
"30005","Alpharetta","GA","Shereen Timani, MD","6300 Hospital Pkwy Suite 100","30097",34.0677729,-84.1739287
"30005","Alpharetta","GA","Peachtree Immediate Care","2575 Peachtree Pkwy","30041",34.097490796018796,-84.17651623323039
"30005","Alpharetta","GA","Northside Hospital Alpharetta","3400 C Old Milton Parkway","30005",34.09438029066902,-84.20272487524983
"30005","Alpharetta","GA","Alpharetta Foot & Ankle Specialists","3400 Old Milton Pkwy Ste A500","30005",34.0694463,-84.2626353
"30005","Alpharetta","GA","Y Plastic & Reconstructive Surgery","3330 Preston Ridge Road #340","30005",34.0716733,-84.26574529999999
"30005","Alpharetta","GA","Just Pets","1675 Peachtree Pkwy","30041",34.120745,-84.170851
"30005","Alpharetta","GA","Newtown Medical Associates","3400 Old Milton Pkwy Bldg A Ste 200","30005",34.0694578,-84.2638987
"30005","Alpharetta","GA","Roswell Pediatric Center PC","Old Milton Parkway 545","30005",34.0645555,-84.2533845
"30005","Alpharetta","GA","Northside Hospital","3400 Old Milton Pkwy","30005",34.06955229668123,-84.26269012325625
"30005","Alpharetta","GA","Dom Bom","not_available","30022",34.05685487427402,-84.217574506907
"30005","Alpharetta","GA","Dr. Curves","6620 McGinnis Ferry Rd","30097",34.0662351,-84.1668023
"30005","Alpharetta","GA","Chacko Allergy, Asthma and Sinus Center of Johns Creek","3905 Johns Creek Court 200","30024",34.0689516,-84.1648524
"30005","Alpharetta","GA","North Point Pediatrics","3180 North Point Parkway Suite 410 - Building 400","30005",34.07049907063775,-84.26687638108004
"30005","Alpharetta","GA","Atlanta Cancer Care - Alpharetta","3400 Old Milton Pkwy Ste C400","30005",34.069340000000004,-84.26251500000001
"30005","Alpharetta","GA","Luna Plastic Surgery","6335","30097",34.06669,-84.176629
"30005","Alpharetta","GA","Emergency Room","not_available","30097",34.06717315189479,-84.17654245186841
"30005","Alpharetta","GA","Emory Heart & Vascular Center at Emory Johns Creek","6335 Hospital Parkway","30097",34.0662,-84.175936
"30005","Alpharetta","GA","Skylark Adult Day Center at Johns Creek","4265 Johns Creek Pkwy Ste B1","30024",34.07420349121094,-84.17033386230469
"30005","Alpharetta","GA","Chacko Allergy, Asthma and Sinus Center of Alpharetta","3333 Old Milton Parkway 520","30005",34.0669319,-84.265863
"30008","Marietta","GA","Wellstar Cobb Hospital","3950 Austell Rd","30106",33.85712992693495,-84.6039614290649
"30008","Marietta","GA","Wellstar Cobb ER","not_available","30106",33.85668477885897,-84.60573195320298
"30008","Marietta","GA","Peachtree Immediate Care - Austell","1850 E West Connector","30106",33.85455362570303,-84.60747064169885
"30008","Marietta","GA","Wellstar Cobb Inpatient Rehab 3rd floor Nprth","Austell Rd.","30106",33.85710715253689,-84.60418639265174
"30008","Marietta","GA","WellStar Dr. Ozmon Oncology","not_available","30008",33.855900902591515,-84.60468744476954
"30008","Marietta","GA","Wellstar Cobb Human Resources","1791 Mulkey Rd","30106",33.858638763427734,-84.60567474365234
"30008","Marietta","GA","American Family Care Marietta","3481 Ernest W Barrett Pkwy SW","30064",33.944586,-84.62357
"30008","Marietta","GA","WellStreet Austell Urgent Care","3999 Austell Rd #901","30106",33.85632389668365,-84.6012995898822
"30008","Marietta","GA","EMS Sleep Spot #2","not_available","30064",33.86762898533317,-84.62795091001873
"30008","Marietta","GA","PruittHealth - Austell","1700 Mulkey Rd SW","30106",33.8592163,-84.60394729
"30008","Marietta","GA","Cobb Er Xray","1700 Hospital South Dr","30106",33.85749974388037,-84.60474974725932
"30009","Alpharetta","GA","North Fulton Hospital","3000 Hospital Blvd","30076",34.06292096893977,-84.32042102026583
"30009","Alpharetta","GA","Roswell Internal Medicine Specialists","11785 Northfall Ln Ste 505","30009",34.067269,-84.307103
"30009","Alpharetta","GA","Georgia urgent care","not_available","30076",34.06670627640892,-84.32138755671096
"30009","Alpharetta","GA","Children's Healthcare of Atlanta Urgent Care Center - North Point","3795 Mansell Rd","30022",34.03685566388028,-84.29262963558199
"30009","Alpharetta","GA","Akiva D. Gimpelevich DO – OBGYN","634 Peachtree Parkway #200","30041",34.0624815,-84.3215802
"30009","Alpharetta","GA","Internal Medicine Associates of Roswell","1265 Upper Hembree Rd Ste 205","30076",34.06669616699219,-84.32186126708984
"30009","Alpharetta","GA","Central Ems","205 Hembree Park Dr","30076",34.05559294594036,-84.31688284502134
"30009","Alpharetta","GA","The Veranda - Alzheimers and Memory Care","11725 Pointe Pl","30076",34.06696319580078,-84.32738494873047
"30009","Alpharetta","GA","Northside Urgent Care and Family Medicine","11685 Alpharetta Hwy","30076",34.06509780883789,-84.31970977783203
"30011","Auburn","GA","GMC Outpatient Imaging - Hamilton Mill","2078 Teron Trce","30019",34.06690216064453,-83.90314483642578
"30011","Auburn","GA","Hamilton Plaza Animal Hospital","1342 Auburn Rd Ste 116","30019",33.98761969165215,-83.89609158039093
"30011","Auburn","GA","R. Vaughan, PA-C, MPAS","2084 Mitford Ct","30019",33.963606,-83.900262
"30011","Auburn","GA","UC Hospital Annex GA","not_available","30019",34.050339,-83.909364
"30011","Auburn","GA","The Little Clinic","505 Dacula Rd","30019",34.0010269,-83.9063892
"30012","Conyers","GA","Rockdale Medical Center","1412 Milstead Ave NE","30012",33.68180460999186,-84.00129302540472
"30012","Conyers","GA","Sick! Uuuugh","not_available","30038",33.678717,-84.08794
"30012","Conyers","GA","Gifted Hands Midwifery","4565 Michael Jay St","30039",33.762068,-84.018188
"30012","Conyers","GA","Conyers Animal Hospital","not_available","30094",33.66491673637048,-84.03457393781854
"30012","Conyers","GA","Room 252","Milstead","30012",33.68210287260249,-84.00121554944337
"30012","Conyers","GA","Atlanta Cancer Care - Conyers","1498 Klondike Rd SW Ste 106","30094",33.664638698101044,-84.0378000587225
"30013","Conyers","GA","Family Practice Urgent Care","not_available","30016",33.59315292978996,-83.96916302681547
"30013","Conyers","GA","Mercy Heart Clinic","2796 GA-20","30013",33.615164310984824,-84.01323437690735
"30013","Conyers","GA","Five Star Express Transit Inc.","2055 Gees Mill Rd NE Ste 324","30013",33.65092086791992,-83.97761535644531
"30013","Conyers","GA","Peachtree Immediate Care - Covington","13093 Brown Bridge Rd","30016",33.5785184,-83.96588679999999
"30014","Covington","GA","Piedmont Newton Hospital","5126 Hospital Dr NE","30014",33.60136038249509,-83.84783285152054
"30014","Covington","GA","Covington Sleep Center","4106 Mill Street Northeast","30014",33.5999333,-83.8499319
"30014","Covington","GA","surgical center","not_available","30014",33.60240173339844,-83.84748077392578
"30014","Covington","GA","KENNY ETHRIDGE PLUMBING","35 Dearing Trce","30014",33.57136917114258,-83.83391571044922
"30014","Covington","GA","Newton Medical Home Health","4168 Tate St NE, Covington, GA 30014","30014",33.60031509399414,-83.8479232788086
"30014","Covington","GA","Dermatology Consultants","4151 Hospital Drive","30014",33.60106,-83.84934
"30014","Covington","GA","Immediate MedCare","7129 Floyd St NE","30014",33.6005034,-83.8390574
"30014","Covington","GA","PruittHealth","4148 Carroll St SW","30014",33.595408,-83.870525
"30017","Grayson","GA","Eastside Urgent Care","2594 Loganville Hwy #101","30017",33.883495,-83.941006
"30017","Grayson","GA","Walgreens Healthcare Clinic","not_available","30017",33.894164,-83.95675
"30019","Dacula","GA","Sirleaf Home Care LLC","2433 Indian Bluffs Dr","30019",33.9555909,-83.8789323
"30019","Dacula","GA","Children's Healthcare of Atlanta Urgent Care Center - Hamilton Creek","2240 Hamilton Creek Pkwy Ste 600","30019",34.07472232541806,-83.91057676686478
"30021","Clarkston","GA","Emory Orthopedic and Spine Hospital","1459 Montreal Rd","30084",33.82610012,-84.24810125
"30021","Clarkston","GA","Northlake Surgical Center","not_available","30084",33.827484000000005,-84.249207
"30021","Clarkston","GA","Dekalb medical hospital at hillandale","not_available","30058",33.79564855153551,-84.2485435274399
"30022","Alpharetta","GA","North Atlanta Urgent Care","2701 Holcomb Bridge Rd","30022",33.99467940684042,-84.28095690533029
"30022","Alpharetta","GA","Bridge Park Animal Hospital","11105 State Bridge Rd","30022",34.051145,-84.224106
"30022","Alpharetta","GA","WellStreet Johns Creek Alpharetta Urgent Care","10945 State Bridge Rd","30022",34.04810590675669,-84.2234618653641
"30022","Alpharetta","GA","Johns Creek Newtown Urgent Care","3005 Old Alabama Rd #6000","30022",34.021387,-84.27267
"30022","Alpharetta","GA","Mental Health Associates","not_available","30308",34.04855094079543,-84.22647736773693
"30022","Alpharetta","GA","Endochoice, Inc.","11810 Wills Rd Ste 100 Ste 100","30009",34.059855,-84.308714
"30022","Alpharetta","GA","Adapt'd State","170 Fairway Ridge Dr","30022",33.99330520629883,-84.26112365722656
"30024","Suwanee","GA","Northside Hospital Duluth Emergency Department","not_available","30096",34.000183,-84.163666
"30024","Suwanee","GA","Gwinnett Medical Center-Duluth","3620 Howell Ferry Rd","30096",33.9994253630171,-84.16450837043838
"30024","Suwanee","GA","Fast Md 4 You","3473 Lawrenceville Suwanee Rd","30024",34.045158,-84.054901
"30024","Suwanee","GA","Laurel Springs Animal Hospital","not_available","30024",34.101963,-84.139761
"30024","Suwanee","GA","Reagan Medical Center","2696 Lawrenceville Suwanee Rd","30024",34.02156448364258,-84.04322052001953
"30024","Suwanee","GA","Perimeter North Family Medicine: Suwanee/Johns Creek","3890 Johns Creek Pkwy Ste 230","30024",34.067682,-84.162736
"30024","Suwanee","GA","Room 318","3855 Pleasant Hill Rd","30096",33.99967276666666,-84.1640692
"30024","Suwanee","GA","Chacko Allergy, Asthma and Sinus Center of Duluth","3855 Pleasant Hill Rd 420","30096",33.9990815,-84.1630503
"30024","Suwanee","GA","ChoiceOne Urgent Care","5910 Suwanee Dam Rd Ste 100","30518",34.1204948425293,-84.07642364501953
"30024","Suwanee","GA","Glancy Rehabilitation Center","3215 McClure Bridge Rd","30096",34.007486027252206,-84.15358166408924
"30024","Suwanee","GA","Gwinnett Urgent Care","1300 Peachtree Industrial Blvd #4101","30024",34.0419352,-84.0956078
"30030","Decatur","GA","DeKalb Medical at North Decatur","2701 North Decatur Rd","30033",33.79027493308192,-84.28231375955691
"30030","Decatur","GA","Winship Cancer Institute of Emory University","1365 Clifton Rd NE Bldg C","30322",33.79292448381382,-84.31955567260033
"30030","Decatur","GA","Atlanta VA Specialty Clinics","250 N Arcadia Ave","30030",33.781994902652976,-84.27829340822954
"30030","Decatur","GA","Children's Healthcare of Atlanta - Egleston Hospital","1405 Clifton Rd NE","30322",33.7934917,-84.3195325
"30030","Decatur","GA","Emory LTAC (Decatur)","450 N Candler St","30030",33.77753465581363,-84.29278943962136
"30030","Decatur","GA","Dekalb Medical Hospital Emergency","North Decatur Rd","30033",33.789933052031316,-84.2826516049465
"30030","Decatur","GA","Oscar Medical Center","3375 Memorial Dr","30032",33.750697,-84.273623
"30030","Decatur","GA","Emory Healthcare Breast Imaging Center","not_available","30307",33.792298543847956,-84.31971268635496
"30030","Decatur","GA","Dekalb Medical Labor And Delivery","2701 N Decatur Rd","30033",33.79153238270607,-84.28166202562339
"30030","Decatur","GA","Waiting Room","Children's Healthcare of Atlanta at Egleston","30322",33.793655012336366,-84.3195174529845
"30030","Decatur","GA","Rheumatology Associates of DeKalb: DeKalb Medical Physicians Group","2712 N Decatur Rd","30033",33.79268328113402,-84.28248524665833
"30030","Decatur","GA","Occupational Therapy - VA","not_available","30030",33.788593,-84.304472
"30030","Decatur","GA","GoNow Doctors","1418 Scott Blvd","30033",33.792307,-84.29289200000001
"30030","Decatur","GA","Urgent Care","2891 N Decatur Rd","30033",33.793270111083984,-84.27256774902344
"30030","Decatur","GA","David Fern","2665 N Decatur Rd Ste 730","30033",33.7913095,-84.2836813
"30030","Decatur","GA","American CareSource Decatur","1418 Scott Blvd","30030",33.79162155877195,-84.29404939611625
"30030","Decatur","GA","Children's Healthcare of Atlanta Surgical Services","1405 Clifton Rd","30322",33.79340362548828,-84.31951141357422
"30032","Decatur","GA","View Point Health Adolescent CSU","2591 Candler Rd","30032",33.714622497558594,-84.27346801757812
"30032","Decatur","GA","Glenwood Health and Rehabilitation Center","4115 Glenwood Rd","30032",33.7372932434082,-84.24966430664062
"30033","Decatur","GA","VA Medical Center","1670 Clairmont Rd","30033",33.80184587127956,-84.311337623904
"30033","Decatur","GA","Emory Hospital Tower","Clifton Rd","30322",33.791218,-84.32057
"30033","Decatur","GA","Piedmont Urgent Care by WellSteet","2700 Clairmont Rd NE","30329",33.83512878417969,-84.31161499023438
"30033","Decatur","GA","Emory University Hospital -  Emergency Room","1364 Clifton Road","30307",33.79217303356369,-84.32130788072732
"30033","Decatur","GA","Atlanta Urgent Care","2738 Clairmont Rd NE","30329",33.836502,-84.311996
"30033","Decatur","GA","VA Hospital Room 8C167","not_available","30329",33.817827628256296,-84.31240127110311
"30034","Decatur","GA","PruittHealth - Decatur","3200 Panthersville Road","30034",33.69547298,-84.27089763
"30034","Decatur","GA","Georgia Regional Hospital","3073 Panthersville Rd","30034",33.69684809492276,-84.27928566091124
"30034","Decatur","GA","Journey of Wellness Natural Medicine Center, LLC","4153-C Flat Shoals Pkwy","30034",33.6874838,-84.2551831
"30034","Decatur","GA","Amicasa Home Care","3482 Flat Shoals Rd","30034",33.705459999999995,-84.27265799999999
"30035","Decatur","GA","Southeast Atlanta Vascular Care","5461 Hillandale Drive","30058-4842",33.70451736450195,-84.16727447509766
"30035","Decatur","GA","MedPost Urgent Care","1234 S Hairston Rd","30088",33.75943374633789,-84.19538116455078
"30038","Lithonia","GA","The Walk In Clinic","2890 Highway 212 SW, E","30094",33.6173233,-84.0812327
"30039","Snellville","GA","Peachtree Immediate Care - Snellville","3991 Highway 78 W","30039",33.838795238995175,-84.06857895337293
"30039","Snellville","GA","Ngmt Snellville","not_available","30039",33.83661667816599,-84.05650821902987
"30039","Snellville","GA","BioLife Plasma Services","3440 Centerville Hwy","30039",33.805574,-84.04253100000001
"30039","Snellville","GA","MediPx, LLC.","4002 Highway 78 W","30039",33.8368110656738,-84.0680160522461
"30039","Snellville","GA","Eastside Urgent Care","3641 Centerville Hwy, Suite A,","30039",33.7998011,-84.04196569999999
"30039","Snellville","GA","First Class Pediatric Dentistry","3966 Annistown Rd","30039",33.80452080000001,-84.04632649999999
"30040","Cumming","GA","Northside Emergency Room","not_available","30041",34.17950400622443,-84.13941759691247
"30040","Cumming","GA","Northside Hospital","1200 Northside Forsyth Dr","30041",34.177989,-84.140893
"30040","Cumming","GA","Northside Women's Center","1505 Northside Forsyth Dr Ste 4700","30041",34.17739671627668,-84.14153744984223
"30040","Cumming","GA","CHOA Forsyth Immediate Care","410 Peachtree Pkwy #300","30041",34.152545,-84.178892
"30040","Cumming","GA","Family Medicine Urgent Care","4155 Front Nine Drive","30041",34.134735107421875,-84.12544250488281
"30040","Cumming","GA","Georgia Pulmonary & Critical Care Consultants","1505 Northside Blvd Ste 3000","30041",34.174194037914276,-84.13820989429951
"30040","Cumming","GA","Northside-Forsyth Outpatient Surgery","1055 Haw Creek Pkwy","30041",34.172783,-84.129746
"30040","Cumming","GA","Complete Women's Healthcare","634 Peachtree Pkwy #200","30041",34.1462374,-84.1736403
"30040","Cumming","GA","Northside Radiology Services","not_available","30040",34.177739807855765,-84.13380217125868
"30040","Cumming","GA","Goyco Internal Medicine","900 Sanders Rd Ste B","30041",34.184783,-84.123838
"30040","Cumming","GA","Northside Urgent Care and Family Medicine","5610 Bethelview Rd","30040",34.17055305490119,-84.18207515248956
"30040","Cumming","GA","Children's Healthcare of Atlanta Urgent Care Center - Forsyth","410 Peachtree Parkway, Suite 300, The Collection at Forsyth","30041",34.152734,-84.178841
"30040","Cumming","GA","Northside Forsyth Hospital - ER","1400 Northside Forsyth Dr","30041",34.14547028973122,-84.10180434680066
"30043","Lawrenceville","GA","Northside Hospital Gwinnett Emergency Room","not_available","30046",33.963596,-84.017975
"30043","Lawrenceville","GA","Gwinnett Medical Center Emergency Room","1000 Medical Center Blvd","30046",33.96345086103867,-84.01751939542629
"30043","Lawrenceville","GA","Cancer Support Center","631 Professional Dr","30046",33.963971088817324,-84.01735424995422
"30043","Lawrenceville","GA","KL Medical Clinic","905 Parkside Walk Ln # 100","30043",33.96929130884476,-84.0266184920307
"30043","Lawrenceville","GA","Gwinnett Medical Center Imaging","not_available","30045",33.964890337349175,-84.01737489552282
"30043","Lawrenceville","GA","GMC Center for Neuroscience","1000 Medical Center Blvd","30045",33.96517565661528,-84.0161769068963
"30043","Lawrenceville","GA","Choice One Urgent Care","not_available","30043",34.030753,-83.980921
"30043","Lawrenceville","GA","Gwinnett Extended Care Center at GMC-Lawrenceville","650 Professional Dr","30046",33.9609067,-84.0176098
"30044","Lawrenceville","GA","North Georgia Urgent Care","1630 Pleasant Hill Rd","30096",33.947612,-84.123201
"30044","Lawrenceville","GA","MeSun healthcare services","88 Johnson Rd","30046",33.936294000000004,-84.017071
"30044","Lawrenceville","GA","In The Operating Room","not_available","30078",33.88417900652562,-84.0207872612294
"30044","Lawrenceville","GA","quest diagnostics","Peachtree St.","30047",33.88249206542969,-84.11687469482422
"30044","Lawrenceville","GA","Solutions of Life, LLC","1840 Old Norcross Rd Ste 200","30044",33.951904296875,-84.05523681640625
"30044","Lawrenceville","GA","NextCare Urgent Care","3330 Sugarloaf Pkwy","30044",33.920578000000006,-84.016354
"30044","Lawrenceville","GA","Sugarloaf Urgent Care & Primary Care","4835 Sugarloaf Pkwy #200","30044",33.955474,-84.052563
"30044","Lawrenceville","GA","Georgia Gynecologic Oncology - Gwinnett","759 Old Norcross Rd","30046",33.958321999999995,-84.016323
"30044","Lawrenceville","GA","Ivy League Pediatrics","603 Old Norcross Rd ste a","30046",33.9591793,-84.0088516
"30045","Lawrenceville","GA","SummitRidge Hospital","250 Scenic Highway South","30046",33.9424537,-83.98958089999999
"30045","Lawrenceville","GA","GMC Diabetes & Nutrition Education Center","100 Medical Center Blvd","30046",33.96440124511719,-84.01538848876953
"30045","Lawrenceville","GA","Peachtree Immediate Care - Lawrenceville","696 Grayson Hwy","30046",33.93346829759671,-83.9772004029503
"30045","Lawrenceville","GA","Brite Life Urgent and Primary Care","930 New Hope Rd Ste 10","30045",33.93503915404625,-83.95672166508177
"30045","Lawrenceville","GA","Mason Pediatrics","665 Duluth Hwy","30046",33.96750742,-84.0072681
"30047","Lilburn","GA","Eastside Urgent Care","976 Killian Hill road","30047",33.868806,-84.094158
"30047","Lilburn","GA","DeKalb Women's Specialists - Stone Mountain, GA","5295 Stone Mountain Highway, Suite M/N","30087",33.8243079,-84.11401459999999
"30047","Lilburn","GA","PruittHealth - Lilburn","788 Indian Trail Lilburn Rd NW","30047",33.902304,-84.15161402
"30047","Lilburn","GA","The Little Clinic","1227 Rockbridge Rd","30087",33.8411281,-84.132633
"30047","Lilburn","GA","LifeBrite Hospital Group, LLC","3970 Five Forks Trickum Rd SW Ste A","30047",33.8697389,-84.0894249
"30052","Loganville","GA","Clearview medical center","not_available","30052",33.83072786336733,-83.87988109219806
"30052","Loganville","GA","Piedmont Urgent Care At Wellstreet","4763 Atlanta Hwy Ste 420","30052",33.83123016357422,-83.8844985961914
"30052","Loganville","GA","Walton Imaging & Women's Pavilion","109 Lee Byrd Rd Ste 102","30052",33.834312438964844,-83.88166809082031
"30052","Loganville","GA","Greenwood Farm CBD Dispensary","4550 Lawrenceville Rd","30052",33.836382,-83.890499
"30052","Loganville","GA","Reddy Urgent Care","4072 Atlanta Hwy","30052",33.8459098050009,-83.9111021805674
"30058","Lithonia","GA","Dekalb Medical at Hillandale","2801 Dekalb Medical Pkwy","30058",33.70643095549969,-84.14777877443542
"30058","Lithonia","GA","Dekalb Hillandale ER","Hillandale Dr","30058",33.70627352124019,-84.14757499368088
"30058","Lithonia","GA","Peachtree Immediate Care - Lithonia","6000 Hillandale Dr # 115","30058",33.70492,-84.14619
"30060","Marietta","GA","Kennestone Hospital: Blue Tower","677 Church St NE","30060",33.96859880216044,-84.55168362704946
"30060","Marietta","GA","Dobbins ARB Clinic","Lake Cir","30069",33.92199631578993,-84.51907767036167
"30060","Marietta","GA","Wellstar Kennestone Ent Medical Group","Church St","30060",33.969345,-84.551575
"30060","Marietta","GA","WellStar Kennestone Regional Medical Center","not_available","30060",33.96881869233706,-84.55093769480406
"30060","Marietta","GA","Dr. Omokhuale Omokhodion","2145 Roswell Rd Ste 60","30062",33.9694896,-84.49124479999999
"30060","Marietta","GA","WellStar Good Life Club","114 Cherry St NE Ste G","30060",33.96757888793945,-84.54910278320312
"30060","Marietta","GA","Northwest Atlanta Vascular Care","711 Canton Road NE","30060",33.9698954,-84.54822279999999
"30060","Marietta","GA","WellStar Kennestone STAT Clinic","340 Kennestone Hospital Blvd Ste LL20","30060",33.96937942504883,-84.5534439086914
"30062","Marietta","GA","Children's Healthcare at Town Center","625 Big Shanty Rd NW","30144",34.02619892605755,-84.56945985272691
"30062","Marietta","GA","WellStar Medical Group Urgent Care","3600 Sandy Plains Rd","30066",34.03691318402191,-84.46145706049019
"30062","Marietta","GA","Northside Imaging Center","not_available","30068",33.97642517089844,-84.41651916503906
"30062","Marietta","GA","Northside East Cobb Orthopaedics & Sports Medicine","4800 Olde Towne Pkwy Ste 430","30068",33.96856689453125,-84.41151428222656
"30062","Marietta","GA","Northside Urgent Care & Family Medicine","1121 Johnson Ferry Rd","30068",33.976235569670536,-84.41633560207653
"30062","Marietta","GA","St Joseph's","81-99 Johnson Ferry Rd","30067",33.951801,-84.41211899999999
"30066","Marietta","GA","Summit Urgent Care","3120 Johnson Ferry Rd","30062",34.0232007,-84.42532609999999
"30066","Marietta","GA","KOP","669 Church St NE, Marietta, GA 30060","30060",33.97943001927278,-84.54888554245628
"30067","Marietta","GA","Atlanta Orthopedics Surgery Center","Windy Hill Road","30067",33.90043258666992,-84.48049926757812
"30067","Marietta","GA","WellStar Medical Group Urgent Care","2890 Delk Rd","30067",33.92348729205167,-84.46816518244422
"30067","Marietta","GA","WellStar Windy Hill Imaging Services","2540 Windy Hill Rd SE","30067",33.89992141723633,-84.47959899902344
"30067","Marietta","GA","Endovascular Specialist","926 Fox Ln SE","30067",33.929195404052734,-84.47187805175781
"30067","Marietta","GA","Bridgeway Hospice","400 Franklin Rd SE Ste 230","30067",33.93994207264901,-84.50752258300781
"30067","Marietta","GA","St. Joseph's Hospital","not_available","30319",33.90881428464623,-84.4852995112004
"30067","Marietta","GA","Blue hospital","not_available","30067",33.919923,-84.499887
"30067","Marietta","GA","B550","Atlantic Ave","30069",33.921603222353234,-84.51866292460313
"30068","Marietta","GA","Northside Hospital","1000 Johnson Ferry Rd","30342",33.97642587612798,-84.38312939194392
"30071","Norcross","GA","Peachtree Corners Animal Clinic","4020 Holcomb Bridge Rd","30092",33.96729198615552,-84.25584344690846
"30071","Norcross","GA","Akiva D. Gimpelevich DO – OBGYN","6330 Primrose Hill Court Suite 208","30092",33.964655,-84.253799
"30071","Norcross","GA","Concentra Urgent Care","1905 Beaver Ruin Road","30071",33.9354168102067,-84.1689662069693
"30071","Norcross","GA","Piedmont Urgentcare By Wellstreet","6063 Peachtree Pkwy","30092",33.95452117919922,-84.23419189453125
"30075","Roswell","GA","American Family Care","1095 Woodstock Road","30075",34.06327819824219,-84.39478302001953
"30075","Roswell","GA","Peachtree Immediate Care-Roswell","540 E Crossville Rd Ste 210","30075",34.03864376583365,-84.34631050970302
"30075","Roswell","GA","Vagner Urgent Care","Heathermere Way","30075",34.01956351864513,-84.32790163248218
"30075","Roswell","GA","Roswell Urgent Care","660 W Crossville Rd","30075",34.058113,-84.381654
"30076","Roswell","GA","Sandy Family Medicine","8640 Roswell Rd","30350",33.991684,-84.35226
"30076","Roswell","GA","North Point Pulmonary Associates","1357 Hembree Rd Ste 100","30076",34.060369,-84.316861
"30078","Snellville","GA","Eastside Medical Center South Campus","2160 Fountain Dr","30078",33.85716679418735,-84.02818367638247
"30078","Snellville","GA","Signature Plastic Surgery","2220 Wisteria Dr SW #209","30078",33.8614064,-84.016646
"30078","Snellville","GA","East Side Medical Day Surgery","1700 Medical Way","30078",33.87699890136719,-84.02111053466797
"30078","Snellville","GA","Southeast Urgent Care","2118 Scenic Hwy N","30078",33.864869951866226,-84.01692457635336
"30078","Snellville","GA","Eastside Inpt Rehab","2160 Fountain Dr. Snellville, Ga","not_available",33.857777,-84.03024599999999
"30078","Snellville","GA","ADS Towing and Roadside Service","none","30066",33.85584056642722,-83.99338603019714
"30078","Snellville","GA","Renew Foot Care - The Podology Clinic","2092 Scenic Hwy N","30078",33.86549377441406,-84.01616668701172
"30080","Smyrna","GA","Ridgeview Institute","3995 S Cobb Dr SE","30080",33.8560495,-84.51256579999999
"30080","Smyrna","GA","saint francis hospital columbus ga","not_available","30080",33.85015106201172,-84.48548126220703
"30080","Smyrna","GA","Northside Hospital Pre-Op","not_available","30342",33.86687768141854,-84.46829804340857
"30080","Smyrna","GA","TOTAL PAIN SOLUTIONS PC","5008 Duxford Dr SE","30082",33.83176040649414,-84.5052719116211
"30080","Smyrna","GA","Urgent Care Xpress","3330 S Cobb Dr SE Ste B","30080",33.8722003762398,-84.52995217175005
"30080","Smyrna","GA","Vinings Animal Hospital","not_available","30339",33.867333,-84.467103
"30080","Smyrna","GA","NSH Business Office","Circle 75 Pkwy","30339",33.88888203278678,-84.46621592048528
"30080","Smyrna","GA","Peachtree Immediate Care - Smyrna","3295 S Cobb Dr SE","30080",33.87398511410585,-84.5298637901783
"30080","Smyrna","GA","RVI Day Hospital","4108 Ridge Rd SE","30080",33.85370635986328,-84.51002502441406
"30080","Smyrna","GA","TWD Rick Awakes in Hospital","2353 Bolton Rd NW","30318",33.8193244934082,-84.46017456054688
"30080","Smyrna","GA","WellStar Medical Group Urgent Care","4480 North Cooper Lake Rd SE Ste 100","30082",33.844064723734135,-84.53127211086294
"30080","Smyrna","GA","Ridgeview Precautions","Cottage C","30080",33.856815,-84.51076
"30080","Smyrna","GA","The Little Clinic","3240 S Cobb Dr SE","30080",33.87468396937836,-84.53350498280338
"30083","Stone Mountain","GA","Bon Secours St. Mary's Hospital","5801 Bremo Rd, Richmond, VA","not_available",33.76634979248047,-84.17830657958984
"30084","Tucker","GA","Briarwood Health and Rehabilitation Center","3888 Lavista Rd","30084",33.84434509277344,-84.25958251953125
"30084","Tucker","GA","Griswold Home Care","1926 Northlake Parkway","30084",33.83822641,-84.23932344
"30084","Tucker","GA","Elite Auto Agents","2015 Montreal Rd Ste 200","30084",33.84281921386719,-84.25547790527344
"30084","Tucker","GA","Crossroads Hospice & Palliative Care","1957 Lakeside Pkwy. Suite 500","30084",33.8406164,-84.239487
"30084","Tucker","GA","Atlanta Cancer Care - Decatur","2545 Lawrenceville Hwy Ste 300","30033",33.821067810058594,-84.26321411132812
"30084","Tucker","GA","Peachtree Immediate Care - Tucker","4327 Hugh Howell Rd","30084",33.851269,-84.210505
"30084","Tucker","GA","Sunrise Urgent Care","4500 Hugh Howell Rd Ste 110","30084",33.849658,-84.204685
"30093","Norcross","GA","Y.H. Parikh & Associates","6010 Singleton Road #209","30093",33.90407675850325,-84.19835832275565
"30094","Conyers","GA","National EMS","1060 Culpepper Dr SW","30094",33.650203704833984,-84.02227783203125
"30096","Duluth","GA","Peachtree Immediate Care","3551 Satellite Blvd","30096",33.9599,-84.13374
"30096","Duluth","GA","Children's Healthcare of Atlanta Urgent Care Center - Satellite Boulevard","2660 Satellite Blvd","30096",33.9665952,-84.1012536
"30096","Duluth","GA","Atlanta Primary Care","3840 Peachtree Industrial Blvd Ste 100","30096",33.989487811032085,-84.16929602622986
"30096","Duluth","GA","Home Hospice of Georgia","3235 Satellite Blvd Building 400, Suite 104","30096",33.9635732,-84.1191709
"30096","Duluth","GA","Rejuve Aesthetic Surgery","3182 Steve Reynolds Blvd Ste 108","30096",33.9583118,-84.1410373
"30101","Acworth","GA","WellStar Medical Group Urgent Care (Acworth HP)","4550 Cobb Parkway NW, Suite 101","30101",34.06816880728739,-84.72322234929858
"30101","Acworth","GA","Urgent Care","not_available","30144",33.98482139641091,-84.728232529678
"30101","Acworth","GA","Pedpost Urgent Care","1600 Kennesaw Due West Rd NW Ste 205","30152",33.99276773246482,-84.62671513128282
"30101","Acworth","GA","Concentra Urgent Care","2953 Cobb Pkwy NW","30152",34.02624501438457,-84.63754518653404
"30101","Acworth","GA","Your CBD Store - Acworth, GA","3450 Cobb Pkwy. NW #230","30101",34.03920364379883,-84.6898422241211
"30101","Acworth","GA","Kennestone Labor And Delivery","not_available","30152",34.001955735376406,-84.66447061141409
"30101","Acworth","GA","Physicians Immediate Med","3540 Cobb Pkwy NW","30101",34.0412078,-84.6930666
"30101","Acworth","GA","Kennesaw Urgent Care","3900 Legacy Park Blvd NW Ste A100","30144",34.049318,-84.622477
"30101","Acworth","GA","Kennestone Short Stay Room","2 S Medical Dr","30060",34.030921848344704,-84.61054636478005
"30101","Acworth","GA","Harry  Hospital","not_available","30101",34.075978,-84.637536
"30102","Acworth","GA","American Family Care Woodstock","6440 Bells Ferry Rd","30189",34.114318,-84.582196
"30102","Acworth","GA","emory university hospital pacu","not_available","30189",34.10884064723913,-84.58873345186007
"30103","Adairsville","GA","Urgent Care","7427 Georgia 140","30103",34.37826909,-84.93087714
"30104","Aragon","GA","Redmond Station 8","not_available","30104",34.04372680651846,-85.05931552630273
"30106","Austell","GA","Cobb Hospital","Austell Rd","30168",33.81715826987064,-84.61803530648184
"30106","Austell","GA","Hospice Care","not_available","30168",33.812606,-84.634378
"30107","Ball Ground","GA","Hospitall","not_available","30143",34.393470764160156,-84.3901138305664
"30107","Ball Ground","GA","M.D. Minor Emergency & Family Medicine","720 Transit Ave Ste 101","30114",34.253046707354535,-84.47039460030945
"30107","Ball Ground","GA","Children's Healthcare of Atlanta Urgent Care Center - Cherokee","1558 Riverstone Parkway, Suite 100, Located in the River Pointe shopping center","30114",34.25774396171797,-84.46238272944777
"30110","Bremen","GA","Higgins General Hospital","200 Allen Memorial Dr","30110",33.71678479010257,-85.1446916627909
"30110","Bremen","GA","Higgins Outpatient/Short Stay","not_available","30110",33.716769,-85.144902
"30114","Canton","GA","Northside Hospital Cherokee","Northside-Cherokee Boulevard, Northside-Cherokee Blvd, Canton, GA, USA","30114",34.228634,-84.461075
"30114","Canton","GA","Wellstar Urgent Care at Cherokee Health","1120 Wellstar Way Suite 105","30114",34.144276,-84.521068
"30114","Canton","GA","Northside Hospital Emergency Room","450 Northside Cherokee Blvd","30115",34.230342864990234,-84.46578979492188
"30114","Canton","GA","Northside Hospital Urgent Care","not_available","30115",34.14525886704983,-84.5140747519098
"30114","Canton","GA","Brian Center Health & Rehabilitation/Canton","150 Hospital Cir","30114",34.23218,-84.47956
"30114","Canton","GA","Ga Urgent Care","not_available","30188",34.155841,-84.406639
"30114","Canton","GA","BioCorRx: Dr. John Mersereau, MD","2050 Cumming Hwy","30115",34.233981,-84.45259899999999
"30114","Canton","GA","Cath Lab at Northside Cherokee","not_available","30114",34.245386,-84.491161
"30114","Canton","GA","Chacko Allergy, Asthma and Sinus Center of Canton","460 Northside Cherokee Blvd 410","30115",34.228585,-84.4654147
"30114","Canton","GA","Kaiser Permanente Hospital","684 Sixes Rd","30115",34.1453971862793,-84.51403045654297
"30114","Canton","GA","Georgia Urgent Care","7820 Hickory Flat Hwy","30188",34.155995000000004,-84.406952
"30114","Canton","GA","Waiting Room 1st Floor","201 Hospital Rd","30114",34.245521545410156,-84.49019622802734
"30114","Canton","GA","Northside Cherokee Orthopaedics & Sports Medicine","684 Sixes Rd Ste 130","30115",34.1453971862793,-84.51403045654297
"30116","Carrollton","GA","Tanner Medical Center","705 Dixie St","30117",33.56960445203209,-85.07444324379408
"30116","Carrollton","GA","Tanner Medical ER/CT Control Room","not_available","30117",33.569743153408844,-85.07503143281728
"30116","Carrollton","GA","Walmart Care Clinic","1735 S Highway 27","30117",33.5435321,-85.0738866
"30116","Carrollton","GA","Trinka Davis Vetetans Village","180 Martin Dr","30117",33.58955009850462,-85.05830618959045
"30116","Carrollton","GA","Patient Services- Open MRI/PET","119 Ambulance Dr","30117",33.570735931396484,-85.07484436035156
"30116","Carrollton","GA","Veteran's OutPatient Clinic & Hospital","Martha Dr.","30116",33.5892516269966,-85.05795621430586
"30116","Carrollton","GA","Tanner Urgent Care and Occupational Health","1480 Hey 27 South","not_available",33.55059347859473,-85.07277498424997
"30116","Carrollton","GA","Pre-Surgical/Infusion Center","710 Dixie St","30117",33.5698127746582,-85.07227325439453
"30116","Carrollton","GA","The Little Clinic","1355 S Park St","30117",33.5534295,-85.074295
"30116","Carrollton","GA","Summit Urgent Care - Carrollton","909 South Park St","30117",33.5628429,-85.0751709
"30120","Cartersville","GA","Peachtree Immediate Care - Cartersville","122 N Morningside Dr # 100","30121",34.17065201361862,-84.78696204051016
"30120","Cartersville","GA","Floyd Urgent Care","1328 JFH Pkwy","30121",34.206799867853164,-84.81569194063616
"30120","Cartersville","GA","Assured Hospice Care","9B Medical Dr NE","30121",34.203127,-84.796212
"30120","Cartersville","GA","Cartersville EMERGENCY ROOM","not_available","30120",34.19451338545467,-84.79454798628792
"30120","Cartersville","GA","Urgent Care","not_available","30121",34.206777779368124,-84.81556459093252
"30120","Cartersville","GA","Harbin Clinic Immediate Care Cartersville","150 Gentilly Blvd","30120",34.185396,-84.79021379999999
"30120","Cartersville","GA","Bartow County EMS","5435 Highway 20 NE","30121",34.20365562670463,-84.79190427369439
"30120","Cartersville","GA","Southeast Dermatology Specialists Cartersville, GA","100 Market Place Blvd # 300","30121",34.2024199,-84.7911923
"30122","Lithia Springs","GA","Burch Corporation","1435 Trae Ln","30122",33.76612091064453,-84.60839080810547
"30122","Lithia Springs","GA","Sweetwater Creek Animal Hospital","2785 Lee Rd","30122",33.73393249511719,-84.66839599609375
"30122","Lithia Springs","GA","Douglas Wellstar Hospital Emergency Room","not_available","30135",33.75043143915813,-84.70555567352454
"30125","Cedartown","GA","Floyd Urgent Care","1025 N Main St","30125",34.03470230102539,-85.24501037597656
"30125","Cedartown","GA","Floyd Polk Medical Center ER","not_available","30125",34.01971681686568,-85.25253636093036
"30126","Mableton","GA","Peachtree Immediate Care - Mableton","1025 Veterans Memorial Hwy SE Ste 720","30126",33.805303138194525,-84.52697560000001
"30126","Mableton","GA","NextCare Urgent Care","1025 Veterans Memorial Hwy SE","30126",33.80525975854527,-84.52732588921985
"30126","Mableton","GA","Nextcare Urgent Care","923 Veterans Memorial Hwy SE","30126",33.80528427059172,-84.5270289531352
"30127","Powder Springs","GA","","not_available","30127",33.814294,-84.72796
"30127","Powder Springs","GA","Walmart Care Clinic","3615 Marietta Hwy","30157",33.935230142995,-84.7326944634718
"30132","Dallas","GA","New Hope Urgent Care","not_available","30157",33.95601235258751,-84.7867080664657
"30132","Dallas","GA","BestCare Now Urgent Care","500 Nathan Dean Blvd","30157",33.908066999999996,-84.82522
"30132","Dallas","GA","The Little Clinic","455 Nathan Dean Blvd","30132",33.9106247,-84.822988
"30134","Douglasville","GA","BioLife Plasma Services","3026 Chapel Hill Rd.","30135",33.724036,-84.73003
"30134","Douglasville","GA","Hospital Room","not_available","30134",33.738905515179205,-84.73135984376788
"30134","Douglasville","GA","Physicians' Immediate Med","9390 The Landing Dr","30135",33.7272312,-84.7381308
"30134","Douglasville","GA","Southeast Dermatology Specialists Douglasville, GA","4645 Timber Ridge Dr","30135",33.73549270629883,-84.7304916381836
"30135","Douglasville","GA","Douglasville Nursing & Rehab","4028 Georgia 5","30135",33.69146086116595,-84.7931057047651
"30135","Douglasville","GA","Douglas Oaks Animal Hospital","3939 Highway Drive","30135",33.69953615456958,-84.78630488759961
"30135","Douglasville","GA","PruittHealth - Fairburn","7560 Butner Rd","30213",33.64199776,-84.63555292
"30135","Douglasville","GA","Your Choice Caregivers","129 Algerine Ct","30213",33.63595285860505,-84.63372230551613
"30143","Jasper","GA","Piedmont Mountainside Hospital","1266 Highway 515 S","30143",34.446233,-84.447076
"30143","Jasper","GA","PruittHealth - Jasper","1350 E Church St","30143",34.45709677,-84.41215411
"30143","Jasper","GA","Piedmont Physicians Obstetrics and Gynecology - Jasper","220 J L White Dr Ste 120","30143",34.44743347167969,-84.44829559326172
"30143","Jasper","GA","Piedmont Mountainside Hospital","GA 515 South","not_available",34.446082976255916,-84.44581654719782
"30144","Kennesaw","GA","Ann's Loving Hands Personal Care","1300 Ridenour Blvd NW Ste 100","30152",33.995643615722656,-84.58958435058594
"30144","Kennesaw","GA","Hospital","3655 Cherokee St NW","30144",34.04309844970703,-84.60223388671875
"30144","Kennesaw","GA","Gowns Of Encouragement","1300 Ridenour Boulevard Suite 100","30152",33.995764,-84.5894776
"30144","Kennesaw","GA","WellStar Medical Group Urgent Care","3805 Cherokee St.","30144",34.046549405089905,-84.60099645750736
"30147","Lindale","GA","Cartersville Medical Center","not_available","30173",34.162187,-85.160803
"30149","Mount Berry","GA","Our365 Floyd Hospital","not_available","30165",34.291099825243,-85.2150761112603
"30149","Mount Berry","GA","Rome Health and Rehabilitation Center","1345 Redmond Cir NW","30165-1307",34.28395423,-85.20356767
"30153","Rockmart","GA","Floyd Urgent Care","not_available","30153",34.00820541381836,-85.03111267089844
"30161","Rome","GA","Floyd Medical Center","304 Turner McCall Blvd SW","30165",34.259328,-85.17931809999999
"30161","Rome","GA","Harbin Clinic Spine And Pain Center","550 Redmond Rd NW","30165",34.278967649235526,-85.19514272438727
"30161","Rome","GA","Redmond Regional Cardiac Cath Lab","Redmond Rd","30165",34.27723984479476,-85.19513984482049
"30161","Rome","GA","PruittHealth - Rome","2 Three Mile Rd NE","30165",34.29850767,-85.17605589
"30161","Rome","GA","VA HOSPITAL","30 Chateau Dr SE","30161",34.22013473510742,-85.15548706054688
"30161","Rome","GA","Urgent Care","2112 Shorter Ave NW","30165",34.271854400634766,-85.22431945800781
"30161","Rome","GA","Walmart Care Clinic","2510 Redmond Cir NW","30165",34.2748831111111,-85.2279028888889
"30161","Rome","GA","floyd emergency room","Martha Berry Hwy","not_available",34.26005554199219,-85.18000793457031
"30161","Rome","GA","Northwest Georgia Regional Hospital","705 N Division St NW","30165",34.27474594116211,-85.19928741455078
"30165","Rome","GA","Apria Healthcare","Martha Berry Hohhway","30165",34.27442862237436,-85.18270701615903
"30171","Rydal","GA","Wellstar Hospital Marietta Ga","not_available","30171",34.33223342895508,-84.69921875
"30179","Temple","GA","Tanner Medical Center at Villa Rica","601 Dallas Hwy","30180",33.74425714146089,-84.91669244351058
"30179","Temple","GA","Willowbrooke Center for Behavioral Health","20 Herrell Rd","30180",33.74832334556909,-84.91282739203963
"30179","Temple","GA","Regional Medical Center","40010th St.","30180",33.71699201356358,-84.99451362513682
"30179","Temple","GA","Tanner Emergency Room","not_available","30180",33.744729603195616,-84.91659035665765
"30179","Temple","GA","Tanner Surgery Center","705 Dallas Hwy","30180",33.744510650634766,-84.91620635986328
"30179","Temple","GA","Tanner Immediate Care","101 Quartz Dr","30180",33.72995819259619,-84.89911244426166
"30179","Temple","GA","Peachtree Immediate Care - Villa Rica","209 Cooley Dr # 101","30180",33.720000563525886,-84.93989735841751
"30179","Temple","GA","Tanner Villa Rica Hospital","Liberty Rd","30180",33.71594346686024,-84.93514725306935
"30188","Woodstock","GA","WellStar Medical Group Urgent Care (Towne Lake)","120 Stonebridge Pkwy Ste 310","30189",34.101251030990305,-84.53623294830322
"30188","Woodstock","GA","Woodstock Family & Urgent Care","310 Gold Creek Trl","30188",34.086634841518965,-84.46731634868257
"30188","Woodstock","GA","Samson Surgical Center","120 Stonebridge Pkwy Ste 420","30189",34.09089677186061,-84.53751295108974
"30188","Woodstock","GA","Towne Lake Primary Care Family Medicine","900 Towne Lake Pkwy Ste 410","30189",34.1021841019392,-84.5358507335186
"30188","Woodstock","GA","BARBARA'S BILLING & CONSULTING, INC.","1025 Rose Creek Dr Ste 620-224","30189",34.1017272114177,-84.52149581935373
"30188","Woodstock","GA","Modern Dermatology Atlanta LLC","120 Stonebridge Pkwy #440","30189",34.1000902,-84.5372493
"30188","Woodstock","GA","Wellstar Urgent Care","Stone Bridge Parkway","not_available",34.09999050940524,-84.53711164527203
"30188","Woodstock","GA","Northside Cherokee Surgical Associates","900 Towne Lake Pkwy Ste 412","30189",34.1021841019392,-84.5358507335186
"30188","Woodstock","GA","Atlas Orthopaedics","970 Woodstock Parkway Suite 310","30188",34.1122023,-84.5327447
"30188","Woodstock","GA","Northside Cherokee Cardiology","900 Towne Lake Pkwy Ste 400","30189",34.1021841019392,-84.5358507335186
"30204","Barnesville","GA","Barnesville Urgent Care","not_available","30204",33.05200196561504,-84.1588441680601
"30213","Fairburn","GA","Summit Urgent Care","3515 Camp Creek Parkway","30344",33.654791872523305,-84.50218516060417
"30213","Fairburn","GA","MedPost Urgent Care","3730 Carmia Drive Southwest","30331",33.65603256225586,-84.51089477539062
"30213","Fairburn","GA","YourTown Health Clinic","511 Park Street","30268",33.525316,-84.66571
"30213","Fairburn","GA","South Atlanta Urgent Clinic","5185 Old National Hwy, Atlanta, GA 30349","30349",33.613843428719576,-84.47271541613274
"30213","Fairburn","GA","Southwest Christian Care","7225 Letter Rd","30291",33.553084999999996,-84.525704
"30213","Fairburn","GA","Fairburn Health Center","178 W Campbellton St","30213",33.571670000000005,-84.585949
"30213","Fairburn","GA","The Hemp Park CBD OIL V&S Store AND Vapes","5737 Old National Hwy Ste 400 B","30349",33.5987476,-84.47132409999999
"30213","Fairburn","GA","Southwest Atlanta Vascular Care","3885 Princeton Lakes Way SW","30331",33.65961837768555,-84.51438903808594
"30214","Fayetteville","GA","Piedmont Fayette Hospital","1255 Highway 54 W","30214",33.4528556,-84.5081546
"30214","Fayetteville","GA","Southern Heart Specialists","115 Sumner Rd","30214",33.43598937988281,-84.55341339111328
"30214","Fayetteville","GA","Piedmont Fayette NICU","not_available","30214",33.45264093057468,-84.50874911038606
"30214","Fayetteville","GA","Peachtree Immediate Care","1275 Highway 54 W, 201","30214",33.4512182,-84.5089676
"30214","Fayetteville","GA","Piedmont Fayette Hospital Minor Emergency Care Center","105 Yorktown Dr","30214",33.44897091633806,-84.47885513305664
"30214","Fayetteville","GA","Pavilion Urgent Care","101 Beckett Ln","30214",33.4805297851562,-84.4503555297852
"30214","Fayetteville","GA","Piedmont Fayette Hospital - Critical Care Unit","Hwy 54","30214",33.45260424939523,-84.5087337467621
"30214","Fayetteville","GA","Peachtree Urgent Care","hwy 54","30214",33.451060866666666,-84.50905146666666
"30214","Fayetteville","GA","Piedmont Brain Tumor Center","2001 Peachtree Rd NE Fl 6","30309",33.45241266286428,-84.50782216449413
"30214","Fayetteville","GA","Summit Urgent Care","749 W Lanier Ave","30214",33.44797134399414,-84.47388458251953
"30215","Fayetteville","GA","Straight jacket","not_available","30269",33.40327048256137,-84.55401834610203
"30217","Franklin","GA","PruittHealth - Franklin","360 S River Rd","30217",33.27255508,-85.10025577
"30222","Greenville","GA","PruittHealth - Greenville","99 Hill Haven Rd","30222",33.03027233,-84.7347062
"30223","Griffin","GA","Peachtree Immediate Care - Griffin","1436 Georgia Highway 16 W","30223",33.24710116357833,-84.29041363192096
"30223","Griffin","GA","Spalding Regional Emergency Room","not_available","30224",33.239765,-84.267018
"30223","Griffin","GA","PruittHealth - Griffin","619 Northside Dr","30223",33.26930103,-84.26474775
"30223","Griffin","GA","Healing Rise Up Solution LLC","923 Buckhorn Blvd","30248",33.3433675,-84.1898102
"30223","Griffin","GA","URGENT CARE at Heron Bay","3334 Georgia 155 South","30248",33.3429422,-84.17791088333334
"30223","Griffin","GA","Spalding Regional Medical Center","601 S 8th St","30224",33.2392578125,-84.26734161376953
"30233","Jackson","GA","Westbury Medical Care Home Inc","922 McDonough Rd","30233",33.30247116088867,-83.97621154785156
"30233","Jackson","GA","Sylvan Grove Hospital","1050 McDonough Rd","30233",33.30355168201056,-83.97761105811475
"30233","Jackson","GA","The Grove","not_available","30233",33.30358123779297,-83.97710418701172
"30233","Jackson","GA","GoNow Doctors","4861 Bill Gardner Pkwy,100","30248",33.3545632,-84.1201603
"30236","Jonesboro","GA","Kaiser Permanente Southwood","2400 Mount Zion Pkwy","30236",33.55801467585529,-84.31225579782523
"30236","Jonesboro","GA","Surgery Center@ Southern Regional Medical center","11 Upper Riverdale Rd, Riverdale, GA 30274","30274",33.580352783203125,-84.39122772216797
"30236","Jonesboro","GA","Labor & Delivery @ Southern Regional Medical Center","11 Upper Riverdale Rd","30274",33.579199782975664,-84.39102950412646
"30236","Jonesboro","GA","southern regional nicu","not_available","30297",33.579697530287916,-84.38903625475426
"30236","Jonesboro","GA","WellStar Urgent Care in Stockbridge","3576 GA-138","30281",33.55056454,-84.27339941
"30236","Jonesboro","GA","Excel Medical Training","217 Arrowhead Blvd Ste B3","30236",33.578327,-84.38364200000001
"30236","Jonesboro","GA","Premier Women's OBGYN","237 Upper Riverdale Rd","30274",33.57787728309631,-84.3943440914154
"30236","Jonesboro","GA","Southern Crescent Hospital for Specialty Care","11 Upper Riverdale Rd SW Fl 6","30274",33.580575,-84.388225
"30236","Jonesboro","GA","4T telemetry","not_available","30274",33.58119711727684,-84.38990350270554
"30236","Jonesboro","GA","Atlanta Cancer Care - Lake Spivey","7813 Spivey Station Blvd Ste 210","30236",33.54005813598633,-84.30477142333984
"30236","Jonesboro","GA","Peachtree Immediate Care - Morrow","2005 Mount Zion Rd","30260",33.56307076497495,-84.3251373411045
"30236","Jonesboro","GA","Southern Regional Health System","11 Upper Riverdale Road","30274",33.579121304601195,-84.38915941500497
"30236","Jonesboro","GA","urgent care","Upper Riverdale Rd.","not_available",33.57367697456055,-84.37138575429582
"30236","Jonesboro","GA","Northside Riverdale Imaging","34 Upper Riverdale Road","30274",33.57786178588867,-84.38778686523438
"30236","Jonesboro","GA","Southern Crescent Womens Center","Upper Riverdale Rd","not_available",33.57952979507798,-84.39092981513528
"30236","Jonesboro","GA","Jonesboro Animal Hospital","not_available","30236",33.539871,-84.298709
"30240","Lagrange","GA","West Georgia Health Heart Clinic","not_available","30240",33.030898,-85.058355
"30240","Lagrange","GA","Dr. Brent Brown Eyecare","101 S Dawson St","30241",33.039232,-85.022475
"30240","Lagrange","GA","Dermatology Specialists of Georgia - LaGrange","1605 Whitesville St","30240",33.015201568603516,-85.02798461914062
"30241","Lagrange","GA","Summit Urgent Care - Lagrange","1524 Lafayette Pkwy","30241",33.0416129,-84.9761144
"30241","Lagrange","GA","West Georgia Health","not_available","30241",33.060523986816406,-85.00102996826172
"30241","Lagrange","GA","Peachtree Immediate Care - LaGrange","1495 Lafayette Pkwy","30241",33.0421703,-84.9853421
"30248","Locust Grove","GA","The Henry's","not_available","30253",33.41020965576172,-84.20622253417969
"30252","Mcdonough","GA","CorrectMed Urgent Care","not_available","30248",33.42421686636734,-84.14125402949531
"30253","Mcdonough","GA","Piedmont Henry Hospital","1133 Eagles Landing Pkwy","30281",33.510333,-84.227235
"30253","Mcdonough","GA","Henry Medical Center","not_available","30281",33.51106548031291,-84.22725952093211
"30253","Mcdonough","GA","Piedmont Urgent Care - McDonough","101 Regency Park Dr Ste 110","30253",33.4330626446701,-84.1724532616551
"30253","Mcdonough","GA","Denise C. De Veranez, M.D., P.C.","285 Country Club Dr Ste 200","30281",33.507728576660156,-84.22138214111328
"30253","Mcdonough","GA","Noah's Ark Urgent Care","950 Eagles Landing Pkwy #212","30281",33.51333236694336,-84.21931457519531
"30253","Mcdonough","GA","Children's Healthcare of Atlanta Urgent Care Center - Hudson Bridge","1510 Hudson Bridge Rd","30281",33.504539489746094,-84.23603057861328
"30253","Mcdonough","GA","Regenerative Orthopaedics & Spine Institute PC","203 Medical Blvd","30281",33.51259994506836,-84.22537231445312
"30253","Mcdonough","GA","Eagle's Landing OB/GYN","350 Country Club Dr., Suite D","30281",33.5093209,-84.219893
"30253","Mcdonough","GA","Women's Health Institute at Stockbridge","830 Eagles Landing Parkway #203","30281",33.5135498046875,-84.2159194946289
"30253","Mcdonough","GA","Crescent Pines Hospital","1000 Eagles Landing Parkway","30281",33.5129022,-84.22186909999999
"30253","Mcdonough","GA","Sutton Orthopaedics & Sports Medicine, P.C","145 Medical Blvd","30281",33.5114306,-84.2255816
"30263","Newnan","GA","Piedmont Newnan Hospital","745 Poplar Rd","30265",33.3578016,-84.7551974
"30263","Newnan","GA","Piedmont Medical Plaza","Poplar road","not_available",33.35675259024404,-84.75412224434267
"30263","Newnan","GA","Summit Urgent Care","1825 Hwy 34","30265",33.40201798250091,-84.71921329806551
"30263","Newnan","GA","Summit Urgent Care - Newnan Crossing","2084 Newnan Crossing Blvd.","30265",33.3632777,-84.7541586
"30263","Newnan","GA","Peachtree Immediate Care - Newnan","371 Newnan Crossing Byp Ste 103","30265",33.385962839598164,-84.76195499510652
"30263","Newnan","GA","summit","1825 bullboro drive","30265",33.39748885282078,-84.73879736957102
"30263","Newnan","GA","Encompass Health Rehabilitation Hospital of Newnan","2101 Newnan Crossing Blvd E","30265",33.362984000000004,-84.751367
"30263","Newnan","GA","Summit Minor Med","549 Bullsboro Dr B","30265",33.3924046,-84.7590146
"30263","Newnan","GA","Coweta Animal Hospital","179-209 Bullsboro Dr","30263",33.389835999999995,-84.771632
"30263","Newnan","GA","Murder The Next Person That Wakes Me Up At 12","not_available","30265",33.357922,-84.707852
"30263","Newnan","GA","Documentation Room","not_available","30263",33.39264678955078,-84.81529235839844
"30263","Newnan","GA","Georgia Rehabilitation Center: Urgent Care","1755 Highway 34 E","30265",33.400428000000005,-84.72157
"30263","Newnan","GA","Delivery Room","60 Hospital Rd","30263",33.391796,-84.816423
"30263","Newnan","GA","Piedmont Newnan Hospital Radiology","Poplar","30263",33.3915484,-84.7967525
"30263","Newnan","GA","The Little Clinic","1751 Newnan Crossing Blvd E","30265",33.3769413,-84.7521311
"30269","Peachtree City","GA","Summit Urgent Care","100 Line Creek Circle","30269",33.3948565,-84.6018564
"30269","Peachtree City","GA","All Starr Pediatrics","19 Eastbrook Bend, Suite 200","30269",33.41112518310547,-84.56415557861328
"30269","Peachtree City","GA","Undeniable Healthcare","1280 Joel Cowan Pkwy","30269",33.424058,-84.604042
"30269","Peachtree City","GA","Pediatrics Village, P.C.","375 Highway 74 N","30269",33.41208,-84.6019
"30269","Peachtree City","GA","Senior Helpers","301 Kelly Drive","30269",33.381294,-84.579332
"30269","Peachtree City","GA","Peachtree City Urgent Care","8 Eastbrook Bnd Ste B","30269",33.4099253,-84.56566140000001
"30269","Peachtree City","GA","Wingard Urgent Care and Wellness","1325 Commerce Dr Ste 200","30269",33.401481395148664,-84.59554402446747
"30269","Peachtree City","GA","The Little Clinic","564 Crosstown Dr","30269",33.3763759,-84.5645864
"30281","Stockbridge","GA","Recovery","not_available","30294",33.62075424194336,-84.26191711425781
"30281","Stockbridge","GA","Fairview Urgent Care","West Village Parkway","30294",33.61803,-84.25209
"30286","Thomaston","GA","Upson Regional Medical Center","201-279 Cherokee Rd","30286",32.88646159551999,-84.33681609739756
"30293","Woodbury","GA","Warm Springs Medical Center","Highway 41","31830",32.889601961580084,-84.68318641310678
"30297","Forest Park","GA","Loony House","4858 Old Dixie Hwy","30297",33.621953000000005,-84.381722
"30297","Forest Park","GA","Power Wheelchair Services","467 85th Circle, B","30349",33.6219999,-84.4029352
"30297","Forest Park","GA","Choice Care","3991 Old Dixie Hwy","30354",33.645599,-84.391737
"30303","Atlanta","GA","Grady Memorial Hospital","80 Jesse Hill Jr Dr SE","30303",33.75192994241655,-84.3822517796727
"30303","Atlanta","GA","Grady Labor And Delivery","not_available","30312",33.74978647399344,-84.38277013703942
"30303","Atlanta","GA","The Lobby At Grady Hospital","not_available","30303",33.751622,-84.3827
"30303","Atlanta","GA","Children's Healthcare of Atlanta at Hughes Spalding","35 Jesse Hill Jr Dr SE","30303",33.753897254889196,-84.38201265276126
"30303","Atlanta","GA","Urgent Care 24/7 Centennial Park","285 Centennial Olympic Park Dr NW","30313",33.762573,-84.391491
"30303","Atlanta","GA","Grady Billing Department","100 Edgewood Ave NE","30303",33.75474166870117,-84.38555908203125
"30303","Atlanta","GA","Grady - Armstrong Hall","48 Armstrong St SE","30303",33.75299072265625,-84.38204193115234
"30303","Atlanta","GA","Children's at Hughes Spalding - Child Protection","35 Jesse Hill Jr. Dr SE","30303",33.75362,-84.3810733333333
"30303","Atlanta","GA","wadelochem","12 ave st","30303",33.7541933,-84.3887644
"30303","Atlanta","GA","Drug & Alcohol Rehab Atlanta","235 Peachtree St NE #1750","30303",33.7620415369851,-84.38731670379639
"30303","Atlanta","GA","JK Assisted Living Atlanta","235 Peachtree St NE Ste 400A","30303",33.76022195022798,-84.3875527381897
"30303","Atlanta","GA","Drug Alcohol Rehab Atlanta","229 Peachtree St NE #200","30303",33.76015090942383,-84.38643646240234
"30303","Atlanta","GA","Grady Memorial Imaging Center","56 Jesse Hill Jr Drive","not_available",33.75285720825195,-84.38124084472656
"30305","Atlanta","GA","Shepherd Center","2020 Peachtree Rd NW","30309",33.81048111678744,-84.39439464608814
"30305","Atlanta","GA","Atlanta Childrens Clinical Center","3091 Maple Dr NE #315","30305",33.83972356725009,-84.3711614476149
"30305","Atlanta","GA","Allcare Family Medicine & Urgent Care","3867 Roswell Rd NE","30342",33.86005,-84.37996
"30305","Atlanta","GA","WellStreet Buckhead South Urgent Care","2292 Peachtree Rd NW","30309",33.81695565258012,-84.38991153426399
"30305","Atlanta","GA","Thomas House of Vomit","not_available","30305",33.836085,-84.407373
"30305","Atlanta","GA","Benjamin C. Stong MD","371 East Paces Ferry Rd NE Suite 850","30305",33.8381819,-84.3747607
"30305","Atlanta","GA","Post Boxing Lesson","not_available","30318",33.81538649844391,-84.41633047277551
"30305","Atlanta","GA","Piedmont Minor Emergency Clinic","2521 Piedmont Road Northeast","30324",33.82457733154297,-84.36686706542969
"30305","Atlanta","GA","Piedmont Minor Emergency Clinic","3108 Piedmont Rd NE","30305",33.8406135902435,-84.37034401723342
"30305","Atlanta","GA","Piedmont Hospital Education Classrooms","1968 Peachtree Rd NW","30309",33.81170331396432,-84.39450124289598
"30305","Atlanta","GA","Piedmont Sleep Center","Collier Rd Bldg 77","not_available",33.809852,-84.394905
"30305","Atlanta","GA","Shepherd Center Room 228","not_available","30309",33.810493,-84.394216
"30305","Atlanta","GA","WellStreet Buckhead North Urgent Care","3617 Roswell Rd NE Ste A","30305",33.853639065807364,-84.38240574768362
"30305","Atlanta","GA","Atlanta Cosmetic Urology","371 E Paces Ferry Rd N Ste 550","30305",33.838282,-84.374815
"30305","Atlanta","GA","Interventional Orthopedics of Atlanta","371 E Paces Ferry Rd NE Ste 802","30305",33.8386251,-84.3751013
"30306","Atlanta","GA","Emory - Wesley Woods Hospital","1821 East Clifton Road Northeast","30329",33.80518842,-84.33074755
"30306","Atlanta","GA","Hillside Psychiatric Hospital","690 Courtenay Dr NE","30306",33.789977701826636,-84.36509209051806
"30306","Atlanta","GA","PruittHealth - Virginia Park","1000 Briarcliff Rd NE","30306",33.78234643,-84.34412916
"30306","Atlanta","GA","Wesley Woods Budd Terrace","1833 Clifton Rd NE","30329",33.802954318053445,-84.3308813679567
"30306","Atlanta","GA","WellStreet Virginia Highlands Urgent Care","882 Ponce de Leon Ave NE","30306",33.774273660812334,-84.3584262224288
"30306","Atlanta","GA","Laurel Heights Hospital","934 Briarcliff Rd NE","30306",33.779942277357854,-84.34553432781904
"30306","Atlanta","GA","Michael Els, Podiatrist","Morningside Clinic.","not_available",33.7918241,-84.36764319999999
"30307","Atlanta","GA","Emory University Hospital","615 Michael Street Northeast","30322",33.79583495,-84.32322382
"30307","Atlanta","GA","T Douglas Gurley MD","659 Auburn Ave NE Suite 156","30312",33.755990000000004,-84.366282
"30307","Atlanta","GA","Emory University Hospital Room F206","1364 Clifton Rd NE","30322",33.791927337646484,-84.32129669189453
"30307","Atlanta","GA","5 West at Children's Healthcare of Atlanta at Egleston","not_available","30322",33.794235,-84.32029
"30308","Atlanta","GA","Emory University Hospital Midtown","550 Peachtree Street Northeast","30308",33.76854987,-84.38622275
"30308","Atlanta","GA","Atlanta Medical Center","303 Parkway Dr NE","30312",33.76248750823737,-84.37324047088623
"30308","Atlanta","GA","Concentra Urgent Care","688 Spring St NW","30308",33.77342757118676,-84.38917011022568
"30308","Atlanta","GA","Grady Ponce de Leon Center","341 Ponce de Leon Ave NE","30308",33.771762914718494,-84.37589495005037
"30308","Atlanta","GA","Emory University Admissions","550 Peachtree St NE","30308",33.76857,-84.38993
"30308","Atlanta","GA","Emory University Healthcare Midtpown-smokers' lounge","Peachtree","not_available",33.779774,-84.380075
"30308","Atlanta","GA","Sue Ellen's Sanitarium","921 Myrtle St NE","30309",33.779726000000004,-84.379148
"30308","Atlanta","GA","Symponia Hospice","699 Piedmont Ave NE","30308",33.7736538718162,-84.38127636909485
"30309","Atlanta","GA","Piedmont Hospital Bldg 95","95 Collier Rd NW","30309",33.80878711716592,-84.39600336504529
"30309","Atlanta","GA","Piedmont Pulmonary And Sleep Medicine","275 Collier Rd NW","30309",33.808791,-84.396969
"30309","Atlanta","GA","SmartCare Urgent Care","450 14th St NW","30318",33.785956,-84.402174
"30309","Atlanta","GA","Piedmont Hospital Sauls Memorial Library","1968 Peachtree Rd., NW, 77 Bldg","30309",33.80950528711312,-84.39520934506734
"30309","Atlanta","GA","Northside Urgent Care Midtown","1110 W Peachtree St NW Ste 200","30309",33.78538513183594,-84.38848876953125
"30309","Atlanta","GA","Piedmont Hospital Rich Auditorium","77 Collier Rd NW","30309",33.80795669555664,-84.39547729492188
"30310","Atlanta","GA","Recovery","not_available","30315",33.715732,-84.394948
"30310","Atlanta","GA","Grady Memorial Diabetic Clinic","56 Jesse Hill Jr","not_available",33.74121856689453,-84.43099212646484
"30310","Atlanta","GA","Tricare","not_available","30310",33.708117,-84.429639
"30311","Atlanta","GA","Sadie G Mays","1821 Anderson Ave NW","30314",33.7558701960946,-84.44696492213565
"30312","Atlanta","GA","Grady Administration Building","not_available","30313",33.7677728737247,-84.39668709606339
"30312","Atlanta","GA","Saint Josephs Hospital of Atlanta, Saint Josephs Health System, Saint Josephs Mercy Care Services, Downtown Clinic","424 Decatur St SE","30312",33.750980377197266,-84.3742904663086
"30315","Atlanta","GA","Southside Healthcare Incorporated, Southside Medical Center","1046 Ridge Ave SW","30315",33.72639465332031,-84.39217376708984
"30315","Atlanta","GA","Crestview Health & Rehabilitation Center","2800 Springdale Rd SW","30315",33.678773,-84.414135
"30317","Atlanta","GA","NextCare Urgent Care","1220 Caroline St NE","30307",33.75937271118164,-84.3485336303711
"30317","Atlanta","GA","The Egg.","1405 Clinton rd","30022",33.75960037,-84.34473706
"30317","Atlanta","GA","Concentra Urgent Care","not_available","30354",33.75861778971811,-84.34908796557873
"30318","Atlanta","GA","Ambery Animal Hospital","1400 Howell Mill Rd NW","30318",33.79357122727487,-84.41461426087602
"30318","Atlanta","GA","Piedmont Physicians MDVIP","1800 Howell Mill Rd NW Ste 650","30318",33.80475950101535,-84.41419780254364
"30319","Atlanta","GA","Emory Saint Joseph's Hospital","5665 Peachtree Dunwoody Rd","30342",33.90908652991143,-84.34980174853487
"30319","Atlanta","GA","Children's Healthcare of Atlanta at Scottish Rite Hospital","1001 Johnson Ferry Rd","30342",33.90599491161058,-84.35394371162204
"30319","Atlanta","GA","Children's Healthcare of Atlanta Urgent Care Center - Chamblee-Brookhaven","5080 Peachtree Blvd., Suite 100, In the Parkview on Peachtree shopping center","30341",33.888671,-84.313841
"30319","Atlanta","GA","North Atlanta Pulmonary & Sleep Specialists","993 Johnson Ferry Rd Ste C300","30342",33.907527923584,-84.3549575805664
"30319","Atlanta","GA","Endocrine Specialists of Atlanta","975 Johnson Ferry Rd Ste 400","30342",33.90773757227171,-84.35580950774398
"30319","Atlanta","GA","Emory at Saint Joseph's - Primary Care","5673 Peachtree Dunwoody Rd","30342",33.91033319,-84.35032461
"30319","Atlanta","GA","Ga Eye Partners","1100 Johnson Ferry Rd","30342",33.90727592623164,-84.3496008859465
"30319","Atlanta","GA","Northside Medical Center (960)","960 Johnson Ferry Rd","not_available",33.90825516145833,-84.3559848884239
"30319","Atlanta","GA","University Gynecologic Oncology","960 Johnson Ferry Rd Ste 130","30342",33.9085807800293,-84.3559646606445
"30324","Atlanta","GA","Georgia Spinal Health & Wellness","2021 N Druid Hills Rd NE Ste 100","30329",33.83256912231445,-84.33924865722656
"30324","Atlanta","GA","Elizabeth Mehlman Ph.D., J.D.","317 Beverly Rd NE","30309",33.796882000000004,-84.376944
"30324","Atlanta","GA","Warrior Care Network","12 Executive Park Dr NE Fl 3","30329",33.82789938784521,-84.33784790193641
"30324","Atlanta","GA","Wellstar Windy Hill Hospital","not_available","30324",33.825482,-84.360021
"30324","Atlanta","GA","Children's Healthcare of Atlanta Foundation","1687 Tullie Cir NE","30329",33.830541706908534,-84.33001961956553
"30327","Atlanta","GA","Ziering Medical","3193 Howell Mill Rd NW","30327",33.84233856201172,-84.42726135253906
"30328","Atlanta","GA","Glenridge Medical Center","5730 Glenridge Dr","30328",33.91134959478589,-84.36275104584368
"30329","Atlanta","GA","MedPost Urgent Care","3979 Buford Highway NE","30345",33.858655,-84.30917459999999
"30329","Atlanta","GA","Atlanta VA ER","Clairmont Rd, GA","30329",33.80259366572295,-84.31154829950356
"30329","Atlanta","GA","Physicians' Immediate Med of Decatur","1834 Clairmont Rd","30033",33.80816650390625,-84.31065368652344
"30329","Atlanta","GA","VA Audiology","1670 Clairmont Rd # GA-107","30033",33.80184555053711,-84.31182098388672
"30329","Atlanta","GA","Emory Radiology","1525 Clifton Rd NE","30322",33.798320000000004,-84.322524
"30331","Atlanta","GA","Grady Hospital Neurology Clinic","80 Jessie Hill Junior Drive","30331",33.71941129225778,-84.52431550152191
"30334","Atlanta","GA","Children's Healthcare of Atlanta at Hughes Spalding - Neuro","39 Jesse Hill Jr. Dr SE","30303",33.75013337062358,-84.38432186878345
"30337","Atlanta","GA","South Atlanta Urgent Care","800 Virginia Ave","30354",33.6597785949707,-84.41503143310547
"30338","Atlanta","GA","WellStreet Dunwoody Urgent Care","1575 Mount Vernon Rd","30338",33.945304,-84.335039
"30338","Atlanta","GA","St. Joseph's Gastroenterology Ward Room 352","not_available","30346",33.916312,-84.346353
"30338","Atlanta","GA","Veritas Collaborative's Child, Adolescent & Young Adult Hospital in Atlanta, GA","41 Perimeter Ctr E Ste 250","30346",33.924537658691406,-84.33125305175781
"30338","Atlanta","GA","Perimeter Surgery Center","1140 Hammond Dr","30328",33.920902563202084,-84.34960147936746
"30338","Atlanta","GA","Mologne Health Clinic","not_available","30338",33.9239616394043,-84.31217956542969
"30338","Atlanta","GA","Pediatric Works","6065 Lake Forrest Dr. 250","30328",33.92566680908203,-84.30706787109375
"30338","Atlanta","GA","Executive Heart","2 Ravinia Dr Ste 500","30346",33.92222213745117,-84.33589935302734
"30338","Atlanta","GA","Dunwoody Animal Medical Center","2458 Jett Ferry Rd #200","30338",33.95861411242709,-84.30377849886251
"30338","Atlanta","GA","Dunwoody Urgent Care","1730 Mount Vernon Rd #8","30338",33.947609,-84.330812
"30338","Atlanta","GA","Prestige Urgent Care Center","1745 Old Spring House Ln Ste 440","30338",33.923538,-84.317207
"30338","Atlanta","GA","Northeast Atlanta Vascular Care","Dunwoody Park South","30338",33.9213453,-84.3102282
"30340","Atlanta","GA","Urgent Medical Care","3031 Shallowford Rd NE","30341",33.876892,-84.287189
"30340","Atlanta","GA","Prompt Medical Care","5461 Buford Hwy NE","30340",33.900732,-84.27588
"30341","Atlanta","GA","PruittHealth - Brookhaven","3535 Ashton Woods Dr NE","30319",33.89424269,-84.31885526
"30341","Atlanta","GA","AFC Urgent Care Chamblee-Brookhaven","5001 Peachtree Blvd Ste 115","30341",33.88509750366211,-84.3143539428711
"30341","Atlanta","GA","Clairmont Medical Clinic","3490 Clairmont Rd NE","30319",33.860899,-84.310214
"30344","Atlanta","GA","Wellstar Atlanta Medical Center South","1170 Cleveland Avenue","30344",33.67982969808865,-84.4269342580742
"30344","Atlanta","GA","South Fulton Ambulance Bay","not_available","30344",33.680489,-84.427559
"30349","Atlanta","GA","Talbott Recovery Campus","5448 Yorktowne Dr","30349",33.609655,-84.45149
"30349","Atlanta","GA","Anchor Hospital","5454 Yorktowne Drive","30349",33.6067858,-84.4523067
"30349","Atlanta","GA","Hospital","not_available","30349",33.613123,-84.449571
"30350","Atlanta","GA","MediClinic of Georgia","7887 Roswell Rd Ste B","30350",33.972599,-84.357345
"30401","Swainsboro","GA","PruittHealth - Swainsboro","856 US Hwy 1 S","30401",32.55825937,-82.31948699
"30401","Swainsboro","GA","Emmanuel County Hospital","51-117 Kight Rd","30401",32.592525816083125,-82.34708310079095
"30413","Bartow","GA","Piedmont Hospital Nutrition Education Dept.","Peachtree Street","30434",33.009456,-82.404413
"30413","Bartow","GA","PruittHealth - Old Capitol","310 Old US Hwy 1","30434",32.99522717,-82.40481664
"30421","Collins","GA","Optim Orthopedic","247 S Main St","30453",32.08045196533203,-82.1089859008789
"30436","Lyons","GA","Meadows Regional Medical Center","not_available","30474",32.121524810791016,-82.39131927490234
"30436","Lyons","GA","The Oaks - Bethany (Skilled Nursing)","1305 E North St","30474",32.21556666,-82.39421267
"30436","Lyons","GA","Meadows Regional Medical Center","Near 501-561 Maple Dr","not_available",32.20688815688427,-82.38841149672412
"30436","Lyons","GA","Accordia Urgent Care & Family Practice","3193 E 1st St","30474",32.20355,-82.35962
"30439","Metter","GA","Candler County Hospital","400 Cedar St","30439",32.40720394215014,-82.06590152381386
"30439","Metter","GA","Excelsior Ambulance Service","not_available","30439",32.37554595824037,-82.06339616788313
"30442","Millen","GA","Bethany Nursing Home Center","not_available","30442",32.797115325927734,-81.94242858886719
"30442","Millen","GA","Jenkins County Hospital","E College Ave.","30442",32.8043371464405,-81.9341323503927
"30442","Millen","GA","PruittHealth - Bethany","466 S Gray St","30442",32.7974244,-81.94217156
"30452","Register","GA","Capital City Ambulance Service","Us Highway 301 N, Statesboro, GA 30458","30458",32.40170814105152,-81.824653698377
"30453","Reidsville","GA","Doctor's hospital","not_available","30453",32.002536,-82.16508
"30458","Statesboro","GA","East Georgia Regional Medical Center Emergency Room","1499 Fair Rd","30458",32.41425713008695,-81.76944439501652
"30458","Statesboro","GA","East Georgia Urgent Care","not_available","30458",32.43799871077451,-81.81511607280102
"30458","Statesboro","GA","Kindred at Home","1525 Fair Rd","30458",32.41086217,-81.7666003
"30458","Statesboro","GA","RenewalMD Statesboro","1209 Merchant Way Suite 301","30458",32.4097704,-81.7698528
"30458","Statesboro","GA","Ogeechee Area Hospice","200 Donehoo Street","30458",32.44183489,-81.77231678
"30458","Statesboro","GA","St. Joseph's/Candler Urgent Care  - Statesboro","1096 Bermuda Run","30458",32.41330337524414,-81.77234649658203
"30458","Statesboro","GA","We Can Build Association","430 Northside Dr E Ste 160 PMB 346","30458",32.43971633911133,-81.76350402832031
"30467","Sylvania","GA","Optim Healthcare","215 Mims Rd, Sylvania, GA 30467","30467",32.75026321411133,-81.64697265625
"30501","Gainesville","GA","Northeast Georgia Medical Center","743 Spring St NE","30501",34.30330012552729,-83.81674098430189
"30501","Gainesville","GA","Laurelwood Psychiatric Hospital","not_available","30501",34.303364131174305,-83.81460612382357
"30501","Gainesville","GA","Hospice of NGMC","Limestone Parkway","30501",34.318570693760854,-83.79960061104859
"30501","Gainesville","GA","ACR-2","743 Spring Street","30501",34.306122038735374,-83.81762602969808
"30501","Gainesville","GA","Hospice Love Light Tree Christmas","203 Wisteria Dr","30501",34.305213928222656,-83.81536865234375
"30501","Gainesville","GA","Urgent Care Gainesville","S. Enota St","30501",34.31089057023599,-83.81646749457812
"30501","Gainesville","GA","1480 Building","1480 Jesse Jewell Pkwy SE","30501",34.306114196777344,-83.8077163696289
"30501","Gainesville","GA","Lanier Urgent Care","1429 Thompson Bridge Rd","30501",34.321503,-83.833478
"30501","Gainesville","GA","HR Conference Room","not_available","30542",34.303712023889524,-83.81774696370523
"30501","Gainesville","GA","NEGMC Radiation Group, Oncology Suite","Jesse Jewell Parkway","30501",34.3034950842007,-83.8165592665427
"30504","Gainesville","GA","Guilford Immediate Care","4205 Mundy Mill Pl","30566",34.24701,-83.88462
"30506","Gainesville","GA","Medical Plaza 400 & Urgent Care","108 Prominence Ct","30534",34.368814957462995,-84.0327710743439
"30506","Gainesville","GA","Northside Urgent Care","not_available","30534",34.36171697953265,-84.04146390272143
"30510","Alto","GA","The Oaks - Scenic View (Skilled Nursing)","205 Peach Orchard Rd","30511",34.49900442,-83.53471286
"30512","Blairsville","GA","Union General Hospital","35 Hospital Rd","30512",34.88561798932269,-83.96259305938668
"30512","Blairsville","GA","Hearing Solutions of North Georgia","63 Plott St,","30512",34.878170013427734,-83.95870208740234
"30512","Blairsville","GA","Union General EMS","not_available","30512",34.88705,-83.961336
"30512","Blairsville","GA","Chatuge Regional Hospital","not_available","30546",34.96755423,-83.80540744
"30513","Blue Ridge","GA","Fannin Regional Hospital","2855 Old Highway 5","30513",34.91686373045638,-84.37486084191502
"30513","Blue Ridge","GA","PruittHealth - Blue Ridge","99 Ouida St","30513",34.85789056,-84.32335738
"30513","Blue Ridge","GA","North Georgia Medical Center","1362 S Main St","30540",34.67856216430664,-84.49365997314453
"30513","Blue Ridge","GA","Piedmont Mountainside - Ellijay Emergency Room","1360 S Main St","30540",34.67914962768555,-84.49284362792969
"30517","Braselton","GA","Northeast Georgia Medical Center Braselton","1400 River Pl","30517",34.120580724204416,-83.83756847612881
"30517","Braselton","GA","Aesthetic Center of Gainesville","1515 River Place #390","30517",34.1175774,-83.8398106
"30517","Braselton","GA","Braselton Urgent Care Center","5875 Thompson Mill Rd","30548",34.11729961742837,-83.83987856402254
"30518","Buford","GA","Urgent Care","not_available","30518",34.14396604246264,-83.95241192124449
"30518","Buford","GA","Laboratory Design & Supply Inc","5018 Bristol Industrial Way","30518",34.141521000000004,-83.959776
"30518","Buford","GA","Acute Care","not_available","30519",34.128619,-83.96168
"30518","Buford","GA","PruittHealth - Lanier","2451 Peachtree Industrial Blvd","30518",34.134568,-84.000721
"30518","Buford","GA","The Little Clinic","6001 Cumming Hwy","30518",34.1220273,-84.0772239
"30519","Buford","GA","emory university hospital","Clinton To","not_available",34.091829,-83.86288
"30519","Buford","GA","Certified Home Care Of Georgia","919 Koala Ct","30043",34.05222,-84.005397
"30520","Canon","GA","Ty Cobb Hospital","not_available","30662",34.284674570921254,-83.13401882305251
"30520","Canon","GA","Cobb Memorial Hospital","521 Franklin Springs Street","30662",34.28481674194336,-83.1185302734375
"30520","Canon","GA","Reddy Urgent Care","132 Franklin Springs St","30662",34.2874991013601,-83.11236548786178
"30521","Carnesville","GA","New Beginnings Ministry of Franklin County, Georgia, Inc.","1258 Greater Hope Rd","30557",34.46588134765625,-83.20965576171875
"30523","Clarkesville","GA","Stephen County Hospital","163 Hospital Dr","30577",34.593250318437256,-83.34810166545158
"30523","Clarkesville","GA","Urgent Med of Toccoa","1238 Falls Rd","30577",34.5940659875819,-83.3454092852848
"30523","Clarkesville","GA","Habersham EMS West","not_available","30523",34.65962822783064,-83.63863839925664
"30525","Clayton","GA","Mountain Lake Hospital","196 Ridgecrest Cir","30525",34.88404083251953,-83.414794921875
"30525","Clayton","GA","Convenient Care","563 Mountain City Rd","30525",34.8961296081543,-83.39344787597656
"30528","Cleveland","GA","Baby Land General","not_available","30554",34.60334996564924,-83.76113753774464
"30528","Cleveland","GA","Chestatee Regional Hospital","227 Mountain Dr","30533",34.52286547716634,-83.97552113371151
"30528","Cleveland","GA","Northeast Georgia Medical Center","not_available","30533",34.52912902832031,-83.982421875
"30529","Commerce","GA","Urgent Care Banks Crossing","415B Pottery Factory Drive","30529",34.250892639160156,-83.46493530273438
"30529","Commerce","GA","saint anthony memorial hospital","301 Homer St, Maysville, GA 30558","30558",34.2582893371582,-83.55973052978516
"30531","Cornelia","GA","Habersham EMS South","not_available","30531",34.51065123924404,-83.52566007414501
"30534","Dawsonville","GA","Family Medicine Urgent Care","6002 Highway 53 E","30534",34.368574,-84.04241
"30534","Dawsonville","GA","Anderson Family Medicine","81 Northside Dawson Dr Ste 205","30534",34.36206817626953,-84.04143524169922
"30535","Demorest","GA","Habersham Medical Center","541 441 Historic Hwy N","30535",34.58055243327404,-83.53720812906553
"30535","Demorest","GA","Habersham EMS Sta21","Adams Drive","30535",34.58024085312677,-83.53897162181278
"30535","Demorest","GA","2100","not_available","30535",34.58032906685751,-83.53927453470862
"30549","Jefferson","GA","Barrow Regional Medical Center","not_available","30680",34.008398748023936,-83.70700748656743
"30549","Jefferson","GA","Piedmont Urgent Care - Jefferson","528 Panther Dr","30549",34.10804611038227,-83.59681482204923
"30549","Jefferson","GA","The Little Clinic","1685 Old Pendergrass Rd","30549",34.121939319117566,-83.60702186822891
"30553","Lavonia","GA","Ty Cobb Regional Medical Center","367 Clear Creek Pkwy","30553",34.44057302117791,-83.13160650127931
"30553","Lavonia","GA","University Cancer & Blood Center","355 Clear Creek Pkwy Ste 2007","30553",34.46384259474822,-82.99050807952881
"30577","Toccoa","GA","Women's Wellness Center","121 Big a Rd N","30577",34.5789070651948,-83.31614207599259
"30577","Toccoa","GA","Pruitt Health","633 Falls Rd","30577",34.587086,-83.34026
"30577","Toccoa","GA","Blood Connection Blood Mobile","not_available","30577",34.57446254504637,-83.35266916653114
"30601","Athens","GA","Piedmont Athens Regional","1199 Prince Ave","30606",33.96157662871112,-83.39859051460158
"30601","Athens","GA","Athens Orthopedic Clinic Urgent Care","125 King Ave","30606",33.96077153706517,-83.39737520433762
"30601","Athens","GA","St. Mary's Hospital","1230 Baxter St","30606",33.94692008600165,-83.40579986572266
"30601","Athens","GA","Reddy Urgent Care Downtown Athens","283 E Broad St","30601",33.95807,-83.374574
"30601","Athens","GA","Athens Nephrology","2047 Prince Ave","30606",33.969425,-83.40916
"30601","Athens","GA","PruittHealth - Grandview","165 Winston Dr","30607",33.97555125,-83.39511781
"30601","Athens","GA","Landmark Hospital","775 Sunset Dr","30606",33.966397,-83.41166199999999
"30601","Athens","GA","3rd floor Athens regional medical center","not_available","30606",33.96255874633789,-83.39716339111328
"30601","Athens","GA","The Oaks - Athens","490 Kathwood Dr","30607",33.98657989501953,-83.40364837646484
"30601","Athens","GA","Piedmont Urgent Care - Athens","485 Highway 29 N","30601",33.9942947,-83.3387396
"30601","Athens","GA","County General","not_available","30601",33.976051,-83.366715
"30601","Athens","GA","Regional Health Services Building","110 Pine Needle Dr.","30606",33.96081507353042,-83.40023392441586
"30601","Athens","GA","heritage healthcare at grandview","not_available","30607",33.975551,-83.39514100000001
"30601","Athens","GA","The Little Clinic","700 Highway 29 N","30601",33.9966144,-83.3337031
"30605","Athens","GA","Reddy Urgent Care","4038 Lexington Rd","30605",33.938322244898,-83.3217710204082
"30605","Athens","GA","Odyssey","795-825 Gaines School Rd","30605",33.93023264,-83.33404304
"30606","Athens","GA","St. Mary's Outpatient Diagnostic Center","not_available","30622",33.91078488890774,-83.465212154343
"30606","Athens","GA","Reddy Urgent Care","1061 Dowdy Rd Ste 101","30606",33.9322162650602,-83.459845060241
"30606","Athens","GA","Outpatient Rehabilitation Services","Daniel Bridge Rd","30606",33.910563,-83.45696
"30606","Athens","GA","Piedmont Urgent Care at Oconee Health Campus","1305 Jennings Mill Road, Building A - West Wing, Suite 120","30677",33.9158859,-83.4659652
"30606","Athens","GA","St Mary's Wound Care Center","4017 Atlanta Hwy","30606",33.94015494969206,-83.47599557819002
"30620","Bethlehem","GA","Piedmont Urgent Care - Barrow","340 Exchange Blvd","30620",33.944117696834645,-83.7465901748514
"30621","Bishop","GA","Urgent Care Oconee","not_available","30677",33.871526,-83.442559
"30621","Bishop","GA","Piedmont Urgent Care - Watkinsville","1010 Village Dr","30677",33.8725075,-83.4361667
"30622","Bogart","GA","Ashford Orthopedic Specialists","1061 Dowdy Rd 202","30606",33.917106,-83.4409271
"30622","Bogart","GA","Reddy Urgent Care","1061 Dowdy Rd Ste 101","30601",33.917344,-83.441077
"30627","Carlton","GA","PruittHealth - Spring Valley","651 Rhodes Dr","30635",34.10077103,-82.88903746
"30631","Crawfordville","GA","Wills Memorial Hospital","120 Gordon St","30673",33.728580457782535,-82.74256605550494
"30633","Danielsville","GA","Reddy Urgent Care Danielsville","280 General Daniel Ave N","30633",34.12842,-83.21801
"30634","Dewy Rose","GA","EMH Acute Care","not_available","30635",34.11376056255142,-82.87464871835991
"30634","Dewy Rose","GA","RT Department","1 Medical Dr","30635",34.1136967260992,-82.8743858535341
"30642","Greensboro","GA","St. Mary's Good Samaritan Hospital","5401 Lake Oconee Pkwy","30642",33.48146414717899,-83.24214502887966
"30642","Greensboro","GA","Saint Mary's","not_available","30642",33.57295227050781,-83.17282104492188
"30643","Hartwell","GA","Animal Hospital Of Hartwell","Reed Creek Hwy","30643",34.37286319,-82.93803882
"30643","Hartwell","GA","Reddy Urgent Care","605 E Franklin St","30643",34.35433,-82.91906
"30650","Madison","GA","Meeting With Hospital Authority President","1077 S Main St","30650",33.58503341674805,-83.48048400878906
"30650","Madison","GA","Morgan Memorial Hospital","1073 S Main St","30650",33.58484485253474,-83.48032348182497
"30650","Madison","GA","National EMS","Eatonton Rd","not_available",33.57558822631836,-83.47650909423828
"30655","Monroe","GA","Clearview Hospital","not_available","30655",33.79893880075498,-83.74973708475623
"30655","Monroe","GA","Clearview Regional Medical Center Emergency Department","2151 W Spring St","30655",33.79888877194206,-83.7504529953003
"30655","Monroe","GA","Walton Regional Medical Center","Breedlove Dr.","30655",33.78287506012789,-83.7184788639342
"30655","Monroe","GA","Reddy Urgent Care","500 Great Oaks Dr Ste 9","30655",33.7911179,-83.74423340000001
"30680","Winder","GA","Elite Home Healthcare Services","138 Park Ave","30680",33.99376795,-83.71677874
"30701","Calhoun","GA","Gordon Hospital","1035 Red Bud Rd NE","30701",34.496358,-84.930644
"30701","Calhoun","GA","Walmart Care Clinic","448 West Belmont Dr.","30701",34.4802177756733,-84.9450198112042
"30701","Calhoun","GA","Gordon Hospital Radiology","not_available","30701",34.510438576357174,-84.92587465241446
"30701","Calhoun","GA","Room 174","100 Nine One One Blvd","30701",34.50962829589844,-84.92479705810547
"30705","Chatsworth","GA","Murray County Hospital","707 Old Dalton Ellijay Rd","30705",34.779781341552734,-84.78305053710938
"30705","Chatsworth","GA","Eastside EMS Base","not_available","30721",34.763356,-84.930015
"30707","Chickamauga","GA","PruittHealth - Shepherd Hills","800 Patterson Rd","30728",34.69716724,-85.26845985
"30707","Chickamauga","GA","CHI Memorial Convenient Care - LaFayette","615 E Villanow St","30728",34.7014963,-85.2694339
"30707","Chickamauga","GA","West Brow Fire and Rescue","not_available","30752",34.922913436993,-85.41423768295448
"30707","Chickamauga","GA","PruittHealth - LaFayette","205 Roadrunner Blvd","30728",34.72756604,-85.27545562
"30707","Chickamauga","GA","Safe Haven","not_available","30739",34.84165954589844,-85.24738311767578
"30720","Dalton","GA","Turner Maternal & Infant Care Center","Burleyson Rd","30720-1900",34.790465649400886,-84.98655094703038
"30720","Dalton","GA","Hamilton Medical Room 3134","not_available","30720",34.789633,-84.985078
"30720","Dalton","GA","Hamilton Health Care System","1200 Memorial Dr","30720",34.78988,-84.98484
"30720","Dalton","GA","Hamilton Emergency Medical Services","1105 Memorial Dr","30720",34.787601470947266,-84.98130798339844
"30720","Dalton","GA","Walmart Care Clinic","815 Shugart Rd","30720",34.78612,-84.99648
"30736","Ringgold","GA","CHI Memorial Hospital - Georgia","100 Gross Crescent Cir","30742",34.9467709400097,-85.26367092280634
"30736","Ringgold","GA","Hutcheson Urgent Care","4700 Battlefield Pkwy","30736",34.931633,-85.186139
"30736","Ringgold","GA","hutcheson ER","not_available","30741",34.95917512891918,-85.25987475032545
"30736","Ringgold","GA","Hutcheson On The Parkway","not_available","30736",34.9320420980708,-85.18669979255169
"30736","Ringgold","GA","American Family Care","26 Parkway Drive","30742",34.93994140625,-85.21815490722656
"30736","Ringgold","GA","American Family Care Oglethorpe","26 Fort Town Dr","30742",34.9474929,-85.2221533
"30736","Ringgold","GA","North Georgia Foot And Ankle","not_available","30742",34.944044,-85.243201
"30736","Ringgold","GA","Parkridge Hospital Room 137","not_available","37412",34.98083237743242,-85.19907607052319
"30736","Ringgold","GA","Hutcheson Medical Center","508-510 N Thomas Rd","30742",34.94728794812821,-85.2635132573814
"30736","Ringgold","GA","PruittHealth - Fort Oglethorpe","1067 Battlefield Pkwy","30742",34.955151,-85.246021
"30741","Rossville","GA","Cornerstone Medical Center","100 Gross Crescent Circle","30742",34.94728088378906,-85.26599884033203
"30750","Lookout Mountain","GA","Wildwood Lifestyle Center & Hospital","435 Life Style Ln","30757",34.980777740478516,-85.40168762207031
"30802","Appling","GA","Mednow","not_available","30813",33.487121,-82.200273
"30805","Blythe","GA","Evollove Care Professionals","not_available","30815",33.342951606223316,-82.08701133728027
"30809","Evans","GA","Doctor's Hospital Room 204!","Dewey Grey","not_available",33.508155822753906,-82.07276153564453
"30809","Evans","GA","Evans Urgent Care","800 Oakhurst Dr","30809",33.54100939468893,-82.12711586566373
"30809","Evans","GA","University Prompt Care Furys Ferry","1100 W Lake Dr Drive,","30907",33.542267,-82.083205
"30809","Evans","GA","Prompt Care","not_available","30809",33.53134458725863,-82.13001355883986
"30809","Evans","GA","University Hospital","walton way","30904",33.53899096666667,-82.121196
"30809","Evans","GA","Doctor's Hospital Rm. 205","Wheeler Rd.","not_available",33.50815200805664,-82.0728759765625
"30813","Grovetown","GA","Px Refill Pharmacy","not_available","30905",33.408195,-82.134892
"30813","Grovetown","GA","DDEAMC Emergecy Room","300 W Hospital Rd","30905",33.42681121826172,-82.13613891601562
"30816","Keysville","GA","Burke County Hospital","351 S Liberty St","30830",33.08354187011719,-82.01251983642578
"30816","Keysville","GA","Burke Co. Hospital","not_available","30830",33.10037,-82.00772
"30824","Thomson","GA","Intervention","not_available","30824",33.538646,-82.507688
"30824","Thomson","GA","University Hospital McDuffie","2460 Washington Rd","30824",33.52313995361328,-82.50321960449219
"30901","Augusta","GA","Charlie Norwood VA Medical Center","950 15th St","30901",33.47300089920571,-81.98590448805398
"30901","Augusta","GA","Operating Room","VA Downtown","30912",33.473321,-81.987812
"30901","Augusta","GA","Downtown Augusta Medical District","Walton Way","not_available",33.47282303069947,-81.98292299811092
"30901","Augusta","GA","Augusta University Medical Center","1120 15th St","30912",33.4709763568507,-81.9900119304657
"30901","Augusta","GA","University Hospital","1350 Walton Way","30901",33.471204571931246,-81.98116064071655
"30901","Augusta","GA","Children's Hospital of Georgia","1446 Harper St","30912",33.47107898727006,-81.98744870750676
"30901","Augusta","GA","GHSU Labor and Delivery","not_available","30901",33.471618665140284,-81.98956863447096
"30901","Augusta","GA","Walton Rehabilitation Hospital","1355 Independence Dr","30901",33.474816,-81.980104
"30901","Augusta","GA","department of Veterans Affairs Emergency Room","not_available","30904",33.477000192821,-81.97097741992239
"30901","Augusta","GA","University Hospital POB 1","820 Saint Sebastian Way","30901",33.473122550105366,-81.9831573097997
"30901","Augusta","GA","Pulmonary MD","2030 Walton Way","30904",33.475429999999996,-82.006027
"30901","Augusta","GA","va medical center","not_available","29841",33.47758102416992,-81.94446563720703
"30904","Augusta","GA","University Hospital Summerville","2260 Wrightsboro Rd","30904",33.465905027744384,-82.01771527144439
"30904","Augusta","GA","Charlie Norwood VA Medical Center","1 Freedom Way","30904",33.46521747839467,-82.02605014372294
"30904","Augusta","GA","Sick","not_available","30906",33.441420191254096,-82.04562743792373
"30904","Augusta","GA","MedNow Urgent Care","2851 Washington Rd","30909",33.51154435,-82.0368451
"30905","Augusta","GA","Eisenhower Army Medical Center","300 East Hospital Rd","30905",33.43083009072827,-82.12586195359552
"30905","Augusta","GA","Fort Gordon GA Outpatient / ER Pharmacy","Fort Gordon","not_available",33.440504,-82.112744
"30905","Augusta","GA","Medical Maintance","Bldg 300 E. Hospital Rd.","30905",33.42897349206862,-82.12664151534939
"30906","Augusta","GA","PruittHealth - Augusta","2541 Milledgeville Rd","30904",33.447299,-82.018596
"30907","Augusta","GA","Doctors Hospital of Augusta","3651 Wheeler Rd","30909",33.4866516,-82.0941369
"30907","Augusta","GA","JMS Burn Center","3675 J Dewey Gray Cir","30909",33.48718708191829,-82.09495067596436
"30907","Augusta","GA","Advanced Wound and Burn Clinic @ Doctors Hospital","not_available","30909",33.486993,-82.094226
"30907","Augusta","GA","Burn Unit Debridement Room","3651","30909",33.48709444597585,-82.09488493723703
"30907","Augusta","GA","Doctor's Hospital Cradle Club","not_available","30907",33.501426696777344,-82.08174896240234
"30907","Augusta","GA","Windermere Health and Rehabilitation Center","3618 J Dewey Gray Cir","30909",33.48430154,-82.095676
"30909","Augusta","GA","Gracewood ECRH","100 Fox Trce","30909",33.473569,-82.063599
"30909","Augusta","GA","Azalea Health and Rehabilitation Center","1600 Anthony Rd","30904",33.465588000000004,-82.019533
"30912","Augusta","GA","Georgia Radiation Therapy Center","821 Saint Sebastian Way","30912",33.471565989284386,-81.98426495476
"31005","Bonaire","GA","Houston County Ems Med 5","not_available","31047",32.50562481911887,-83.6488779304703
"31005","Bonaire","GA","The Little Clinic","774 Highway 96","31005",32.5528768,-83.6589245
"31008","Byron","GA","The Medical Center of Peach County","Hwy 247 Connector","31008",32.605040368041806,-83.75936309812806
"31008","Byron","GA","AlphaMed Urgent Care","113 Willie Lee Pkwy","31088",32.61496353149414,-83.69593048095703
"31008","Byron","GA","The Medical Center of Peach County Emergency Room","1960 GA Highway 247 Connector","31008",32.60492,-83.75934
"31008","Byron","GA","BioLife Plasma Services","4035 Watson Blvd","31093",32.614393,-83.70158599999999
"31014","Cochran","GA","Taylor Regional","790   341 blvd","31036",32.29779709476724,-83.48487837137618
"31015","Cordele","GA","Crisp Regional","not_available","31015",31.97766103217168,-83.78158330939738
"31015","Cordele","GA","Cordele Health & Rehab Center","1106 N 4th St","31015",31.9800338,-83.7777125
"31015","Cordele","GA","Crisp Urgent Care and Med Center","16th Ave","not_available",31.963760474920882,-83.77476822625884
"31020","Dry Branch","GA","Womens Center","not_available","31088",32.60520553409195,-83.60975504699618
"31021","Dublin","GA","Carl Vinson VA Medical Center","1826 Veterans Blvd","31021",32.53680910838544,-82.94142485188866
"31021","Dublin","GA","Laurens County Hospice","North Franklin Street","31021",32.542356,-82.903764
"31021","Dublin","GA","Accordia Urgent Care & Family Practice","1100 Hillcrest Pkwy","31021",32.5448,-82.93859
"31021","Dublin","GA","Hillcrest Urgent Care","1110 Hillcrest Pkwy","31021",32.542669477329,-82.94468102263512
"31021","Dublin","GA","fairview park hospital","Fairview Park Drive","31021",32.540505444854865,-82.94216013020906
"31023","Eastman","GA","Refuge House for Ladies Ministries Inc.","345 Pearl Bates Ave","31023",32.202441,-83.1948916
"31023","Eastman","GA","Hillcrest Urgent Care","Griffin Ave","31023",32.17863685081621,-83.18071330392377
"31023","Eastman","GA","Dodge County Hospital","901 Griffin Ave","31023",32.185752868652344,-83.177978515625
"31024","Eatonton","GA","Putnam General Hospital","not_available","31024",33.33558778691733,-83.37077441124778
"31024","Eatonton","GA","Putnam General Hospital","101 Greensboro Rd","31024",33.335693359375,-83.3710708618164
"31029","Forsyth","GA","Med Center Northwest","5925 Zebulon Rd","31210",32.88035878505516,-83.75911372714585
"31029","Forsyth","GA","PruittHealth - Monroe","4796 GA Highway 42 N","31029",33.15340682,-83.95636817
"31029","Forsyth","GA","PruittHealth - Forsyth","521 Cabiness Rd","31029",33.04668936,-83.93261755
"31029","Forsyth","GA","Monroe county hospital","not_available","31029",33.03163269598813,-83.94539690138953
"31029","Forsyth","GA","Quick Med","not_available","31210",32.880165100097656,-83.7591781616211
"31030","Fort Valley","GA","AppleCare - Perry","1365 Sam Nunn Blvd Ste D","31069",32.46773474304435,-83.74112963676453
"31030","Fort Valley","GA","Peach Regional Medical Center","not_available","31030",32.56678405492288,-83.87780574590366
"31032","Gray","GA","Urgent Care, Navicent Health","4795 Riverside Dr","31210",32.923805236816406,-83.71051788330078
"31032","Gray","GA","VIRA of Central Georgia","215 Sheraton Blvd Ste 2","31210",32.9215304,-83.7064249
"31041","Ideal","GA","Minona Geriatric & Dementia Center","not_available","31041",32.37202333130059,-84.19219149601483
"31042","Irwinton","GA","PruittHealth - Toomsboro","210 Main St","31090",32.81916427612305,-83.07969665527344
"31047","Kathleen","GA","Lake Joy Med-Stop","1118 GA Highway 96","31047",32.54698851948443,-83.69424693599076
"31047","Kathleen","GA","Perry Hospital","Morningside Drive","31069",32.459073980494146,-83.71012559156364
"31047","Kathleen","GA","Houston County Ems Perry","Zone 3","31069",32.458379,-83.709652
"31061","Milledgeville","GA","Wood Bldg","not_available","31061",33.1126329,-83.2281623
"31061","Milledgeville","GA","Oconee Regional Medical Center","cobb street","31061",33.08940322662022,-83.24479527820264
"31061","Milledgeville","GA","Women's Breast Diagnostic Center","821 N Cobb St, Milledgeville, GA 31061","31061",33.08952331542969,-83.24581146240234
"31061","Milledgeville","GA","Navicent Health Baldwin","821 N Cobb St","31061",33.08952331542969,-83.24581146240234
"31063","Montezuma","GA","Flint River ER","not_available","31068",32.2947105,-84.019304
"31063","Montezuma","GA","Flint River Hospital","not_available","31063",32.29449442610453,-84.03029308014402
"31064","Monticello","GA","Jasper Memorial Hospital","898 College St","31064",33.31415282045017,-83.68649647542176
"31088","Warner Robins","GA","Houston Medical Center","1601 Watson Blvd","31093",32.617273322876095,-83.63061080731947
"31088","Warner Robins","GA","Womans Center @ Houston Medical Center","not_available","31093",32.61652382692112,-83.631252
"31088","Warner Robins","GA","Houston Primary Care","1719 Russell Pkwy Ste 700","31088",32.59071309999999,-83.66140229999999
"31088","Warner Robins","GA","AppleCare Warner Robins","151 S. Houston Lake Road","31088",32.61525,-83.68171
"31088","Warner Robins","GA","HLAH","528 S Houston Lake Rd","31088",32.60332299501721,-83.67341707900506
"31088","Warner Robins","GA","Accordia Urgent Care & Family Practice","1205 Russell Pkwy","31088",32.59333,-83.64622
"31092","Vienna","GA","henrico doctors hospital parham","Parham Road","not_available",32.05311965942383,-83.72078704833984
"31201","Macon","GA","Coliseum Medical Centers","350 Hospital Dr","31217",32.846841,-83.618814
"31201","Macon","GA","Medical Center of Central Georgia","777 Hemlock St","31201",32.83376465788375,-83.6354012293451
"31201","Macon","GA","MCCG Infusion Center","Pine st","31201",32.83460374429967,-83.63567688316691
"31201","Macon","GA","Surgery Center","820 pine st","not_available",32.83471485918975,-83.63586158390439
"31201","Macon","GA","Emergency Room","not_available","31217",32.84717946950376,-83.6183362157587
"31201","Macon","GA","colliseum medical center","not_available","31201",32.83551151857563,-83.63781230622207
"31201","Macon","GA","Respiratory Services","777 Hemlock St, Macon, GA 31201","31201",32.833526611328125,-83.63607788085938
"31201","Macon","GA","Pediatric Surgical Associates","770 Pine St","31201",32.83388,-83.636059
"31201","Macon","GA","Beverly Knight Olson Children's Hospital, Navicent Health","888 Pine St","31201",32.834659576416016,-83.63674926757812
"31201","Macon","GA","RMS Access Center","889 2nd St","31201",32.83082962036133,-83.63458251953125
"31201","Macon","GA","Obgyneconsultants","639 Hemlock St","31201",32.831912994384766,-83.63347625732422
"31201","Macon","GA","MCCG-EMS Dispatch","675 New St","31201",32.83515,-83.635387
"31201","Macon","GA","Coliseum Center for Behavioral Health","340 Hospital Dr","31217",32.847212,-83.619873
"31201","Macon","GA","Respiratory Team Room","Hemlock St, Macon, GA 31201","31201",32.832279205322266,-83.63499450683594
"31201","Macon","GA","Mccg Pharmacy","700 pine st","31201",32.83557699,-83.63692012
"31204","Macon","GA","Northside Emergency Room","400 Charter Blvd","31210",32.872170824986924,-83.69461222743232
"31204","Macon","GA","Quick Med North","3412 Riverside Dr","31210",32.89400100708008,-83.68030548095703
"31204","Macon","GA","Post 2","Pio nono","31206",32.806696758104145,-83.66278594957748
"31204","Macon","GA","Walmart Care Clinic","6020 Harrison Rd # B","31206",32.80897521972656,-83.7187728881836
"31204","Macon","GA","Central Georgia Rehabilitation Center","Northside Drive","31210",32.8982771,-83.6838489
"31206","Macon","GA","Porterfield Health and Rehabilitation","3051 Whiteside Rd","31216",32.74078369140625,-83.67654418945312
"31206","Macon","GA","On the wall","Pine St","31201",32.83348655632109,-83.63682513673092
"31210","Macon","GA","Urgent Care, Navicent Health","3400 Riverside Dr","31210",32.8939066,-83.680425
"31210","Macon","GA","Neurology of Central Georgia","175 Water Tower Ct","31210",32.866929,-83.692287
"31210","Macon","GA","PruittHealth","2255 Anthony Road","31204",32.82303111,-83.67961358
"31211","Macon","GA","Urgent Care, Navicent Health","1339 Gray Hwy","31211",32.8616165,-83.6129335
"31211","Macon","GA","PruittHealth - Eastside","2795 Finney Cir","31217",32.85890162,-83.57989334
"31211","Macon","GA","Coliseum Outpatient Diagnostic Center","Hospital Dr","not_available",32.846658281571884,-83.61913138275435
"31211","Macon","GA","Riveredge Rehabilitation","175","31052",32.84691174485122,-83.6236163515627
"31211","Macon","GA","MCCG Med Unit 612","not_available","31204",32.846214,-83.662169
"31216","Macon","GA","The Little Clinic","4321 Hartley Bridge Rd","31216",32.74503717123554,-83.7136485641505
"31217","Macon","GA","Skin Care Physicians of Georgia","308 Coliseum Drive Suite 200","31217",32.8449427,-83.6186426
"31302","Bloomingdale","GA","St. Joseph's/Candler Urgent Care  - Pooler Campus","101 Saint Josephs Candler Dr Ste 100","31322",32.08956686559318,-81.27539920006944
"31302","Bloomingdale","GA","St. Joseph’s/Candler – Pooler Campus","101 St Josephs Candler Dr","31322",32.089634,-81.27544879999999
"31312","Guyton","GA","Effingham Health System","459 GA Highway 119 S","31329",32.36427545424544,-81.32066854076086
"31313","Hinesville","GA","Child And Family Behavior Health","not_available","31314",31.873655,-81.60094
"31313","Hinesville","GA","Tmc","not_available","31313",31.867364859117156,-81.61049936799932
"31313","Hinesville","GA","Outpatient Medical Records","Harmon Ave","not_available",31.870702630808722,-81.60130879580191
"31313","Hinesville","GA","Winn Army Hospital Orthopedics","not_available","31315",31.87054,-81.61209
"31313","Hinesville","GA","Hawk's Troop Medical Clinic","192 Lindquist Rd","31314",31.868461750383734,-81.60626181930988
"31313","Hinesville","GA","RenewalMD Hinesville","600-B East Oglethorpe Hwy","31313",31.8503998,-81.58550199999999
"31313","Hinesville","GA","St. Joseph's/Candler Urgent Care (St. Joseph's Candler Urgent Care)","780 E Oglethorpe Hwy","31313",31.853476106427017,-81.5791212156501
"31316","Ludowici","GA","AppleCare Jesup","111 Colonial Way","31545",31.59804,-81.89988
"31316","Ludowici","GA","Wayne Memorial Hospital","865 South 1stt St","31545",31.601192866443807,-81.90061136665177
"31316","Ludowici","GA","Jesup Urgent Care","182 Sunset Blvd","31545",31.598402018375527,-81.90997408598327
"31322","Pooler","GA","OrthoNOW","421 Pooler Pkwy","31322",32.13633728027344,-81.2507095336914
"31322","Pooler","GA","Genesis Vascular of Pooler","1000 Towne Center Boulevard","31322",32.1416194,-81.2553915
"31322","Pooler","GA","Urgent Care 24/7 - Pooler","9 Mill Creek Cir Ste A-1","31322",32.139005,-81.246442
"31322","Pooler","GA","Candler Day Surgery","Derenne Avenue","not_available",32.06465724986713,-81.20850248255636
"31322","Pooler","GA","Pooler Urgent 1","145 Traders Way","31322",32.139259338378906,-81.25305938720703
"31322","Pooler","GA","St. Joseph's/Candler Urgent Care  - Pooler","107 Canal St","31322",32.13421192259011,-81.25411708782121
"31324","Richmond Hill","GA","Urgent Care 24/7 - Southside Savannah","11151 Abercorn St","31419",31.9795667,-81.1431901
"31324","Richmond Hill","GA","Hospice Care of Georgia","9998 Ford Ave","31324",31.94765853881836,-81.31135559082031
"31324","Richmond Hill","GA","Redicare Urgent Medical Care","4164 Coastal Hwy., US 17 S.","31324",31.929310081765514,-81.32959842681885
"31324","Richmond Hill","GA","Byran EMS Station 2","not_available","31324",31.90838,-81.360351
"31324","Richmond Hill","GA","The Urgent Care Center of Richmond Hill","60 Exchange St Ste B7","31324",31.9574117,-81.32106449999999
"31324","Richmond Hill","GA","OrthoNOW","11102 Abercorn St","31419",31.979995727539062,-81.14153289794922
"31326","Rincon","GA","St Joseph's/Candler Urgent Care (St Joseph's Candler Urgent Care)","5621 GA Highway 21 S","31326",32.26490008231821,-81.22141290426447
"31326","Rincon","GA","RenewalMD Rincon","802 Towne Park Drive","31326",32.26884078979492,-81.2236328125
"31328","Tybee Island","GA","Urgent Care 24/7 - Tybee Island","602 1st St Ste A","31328",32.0132263,-80.84528329999999
"31401","Savannah","GA","Old Candler Hospital","516 Drayton St","31401",32.06918716430664,-81.09394073486328
"31401","Savannah","GA","Evans Memorial Hospital","not_available","31401",32.075279235839844,-81.0986099243164
"31401","Savannah","GA","Urgent Care 24/7 - Historic Savannah","144 Lincoln St","31401",32.076421,-81.089179
"31401","Savannah","GA","Southern Urgent Care- Historic District","10 Whitaker St","31401",32.080545,-81.092557
"31401","Savannah","GA","Urgent Care 24/7 Historic Savannah","210 Fahm St.","31401",32.0785125,-81.1007848
"31404","Savannah","GA","Memorial Health University Medical Center","4700 Waters Ave Bldg 100 Ste 400","31404",32.03036890629312,-81.08897056315993
"31404","Savannah","GA","Memorial University Medical Center - ER","4700 Waters Ave","31404",32.029710227139866,-81.08904553119666
"31404","Savannah","GA","Memorial Health Labor & Delivery","not_available","31404",32.03049185206871,-81.08837078967781
"31404","Savannah","GA","Heart & Vascular Institute","4700 Waters Ave, Savannah, GA 31404","31404",32.029669338399124,-81.08791313238063
"31404","Savannah","GA","Southern Urgent Care","not_available","31410",32.042252117010456,-81.00613702065287
"31404","Savannah","GA","Memorial mother Housing","36e 66st","31404",32.02745482439926,-81.08867020942408
"31404","Savannah","GA","Memorial PACU RN Desk","4300 Waters Avenue","31404",32.03039018470636,-81.08916779341034
"31404","Savannah","GA","Memorial Hospital (Patient Transport)","Patient Transport","not_available",32.030357,-81.088701
"31404","Savannah","GA","Kindred at Home","2280 E Victory Dr","31404",32.037596,-81.05720925
"31404","Savannah","GA","Encompass Health Rehabilitation Hospital of Savannah","6510 Seawright Dr","31406",32.007397,-81.093805
"31405","Savannah","GA","Candler Hospital","5353 Reynolds St","31405",32.02809053496151,-81.10006953388107
"31405","Savannah","GA","Nancy N. and J.C Lewis Cancer & Research Pavilion","225 Candler Dr","31405",32.028302323633454,-81.10214608726803
"31405","Savannah","GA","Candler Hospital Day Surgery","not_available","31405",32.02780450794155,-81.0985446469959
"31405","Savannah","GA","Urgent Care of Berwick","5730 Ogeechee Rd Ste 192","31405",32.02629402740653,-81.22605988042602
"31405","Savannah","GA","AppleCare Urgent Care/Memorial Health","7205 Hodgeson Memorial Dr.","31406",32.00335,-81.1121
"31405","Savannah","GA","Central EMS","7701 Waters Ave","31406",32.00238800048828,-81.10289764404297
"31406","Savannah","GA","Ga Regional","1915 Eisenhower Dr","31406",31.999059000000003,-81.081385
"31406","Savannah","GA","Savannah Colon Hydrotherapy","121 A Oglethorpe Professional Court","31406",32.002643,-81.107745
"31406","Savannah","GA","Urgent Care Sandfly","not_available","31406",31.98514,-81.073503
"31406","Savannah","GA","St. Joseph's/Candler Urgent Care  - Savannah","361 Commercial Dr","31406",32.007511138916016,-81.10750579833984
"31406","Savannah","GA","Urgent Care 24/7 - Midtown","1202 E De Renne Ave","31406",32.024027000000004,-81.092277
"31406","Savannah","GA","Advantage Infusions","7001 Hodgson Memorial Dr Ste 5","31406",32.0121905,-81.1085763
"31406","Savannah","GA","DIY Urgent Care","not_available","31419",31.986149,-81.14758
"31406","Savannah","GA","Coastal Harbor Health System","1150 Cornell Avenue","31406",32.01249420000001,-81.09557439999999
"31406","Savannah","GA","Hospice Advantage Savannah","310 Commercial Dr Ste A","31406",32.00494384765625,-81.10774230957031
"31406","Savannah","GA","Coastal EMS - Station 1","6707 Forest Park Dr","31406",32.011977,-81.109539
"31406","Savannah","GA","PruittHealth - Savannah","12825 White Bluff Rd","31419",31.96704,-81.13600600000001
"31406","Savannah","GA","ExperCare Urgent Care & Occupational Medicine","318 Mall Blvd Ste 300B Ste 300B","31406",32.0051978,-81.11253669999999
"31406","Savannah","GA","Coastal Behavioral Health","633 Stephenson Ave","31405",32.009775,-81.101876
"31409","Savannah","GA","St. Joseph's Hospital","11705 Mercy Blvd","31419",31.985419719248064,-81.15480959415436
"31409","Savannah","GA","Joel Shanklin, MD","900 Mohawk Street, Suite A","31419",31.9849076,-81.1571344
"31409","Savannah","GA","Cardiothoracic Surgery of Savannah","11806 Mercy Blvd","31419",31.98332669181137,-81.15205764770506
"31409","Savannah","GA","Urgent One/Occupational Health","14089 Abercorn St","31419",31.983204458932008,-81.17580610225879
"31409","Savannah","GA","St. Joseph's/Candler Physician Network - Vascular","11909 McAuley Dr","31419",31.98697280883789,-81.15278625488281
"31409","Savannah","GA","AppleCare Savannah","14089 Abercorn Street","31419",31.983007431030273,-81.1759262084961
"31419","Savannah","GA","Southern Allergy & Asthma; Dr. Jack Eades","5223 Paulsen Street","31405",32.028638,-81.0971345
"31501","Waycross","GA","Mayo Clinic Health System","1900 Tebeau St","31501",31.22511919546949,-82.3480412364006
"31501","Waycross","GA","Hospice House","not_available","31501",31.23955920001038,-82.35626930367037
"31501","Waycross","GA","St. Vincent's Cardiology - Waycross Alma","1506 Alice St","31501",31.215627568947014,-82.35804319381714
"31501","Waycross","GA","Ascension Medical Group St. Vincent's Cardiology - Alma (Ascension Medical Group St. Vincent's Cardiology - Waycross Alma)","113 E 15th St","31510",31.213926315307617,-82.3600845336914
"31501","Waycross","GA","Ascension St. Vincent's Health Center - Waycross (Ascension Medical Group St. Vincent's Health Center - Waycross)","615 Pendleton St","31501",31.21399,-82.36002
"31510","Alma","GA","Radiology At Bacon County Hospital","not_available","31510",31.539685303912705,-82.45918952331985
"31510","Alma","GA","Bacon County Hospital and Health System","302 S Wayne St","31510",31.539364554363914,-82.45874548156263
"31513","Baxley","GA","AppleCare Baxley","948 S Main St","31513",31.7659,-82.35488
"31513","Baxley","GA","Appling EMS","not_available","31513",31.769879,-82.350485
"31520","Brunswick","GA","Southeast Georgia Health System","2415 Parkwood Dr","31520",31.17792,-81.491769
"31520","Brunswick","GA","Women's Imaging Center","not_available","31520",31.176234,-81.484435
"31520","Brunswick","GA","Brunswick Urgent Care","208 Scranton Connector","31525",31.2215988,-81.48860990000003
"31520","Brunswick","GA","SGHS Bronch Suite","Parkwood","31520",31.179572858777586,-81.48491339449649
"31520","Brunswick","GA","Southeast Georgia Health System","not_available","31523",31.200572807898983,-81.53563053776281
"31520","Brunswick","GA","JENNY SHARPE, FNP-C","208 Scranton Connector Ste 117","31525",31.2215988,-81.4886099
"31520","Brunswick","GA","Ergent Med-1","5248 New Jesup Hwy","31523",31.222603,-81.5229917
"31522","Saint Simons Island","GA","St. Simons-By-The-Sea","2927 Demere Road","31522",31.1637953,-81.4020895
"31522","Saint Simons Island","GA","St Simons Island Immediate Care Center","not_available","31522",31.167826,-81.407086
"31522","Saint Simons Island","GA","ergent med plus","106 Retreat Vlg","31522",31.159102,-81.389929
"31533","Douglas","GA","CRMC ER","not_available","31533",31.51089824255058,-82.86509028829697
"31533","Douglas","GA","Walk In Clinic","303 Shirley Ave","31533",31.507875442504883,-82.8620834350586
"31533","Douglas","GA","OneBlood","1214 N Peterson Ave","31533",31.52185703,-82.850143
"31537","Folkston","GA","Charlton Memorial Hospital","not_available","31537",30.844986688863195,-82.0052324475239
"31537","Folkston","GA","Amelia Medical Care and Occupational Medicine","3435 Second St S","31537",30.821662,-82.00325
"31539","Hazlehurst","GA","Spalding regional hospital","not_available","31539",31.8106608,-82.68147106666666
"31543","Hortense","GA","MCCG Heart Tower","Pine St.","not_available",31.447885513305664,-81.92407989501953
"31548","Kingsland","GA","Emergency Room","Southeast Georgia Health System - Camden Campus","not_available",30.781244806735177,-81.61518253835135
"31548","Kingsland","GA","AppleCare Immediate Care","1481 GA Highway 40 E","31548",30.786393,-81.643346
"31548","Kingsland","GA","OneBlood","6586 E King Ave","31548",30.77842584,-81.61861061
"31548","Kingsland","GA","Petro Lube","not_available","31548",30.79547749096343,-81.66631965552018
"31548","Kingsland","GA","AppleCare Immediate Care","1375 A","not_available",30.78825486931915,-81.64988770300724
"31548","Kingsland","GA","Ascension St. Vincent's Health Center - Kingsland","1375 E King Ave","31548",30.78846,-81.64978
"31548","Kingsland","GA","Urgent Care Camden","Hwy 40e","not_available",30.79438598,-81.66660977
"31548","Kingsland","GA","AppleCare Camden","1375 East King Avenue","31548",30.7879704,-81.6498149
"31558","Saint Marys","GA","Southeast Georgia Health System - Camden Campus","2000 Dan Proctor Dr","31558",30.756605,-81.563789
"31558","Saint Marys","GA","Southeast Georgia Health System Senior Center","Bay St","31558",30.752459,-81.563959
"31601","Valdosta","GA","South Georgia Medical Center Walk in Lab","not_available","31602",30.86011695050398,-83.28813489647992
"31602","Valdosta","GA","South Georgia Medical Center","2501 N Patterson St","31602",30.862447329125335,-83.28690804580664
"31602","Valdosta","GA","SGMC Smith Northview Campus","4280 N Valdosta Rd","31602",30.89832185579325,-83.33564708775945
"31602","Valdosta","GA","Pediatric Wing","SGMC","31602",30.862501358953093,-83.28712660634064
"31602","Valdosta","GA","PruittHealth - Lakehaven","410 Northside Dr","31602",30.8723546,-83.28132192
"31602","Valdosta","GA","Veteran's Affairs (VA) Outpatient Clinic","2841 N Patterson St","31602",30.868441,-83.289762
"31602","Valdosta","GA","PruittHealth - Holly Hill","413 Pendleton Pl","31602",30.86343526,-83.2813505
"31602","Valdosta","GA","PruittHealth - Valdosta","2501 N Ashley St","31602",30.86397798,-83.28408146
"31602","Valdosta","GA","PruittHealth - Crestwood","415 Pendleton Pl","31602",30.86348131,-83.28134647
"31605","Valdosta","GA","Moody Clinic","not_available","31699",30.976799122937653,-83.20729758421106
"31620","Adel","GA","Southwell Medical","260 Mj Taylor Road","31620",31.10898208618164,-83.42672729492188
"31620","Adel","GA","Memorial Hospital Of Adel","601-613 N Parrish Ave","31620",31.14423366666667,-83.42464276666666
"31634","Homerville","GA","Clinch County Memorial Hospital","1050 Valdosta Hwy","31634",31.034082412719727,-82.76432800292969
"31635","Lakeland","GA","Louis Smith Memorial Hospital","not_available","31635",31.042381286621094,-83.08625030517578
"31639","Nashville","GA","Berrien County Hospital","1221 E Mcpherson Ave, Nashville, GA 31639","31639",31.202594757080078,-83.23878479003906
"31643","Quitman","GA","Brooks County Hospital","not_available","31643",30.794952392578125,-83.55895233154297
"31643","Quitman","GA","Priority Wellness","315 E Screven St","31643",30.7845568,-83.55755879999998
"31643","Quitman","GA","Brooks County Hospital","903 N Court St","31643",30.7953742,-83.55907119999999
"31701","Albany","GA","phoebe cancer center","513 West Third Ave","31701",31.589406842368277,-84.15804051306341
"31701","Albany","GA","Phoebe Putney Memorial Hospital","417 W 3rd Ave","31701",31.58994365596139,-84.15769535035128
"31701","Albany","GA","Southwest Georgia Pediatrics","1110 N Monroe St","31701",31.59249,-84.15863
"31701","Albany","GA","Phoebe Surgicare","not_available","31701",31.589464854744726,-84.15793747968023
"31701","Albany","GA","Phoebe North","2000 Palmyra Rd","31701",31.606390421607475,-84.17016506195068
"31701","Albany","GA","PruittHealth - Palmyra","1904 Palmyra Rd","31701",31.6035775,-84.16844775
"31701","Albany","GA","Phoebe Sumter Medical Center","MLK Blvd","31709",31.57119369506836,-84.17349243164062
"31701","Albany","GA","Phoebe Wound Care & Hyperbaric Center","830 North Jefferson St.","31701",31.58827,-84.15650600000001
"31705","Albany","GA","Phoebe Convenient Care","100-130 Old Johnson Rd","31705",31.57378411,-84.092524
"31707","Albany","GA","Meredyth two","not_available","31707",31.611016623740095,-84.21763626542902
"31707","Albany","GA","QuickFix Family Convenient Care of Albany","2601 Stuart Avenue","31707",31.6138747,-84.2150758
"31709","Americus","GA","Phoebe Sumter Medical Center","1048 East Forsyth St.","31709",32.07438278198242,-84.2190933227539
"31709","Americus","GA","QuickFix Family Convenient Care Of Americus","116 West Church Street","31709",32.0703215,-84.2325812
"31714","Ashburn","GA","PruittHealth - Ashburn","441 Whiddon Rd","31714",31.70537955,-83.63988621
"31719","Americus","GA","PSMC pharmacy","not_available","31719",32.06707094845833,-84.2566651499979
"31730","Camilla","GA","Cole Chiropractic","HillCrest Professional Bldg","15089",31.31833780774186,-84.3437147140503
"31730","Camilla","GA","Mitchell County Hospital","not_available","31730",31.22925367,-84.20558014
"31730","Camilla","GA","Mitchell County Hospital","90 E Stephens St","31730",31.229745864868164,-84.20552062988281
"31730","Camilla","GA","Mitchell Convalescent Center","37 S Ellis St","31730",31.230409622192383,-84.20501708984375
"31744","Doerun","GA","Phoebe Business Office","not_available","31744",31.314483,-83.921136
"31750","Fitzgerald","GA","PruittHealth - Ocilla","209 W Hudson St","31774",31.5995917,-83.25265294
"31750","Fitzgerald","GA","Dorminy Medical Center","Eoo perry house road","Rwzd0",31.697526931762695,-83.2600326538086
"31750","Fitzgerald","GA","PruittHealth","185 Bowens Mill Highway","31750",31.72790525,-83.24683358
"31750","Fitzgerald","GA","Irwin County Hospital","not_available","31774",31.603567397419145,-83.25089084961598
"31757","Thomasville","GA","John D. Archbold Memorial Hospital","915 Gordon Ave","31792",30.825358226900185,-83.97242381438639
"31757","Thomasville","GA","Archbold Urgent Care","not_available","31792",30.852008819580078,-83.95086669921875
"31757","Thomasville","GA","Kindred at Home","16820 US Highway 19 N","31757",30.87618666,-83.95708835
"31757","Thomasville","GA","Rose City Health and Rehabilitation Center","930 S Broad St","31792",30.82702249,-83.97103461
"31757","Thomasville","GA","OneBlood","14815 US Highway 19 S","31792",30.851533889770508,-83.94609832763672
"31757","Thomasville","GA","Archbold Nephrology Group","334 Smith Ave","31792",30.8351423240376,-83.97519206997458
"31757","Thomasville","GA","Johnny D's House Of Healing","101-199 Pastime Dr","31792",30.82513337879341,-83.97128695105854
"31757","Thomasville","GA","Archbold Neurology Associates (Urology Associates of Archbold)","114 Mimosa Dr","31792",30.824879307988244,-83.97171592709128
"31768","Moultrie","GA","Turning Point Hospital","3015 South Veterans Parkway","31788",31.1276071,-83.77007239999999
"31768","Moultrie","GA","Dr. Thomas P. Loumeau, M.D.","126 Twin Lakes Dr","31768",31.10845375061035,-83.79219055175781
"31768","Moultrie","GA","PruittHealth - Sunrise","2709 S Main St","31768",31.13574967,-83.78160694
"31768","Moultrie","GA","Vereen Memorial Hospital Until The 70s","not_available","31768",31.163077,-83.790384
"31768","Moultrie","GA","PruittHealth - Moultrie","233 Sunset Cir","31768",31.1297423,-83.77815213
"31768","Moultrie","GA","PruittHealth - Magnolia Manor","3003 S Veterans Pkwy","31788",31.13242,-83.77028
"31768","Moultrie","GA","C.R.M.C.","3131 S Main St","31768",31.125658438642127,-83.78055267889992
"31768","Moultrie","GA","Turning Point Rehab Center","3011-3017 31st Ave SE","31788",31.1276956,-83.77051188333333
"31781","Poulan","GA","PruittHealth - Sylvester","104 Monk St","31791",31.53121345,-83.82358867
"31792","Thomasville","GA","Grady General Hospital: Emergency Room","1155 5th St SE","39828",30.863811492919922,-84.19915771484375
"31792","Thomasville","GA","Grady General Hospital","11th Ave SE","39828",30.863630676323517,-84.19899295279242
"31793","Tifton","GA","Affinity ExpressCare","2225 Highway 41 North","31794",31.476671,-83.5180918
"31794","Tifton","GA","Tift Regional Medical Center","E 20th St","31794",31.471233002527025,-83.4914694550598
"31794","Tifton","GA","Tift County EMS","not_available","31794",31.46357462662986,-83.5028471936646
"31794","Tifton","GA","Tifton Health and Rehabilitation Center","1451 Newton Dr","31794",31.45886982,-83.48787901
"31794","Tifton","GA","TRMC Sleep Center","Madison Avenue","31794",31.467566997955,-83.4909729749634
"31803","Buena Vista","GA","East alabama hospital","not_available","31803",32.3159998,-84.5138721
"31804","Cataula","GA","Talbotton ER","1380-1898 Ossahatchie Creek","34344",32.62993251666666,-84.77102375
"31808","Fortson","GA","vista care Hospice At Franciscan Woods","Williams Rd, Columbus, GA 31909","31909",32.56846798235795,-84.95934337980039
"31808","Fortson","GA","Cerrahpaşa Kulak Burun Boğaz Kliniğı","not_available","36877",32.573417,-85.093282
"31815","Lumpkin","GA","Four County Nursing Home","not_available","31825",32.08200246008553,-84.67040006854444
"31820","Midland","GA","American Family Care Gateway Road","6509 Gateway Rd","31909",32.5379409,-84.8752268
"31820","Midland","GA","Blackmon rd urgent care","not_available","31909",32.549944,-84.895896
"31820","Midland","GA","MyCare Urgent Care","7301 Blackmon Rd","31909",32.55020523071289,-84.89718627929688
"31820","Midland","GA","American Family Care","6509 Gateway Road","31909",32.537940979003906,-84.87522888183594
"31833","West Point","GA","George H. Lanier Memorial Hospital (Pharmacy)","4800 48th St","36854",32.824659672546574,-85.16848018757572
"31833","West Point","GA","Mainstreet Family Urgent Care","3306 20th Ave","36854",32.83992004394531,-85.17703247070312
"31833","West Point","GA","Medical Park Lazer epilasyon cilt Bakımı ünitesi","Medical Park","not_available",32.828250885009766,-85.16941833496094
"31833","West Point","GA","LHS Cath Lab","not_available","36854",32.82494349182143,-85.16841871130605
"31901","Columbus","GA","Columbus Regional","not_available","31901",32.481118480072766,-84.9815330668475
"31901","Columbus","GA","The Bradley Center","2000 16th Ave","31901",32.48259892212907,-84.96803373098373
"31901","Columbus","GA","Piedmont Columbus Regional-John B. Amos Cancer Center","1831 5th Ave","31904",32.4811828,-84.9868279
"31901","Columbus","GA","Piedmont Columbus Regional - Midtown","710 Center St","31901",32.4802456,-84.9824948
"31901","Columbus","GA","Columbus Public Health","not_available","31904",32.483459495571545,-84.97876491462983
"31901","Columbus","GA","Alabama Podiatry","5511 US-280 Ste 118","35242",32.453177,-84.9876402
"31901","Columbus","GA","Department of Veteran's Affairs","1310 13th Ave","31901",32.47132873535156,-84.97399139404297
"31901","Columbus","GA","The Brain And Spine Center @ The Medical Center","Center Street","31901",32.47979114404894,-84.98191399454107
"31903","Columbus","GA","Central Alabama Veterans Affairs Hospital (Ft Benning)","not_available","31905",32.392066,-84.929573
"31904","Columbus","GA","Jack Hughston Memorial Hospital","4401 Riverchase Dr","36867",32.508087,-85.008865
"31904","Columbus","GA","Piedmont Columbus Regional Northside Campus","100 Frist Ct","31909",32.534573,-84.951173
"31904","Columbus","GA","St. Francis Hospital","2122 Manchester Expy","31904",32.5053367,-84.9598345
"31904","Columbus","GA","The Surgery Center","Weems Road","31909",32.539381657047066,-84.94996804341794
"31904","Columbus","GA","Office #2","not_available","36867",32.508096,-85.008422
"31904","Columbus","GA","St Francis Medical Equipment","3744 Woodruff Rd","31904",32.500406,-84.95929699999999
"31904","Columbus","GA","Family First Medical Care","4215 Woodruff Rd","31904",32.50492209,-84.96186549
"31905","Fort Benning","GA","Martin Army Community Hospital","7950 Martin Loop","31905",32.37214177133704,-84.928640127182
"31905","Fort Benning","GA","YOE FAMILY EYE CENTER, P.C.","2404 13th St","31906",32.472321,-84.956707
"31905","Fort Benning","GA","Piedmont Urgent Care - Columbus Uptown","101 13th St Ste 200","31901",32.470831010390995,-84.99131478406144
"31905","Fort Benning","GA","Uptown Pediatrics","104 14th St","31901",32.471936,-84.99103199999999
"31905","Fort Benning","GA","Radiology","Fort Benning, GA 31905","31905",32.37031220603703,-84.92739477208237
"31905","Fort Benning","GA","In Alot Of Pain","not_available","31907",32.461653,-84.91584
"31905","Fort Benning","GA","MACH Radiology","7950 Martin Loop Bldg 9200","31905",32.3720817565918,-84.92810821533203
"31906","Columbus","GA","Basilio Pedictrics","2039 Warm Springs Rd","31904",32.497795,-84.961958
"31906","Columbus","GA","Georgia Department of Community Health, Division of Public Health, West Central Health District 7, Columbus Health Department","2100 Comer Ave","31904",32.48371311806429,-84.97879539044322
"31906","Columbus","GA","Concerts Urgent Care","1051","not_available",32.4849047146327,-84.97907983057033
"31907","Columbus","GA","West Central Geogia Regional Hospital","3000 Schatulga Rd","31907",32.490057,-84.86532700000001
"31909","Columbus","GA","Armour Road Urgent Care","4328 Armour Rd","31904",32.504178,-84.95229
"31909","Columbus","GA","Chelles Work!","2548 Weems Rd","31909",32.539126,-84.95004499999999
"31909","Columbus","GA","St Francis Women's Hospital","2300 Manchester Expy","31904",32.50506156496154,-84.96005652035495
"31909","Columbus","GA","St. Francis Rehabilitation Center","2300 Manchester Expy Ste 101-B","31904",32.50583950437188,-84.96065497398376
"31909","Columbus","GA","Room 441","2300","31904",32.505215,-84.961116
"31909","Columbus","GA","Glory Hospice & Palliative Care","114 Enterprise Ct","31904",32.534290000000006,-84.96172
"39817","Bainbridge","GA","Bainbridge healthcare","not_available","39819",30.896437016047418,-84.59239507739136
"39819","Bainbridge","GA","Florida State (Mental) Hospital","100 N Main St","32324",30.706521228039264,-84.84137780964375
"39823","Blakely","GA","Pioneer ER","not_available","39823",31.373296,-84.946141
"39823","Blakely","GA","PCH Early","11740 Columbia St","39823",31.373807907104492,-84.94572448730469
"39837","Colquitt","GA","Donalsonville Hospital","not_available","39845",31.05113410949707,-84.88062286376953
"39840","Cuthbert","GA","Southwest Georgia Regional Medical Center","210 highland ave","39840",31.773737898272095,-84.7932026594655
"39840","Cuthbert","GA","Joe-Anne Burgin Nursing Home","203 Rudolph street","39840",31.775293350219727,-84.79683685302734
